{
"type": "FeatureCollection",
"name": "Region 1 Selected Cropland",
"crs": { "type": "name", "properties": { "name": "urn:ogc:def:crs:OGC:1.3:CRS84" } },
"features": [
{ "type": "Feature", "properties": { "REGION": 1.0, "STATE.NAME": "Maharashtra", "DISTRICT.NAME": "Gadchiroli", "DISTRICT.AREA": 14527.292838, "GRID_G0": "200467", "woodland": 0.11564465197293226, "maskWdl": 0.0, "cropland": 0.72923810007802237, "maskCrp": 1.0, "one": 0.12966438378687009, "maskOne": 0.0, "GRID.AREA": 23.427650962992473, "REGION.AREA": 32202.066020262951 }, "geometry": { "type": "Polygon", "coordinates": [ [ [ 80.156537424750198, 20.616118591892448 ], [ 80.201534259565875, 20.616118597525269 ], [ 80.201534259565875, 20.66111544239897 ], [ 80.156537424750198, 20.661115451129575 ], [ 80.156537424750198, 20.616118591892448 ] ] ] } },
{ "type": "Feature", "properties": { "REGION": 1.0, "STATE.NAME": "Maharashtra", "DISTRICT.NAME": "Yavatmal", "DISTRICT.AREA": 13583.851744, "GRID_G0": "197823", "woodland": 0.16217468296474746, "maskWdl": 0.0, "cropland": 0.43531170430321109, "maskCrp": 0.0, "one": 0.35812588756160718, "maskOne": 1.0, "GRID.AREA": 23.459833849847623, "REGION.AREA": 32202.066020262951 }, "geometry": { "type": "Polygon", "coordinates": [ [ [ 78.176531634831932, 20.436118111323388 ], [ 78.221532867981381, 20.436118097814465 ], [ 78.221532867981381, 20.481119310622883 ], [ 78.176531634831946, 20.481119368907837 ], [ 78.176531634831932, 20.436118111323388 ] ] ] } },
{ "type": "Feature", "properties": { "REGION": 1.0, "STATE.NAME": "Maharashtra", "DISTRICT.NAME": "Yavatmal", "DISTRICT.AREA": 13583.851744, "GRID_G0": "197164", "woodland": 0.052546098913953114, "maskWdl": 0.0, "cropland": 0.84687841336425174, "maskCrp": 1.0, "one": 0.080620218326614451, "maskOne": 0.0, "GRID.AREA": 23.466725718130895, "REGION.AREA": 32202.066020262951 }, "geometry": { "type": "Polygon", "coordinates": [ [ [ 77.771533724775892, 20.391116867484932 ], [ 77.816535009901216, 20.391116852626354 ], [ 77.816535009901216, 20.436118071587853 ], [ 77.771533724775892, 20.436118111365928 ], [ 77.771533724775892, 20.391116867484932 ] ] ] } },
{ "type": "Feature", "properties": { "REGION": 1.0, "STATE.NAME": "Maharashtra", "DISTRICT.NAME": "Yavatmal", "DISTRICT.AREA": 13583.851744, "GRID_G0": "196523", "woodland": 0.046155138360498012, "maskWdl": 0.0, "cropland": 0.84990991380560077, "maskCrp": 1.0, "one": 0.085798117451115166, "maskOne": 0.0, "GRID.AREA": 23.473560782253621, "REGION.AREA": 32202.066020262951 }, "geometry": { "type": "Polygon", "coordinates": [ [ [ 78.176531634831946, 20.346115624875583 ], [ 78.221532867981381, 20.346115603891398 ], [ 78.221532867981381, 20.391116834441103 ], [ 78.176531634831932, 20.391116895177159 ], [ 78.176531634831946, 20.346115624875583 ] ] ] } },
{ "type": "Feature", "properties": { "REGION": 1.0, "STATE.NAME": "Maharashtra", "DISTRICT.NAME": "Yavatmal", "DISTRICT.AREA": 13583.851744, "GRID_G0": "195864", "woodland": 0.020090271067010959, "maskWdl": 0.0, "cropland": 0.51972862180292623, "maskCrp": 0.0, "one": 0.40838635018972591, "maskOne": 1.0, "GRID.AREA": 23.478096926274471, "REGION.AREA": 32202.066020262951 }, "geometry": { "type": "Polygon", "coordinates": [ [ [ 77.771533724775892, 20.30111883926352 ], [ 77.816535009901216, 20.301118777561832 ], [ 77.816535009901216, 20.346115600045749 ], [ 77.771533724775892, 20.346115592599013 ], [ 77.771533724775892, 20.30111883926352 ] ] ] } },
{ "type": "Feature", "properties": { "REGION": 1.0, "STATE.NAME": "Maharashtra", "DISTRICT.NAME": "Yavatmal", "DISTRICT.AREA": 13583.851744, "GRID_G0": "195866", "woodland": 0.0078098960945020973, "maskWdl": 0.0, "cropland": 0.7955209274287971, "maskCrp": 1.0, "one": 0.18698746971662578, "maskOne": 0.0, "GRID.AREA": 23.478089130015125, "REGION.AREA": 32202.066020262951 }, "geometry": { "type": "Polygon", "coordinates": [ [ [ 77.861531757373555, 20.301118839788316 ], [ 77.906533022918595, 20.301118775575958 ], [ 77.906533022918595, 20.346115580847357 ], [ 77.861531757373555, 20.34611561961016 ], [ 77.861531757373555, 20.301118839788316 ] ] ] } },
{ "type": "Feature", "properties": { "REGION": 1.0, "STATE.NAME": "Maharashtra", "DISTRICT.NAME": "Yavatmal", "DISTRICT.AREA": 13583.851744, "GRID_G0": "195872", "woodland": 0.12393840537082627, "maskWdl": 0.0, "cropland": 0.70026916493916214, "maskCrp": 1.0, "one": 0.11911965661172555, "maskOne": 0.0, "GRID.AREA": 23.475780262219853, "REGION.AREA": 32202.066020262951 }, "geometry": { "type": "Polygon", "coordinates": [ [ [ 78.131534777466058, 20.301118844813519 ], [ 78.176531634831946, 20.301118857879217 ], [ 78.176531634831946, 20.346115624875583 ], [ 78.131534777466058, 20.346115628316173 ], [ 78.131534777466058, 20.301118844813519 ] ] ] } },
{ "type": "Feature", "properties": { "REGION": 1.0, "STATE.NAME": "Maharashtra", "DISTRICT.NAME": "Yavatmal", "DISTRICT.AREA": 13583.851744, "GRID_G0": "195879", "woodland": 0.020861335223074189, "maskWdl": 0.0, "cropland": 0.58383480648619679, "maskCrp": 1.0, "one": 0.37758277631577897, "maskOne": 1.0, "GRID.AREA": 23.478051804414704, "REGION.AREA": 32202.066020262951 }, "geometry": { "type": "Polygon", "coordinates": [ [ [ 78.446534648681762, 20.30111881812412 ], [ 78.491535879173696, 20.30111884643496 ], [ 78.491535879173696, 20.346115607914285 ], [ 78.446534648681762, 20.346115568768603 ], [ 78.446534648681762, 20.30111881812412 ] ] ] } },
{ "type": "Feature", "properties": { "REGION": 1.0, "STATE.NAME": "Maharashtra", "DISTRICT.NAME": "Yavatmal", "DISTRICT.AREA": 13583.851744, "GRID_G0": "195880", "woodland": 0.063944658894143011, "maskWdl": 0.0, "cropland": 0.3692128716893629, "maskCrp": 0.0, "one": 0.52670296901201075, "maskOne": 1.0, "GRID.AREA": 23.475753683557912, "REGION.AREA": 32202.066020262951 }, "geometry": { "type": "Polygon", "coordinates": [ [ [ 78.491535879173696, 20.30111884643496 ], [ 78.536532660272343, 20.301118790598455 ], [ 78.536532660272343, 20.346115630252395 ], [ 78.491535879173696, 20.346115607914285 ], [ 78.491535879173696, 20.30111884643496 ] ] ] } },
{ "type": "Feature", "properties": { "REGION": 1.0, "STATE.NAME": "Maharashtra", "DISTRICT.NAME": "Yavatmal", "DISTRICT.AREA": 13583.851744, "GRID_G0": "191966", "woodland": 0.050724041019517996, "maskWdl": 0.0, "cropland": 0.86904725214329726, "maskCrp": 1.0, "one": 0.063609873536746547, "maskOne": 0.0, "GRID.AREA": 23.521156223653907, "REGION.AREA": 32202.066020262951 }, "geometry": { "type": "Polygon", "coordinates": [ [ [ 77.861531757373555, 20.031115758728628 ], [ 77.906533022918595, 20.031115751787318 ], [ 77.906533022918595, 20.076117060893498 ], [ 77.861531757373555, 20.076117025910285 ], [ 77.861531757373555, 20.031115758728628 ] ] ] } },
{ "type": "Feature", "properties": { "REGION": 1.0, "STATE.NAME": "Maharashtra", "DISTRICT.NAME": "Yavatmal", "DISTRICT.AREA": 13583.851744, "GRID_G0": "191967", "woodland": 0.096112136303070084, "maskWdl": 0.0, "cropland": 0.81579804700237857, "maskCrp": 1.0, "one": 0.054597239071362498, "maskOne": 0.0, "GRID.AREA": 23.521129634698482, "REGION.AREA": 32202.066020262951 }, "geometry": { "type": "Polygon", "coordinates": [ [ [ 77.906533022918595, 20.031115751787318 ], [ 77.951534251315636, 20.031115795809001 ], [ 77.951534251315636, 20.076117035552045 ], [ 77.906533022918595, 20.076117060893498 ], [ 77.906533022918595, 20.031115751787318 ] ] ] } },
{ "type": "Feature", "properties": { "REGION": 1.0, "STATE.NAME": "Maharashtra", "DISTRICT.NAME": "Yavatmal", "DISTRICT.AREA": 13583.851744, "GRID_G0": "190675", "woodland": 0.20047756453445881, "maskWdl": 0.0, "cropland": 0.6928061004846191, "maskCrp": 1.0, "one": 0.097225861854913914, "maskOne": 0.0, "GRID.AREA": 23.532242805880003, "REGION.AREA": 32202.066020262951 }, "geometry": { "type": "Polygon", "coordinates": [ [ [ 78.266534107122311, 19.941117747075083 ], [ 78.311535332528592, 19.941117751888719 ], [ 78.311535332528592, 19.986114560542941 ], [ 78.266534107122311, 19.986114526913919 ], [ 78.266534107122311, 19.941117747075083 ] ] ] } },
{ "type": "Feature", "properties": { "REGION": 1.0, "STATE.NAME": "Maharashtra", "DISTRICT.NAME": "Yavatmal", "DISTRICT.AREA": 13583.851744, "GRID_G0": "190682", "woodland": 0.26041009477552141, "maskWdl": 0.0, "cropland": 0.60592454417462649, "maskCrp": 1.0, "one": 0.11543154901515192, "maskOne": 0.0, "GRID.AREA": 23.532246921709582, "REGION.AREA": 32202.066020262951 }, "geometry": { "type": "Polygon", "coordinates": [ [ [ 78.58153389932626, 19.941117706006271 ], [ 78.626535152789216, 19.941117745617973 ], [ 78.626535152789216, 19.986114502568238 ], [ 78.58153389932626, 19.986114497162042 ], [ 78.58153389932626, 19.941117706006271 ] ] ] } },
{ "type": "Feature", "properties": { "REGION": 1.0, "STATE.NAME": "Maharashtra", "DISTRICT.NAME": "Yavatmal", "DISTRICT.AREA": 13583.851744, "GRID_G0": "190685", "woodland": 0.46090275516601098, "maskWdl": 1.0, "cropland": 0.35594293026976165, "maskCrp": 0.0, "one": 0.18075110167184705, "maskOne": 0.0, "GRID.AREA": 23.532235345247443, "REGION.AREA": 32202.066020262951 }, "geometry": { "type": "Polygon", "coordinates": [ [ [ 78.716533203310703, 19.941117784260044 ], [ 78.761534456541753, 19.941117726967423 ], [ 78.761534456541753, 19.986114518964854 ], [ 78.716533203310703, 19.986114496571698 ], [ 78.716533203310703, 19.941117784260044 ] ] ] } },
{ "type": "Feature", "properties": { "REGION": 1.0, "STATE.NAME": "Maharashtra", "DISTRICT.NAME": "Yavatmal", "DISTRICT.AREA": 13583.851744, "GRID_G0": "190011", "woodland": 0.020912865637349357, "maskWdl": 0.0, "cropland": 0.60534830156903885, "maskCrp": 1.0, "one": 0.35535489812172427, "maskOne": 1.0, "GRID.AREA": 23.538931041929349, "REGION.AREA": 32202.066020262951 }, "geometry": { "type": "Polygon", "coordinates": [ [ [ 77.636534486368078, 19.896116457502021 ], [ 77.681531217347981, 19.896116503575723 ], [ 77.681531217347981, 19.941117703426173 ], [ 77.636534486368078, 19.941117766036601 ], [ 77.636534486368078, 19.896116457502021 ] ] ] } },
{ "type": "Feature", "properties": { "REGION": 1.0, "STATE.NAME": "Maharashtra", "DISTRICT.NAME": "Yavatmal", "DISTRICT.AREA": 13583.851744, "GRID_G0": "190035", "woodland": 0.49012691967705346, "maskWdl": 1.0, "cropland": 0.21414576911825778, "maskCrp": 0.0, "one": 0.29492225641712355, "maskOne": 0.0, "GRID.AREA": 23.541289777463277, "REGION.AREA": 32202.066020262951 }, "geometry": { "type": "Polygon", "coordinates": [ [ [ 78.716533203310703, 19.896116539965544 ], [ 78.761534456541753, 19.896116489504458 ], [ 78.761534456541753, 19.941117726967423 ], [ 78.716533203310703, 19.941117784260044 ], [ 78.716533203310703, 19.896116539965544 ] ] ] } },
{ "type": "Feature", "properties": { "REGION": 1.0, "STATE.NAME": "Maharashtra", "DISTRICT.NAME": "Yavatmal", "DISTRICT.AREA": 13583.851744, "GRID_G0": "188079", "woodland": 0.020317999515542525, "maskWdl": 0.0, "cropland": 0.48439371854546232, "maskCrp": 0.0, "one": 0.48384568066416017, "maskOne": 1.0, "GRID.AREA": 1.1098971930434558, "REGION.AREA": 32202.066020262951 }, "geometry": { "type": "Polygon", "coordinates": [ [ [ 78.491535879173696, 19.792548257706372 ], [ 78.491535879173696, 19.806118430871031 ], [ 78.481673637209624, 19.806119393565737 ], [ 78.482497079276868, 19.804774713981942 ], [ 78.483165153249274, 19.803810676721412 ], [ 78.483616906095392, 19.802086590923466 ], [ 78.483617761350672, 19.802075240579942 ], [ 78.48361779012896, 19.802074861066046 ], [ 78.483683214009204, 19.801207208645796 ], [ 78.483887581346835, 19.79943692467441 ], [ 78.483985378122782, 19.79827118296879 ], [ 78.483985661409179, 19.798267791625335 ], [ 78.48446169235325, 19.796959039727938 ], [ 78.485052845512499, 19.796052938592315 ], [ 78.485958088694872, 19.795194970071861 ], [ 78.48731987451265, 19.793980229703887 ], [ 78.488528540859534, 19.793287525099231 ], [ 78.490255946055129, 19.792685352547039 ], [ 78.491303945820505, 19.792550920988276 ], [ 78.491306149159527, 19.792550638601142 ], [ 78.491535879173696, 19.792548257706372 ] ] ] } },
{ "type": "Feature", "properties": { "REGION": 1.0, "STATE.NAME": "Maharashtra", "DISTRICT.NAME": "Yavatmal", "DISTRICT.AREA": 13583.851744, "GRID_G0": "188087", "woodland": 0.025829167695250028, "maskWdl": 0.0, "cropland": 0.59911867590588552, "maskCrp": 1.0, "one": 0.34689318014863002, "maskOne": 1.0, "GRID.AREA": 23.193698942786764, "REGION.AREA": 32202.066020262951 }, "geometry": { "type": "Polygon", "coordinates": [ [ [ 78.851532483715133, 19.766686970755096 ], [ 78.851532483715147, 19.806118441951476 ], [ 78.806535721790198, 19.806118484939631 ], [ 78.806535721790198, 19.761117244962982 ], [ 78.813901153557779, 19.761118014618766 ], [ 78.814734728924634, 19.76153700612798 ], [ 78.816933989512052, 19.761838181886617 ], [ 78.818514130722633, 19.761569485143696 ], [ 78.819076755344483, 19.761118375217041 ], [ 78.836305754712185, 19.761118503769303 ], [ 78.836449079161753, 19.761169568320952 ], [ 78.840978220568516, 19.761895940845022 ], [ 78.842690378658119, 19.76249202858429 ], [ 78.84622827021856, 19.763294320076852 ], [ 78.848128720264299, 19.764041305062221 ], [ 78.84941552960305, 19.764918224096785 ], [ 78.850794552726484, 19.76589774768297 ], [ 78.851532483715133, 19.766686970755096 ] ] ] } },
{ "type": "Feature", "properties": { "REGION": 1.0, "STATE.NAME": "Telangana", "DISTRICT.NAME": "Adilabad", "DISTRICT.AREA": 3996.656205, "GRID_G0": "188079", "woodland": 0.020317999515542525, "maskWdl": 0.0, "cropland": 0.48439371854546232, "maskCrp": 0.0, "one": 0.48384568066416017, "maskOne": 1.0, "GRID.AREA": 22.451404954069577, "REGION.AREA": 32202.066020262951 }, "geometry": { "type": "Polygon", "coordinates": [ [ [ 78.481673637209624, 19.806119393565737 ], [ 78.446534648681762, 19.806118424451348 ], [ 78.446534648681762, 19.761117178475978 ], [ 78.491535879173696, 19.761117232278892 ], [ 78.491535879173696, 19.792548257706372 ], [ 78.491306149159527, 19.792550638601142 ], [ 78.491303945820505, 19.792550920988276 ], [ 78.490255946055129, 19.792685352547039 ], [ 78.488528540859534, 19.793287525099231 ], [ 78.48731987451265, 19.793980229703887 ], [ 78.485958088694872, 19.795194970071861 ], [ 78.485052845512499, 19.796052938592315 ], [ 78.48446169235325, 19.796959039727938 ], [ 78.483985661409179, 19.798267791625335 ], [ 78.483985378122782, 19.79827118296879 ], [ 78.483887581346835, 19.79943692467441 ], [ 78.483683214009204, 19.801207208645796 ], [ 78.48361779012896, 19.802074861066046 ], [ 78.483617761350672, 19.802075240579942 ], [ 78.483616906095392, 19.802086590923466 ], [ 78.483165153249274, 19.803810676721412 ], [ 78.482497079276868, 19.804774713981942 ], [ 78.481673637209624, 19.806119393565737 ] ] ] } },
{ "type": "Feature", "properties": { "REGION": 1.0, "STATE.NAME": "Telangana", "DISTRICT.NAME": "Adilabad", "DISTRICT.AREA": 3996.656205, "GRID_G0": "188087", "woodland": 0.025829167695250028, "maskWdl": 0.0, "cropland": 0.59911867590588552, "maskCrp": 1.0, "one": 0.34689318014863002, "maskOne": 1.0, "GRID.AREA": 0.049548013608057551, "REGION.AREA": 32202.066020262951 }, "geometry": { "type": "MultiPolygon", "coordinates": [ [ [ [ 78.836305754712185, 19.761118503769303 ], [ 78.840739018388348, 19.761118270186497 ], [ 78.840758923585497, 19.761253322183109 ], [ 78.840978220568516, 19.761895940845022 ], [ 78.836449079161753, 19.761169568320952 ], [ 78.836305754712185, 19.761118503769303 ] ] ], [ [ [ 78.813901153557779, 19.761118014618766 ], [ 78.819076755344483, 19.761118375217041 ], [ 78.818514130722633, 19.761569485143696 ], [ 78.816933989512052, 19.761838181886617 ], [ 78.814734728924634, 19.76153700612798 ], [ 78.813901153557779, 19.761118014618766 ] ] ] ] } },
{ "type": "Feature", "properties": { "REGION": 1.0, "STATE.NAME": "Telangana", "DISTRICT.NAME": "Adilabad", "DISTRICT.AREA": 3996.656205, "GRID_G0": "184185", "woodland": 0.27262870095520514, "maskWdl": 0.0, "cropland": 0.36535651042466671, "maskCrp": 0.0, "one": 0.35599029402920385, "maskOne": 1.0, "GRID.AREA": 23.601012269806425, "REGION.AREA": 32202.066020262951 }, "geometry": { "type": "Polygon", "coordinates": [ [ [ 78.716533203310703, 19.491114194591063 ], [ 78.761534456541753, 19.491114179718039 ], [ 78.761534456541753, 19.536115452443557 ], [ 78.716533203310703, 19.536115450690328 ], [ 78.716533203310703, 19.491114194591063 ] ] ] } },
{ "type": "Feature", "properties": { "REGION": 1.0, "STATE.NAME": "Telangana", "DISTRICT.NAME": "Adilabad", "DISTRICT.AREA": 3996.656205, "GRID_G0": "182883", "woodland": 0.19037341507410477, "maskWdl": 0.0, "cropland": 0.57697680365323012, "maskCrp": 1.0, "one": 0.22616102375685812, "maskOne": 0.0, "GRID.AREA": 23.611800557821461, "REGION.AREA": 32202.066020262951 }, "geometry": { "type": "Polygon", "coordinates": [ [ [ 78.626535152789216, 19.40111611994131 ], [ 78.671531984763533, 19.401116125406123 ], [ 78.671531984763533, 19.446117377252605 ], [ 78.626535152789216, 19.446117396080396 ], [ 78.626535152789216, 19.40111611994131 ] ] ] } },
{ "type": "Feature", "properties": { "REGION": 1.0, "STATE.NAME": "Telangana", "DISTRICT.NAME": "Adilabad", "DISTRICT.AREA": 3996.656205, "GRID_G0": "182232", "woodland": 0.098851537924628252, "maskWdl": 0.0, "cropland": 0.52637496388625038, "maskCrp": 0.0, "one": 0.37021097603712966, "maskOne": 1.0, "GRID.AREA": 23.620623894548213, "REGION.AREA": 32202.066020262951 }, "geometry": { "type": "Polygon", "coordinates": [ [ [ 78.58153389932626, 19.356114940238093 ], [ 78.626535152789216, 19.356114911836023 ], [ 78.626535152789216, 19.40111611994131 ], [ 78.58153389932626, 19.401116147523151 ], [ 78.58153389932626, 19.356114940238093 ] ] ] } },
{ "type": "Feature", "properties": { "REGION": 1.0, "STATE.NAME": "Telangana", "DISTRICT.NAME": "Adilabad", "DISTRICT.AREA": 3996.656205, "GRID_G0": "182233", "woodland": 0.30896763307505859, "maskWdl": 0.0, "cropland": 0.31275379792693431, "maskCrp": 0.0, "one": 0.3764644432754139, "maskOne": 1.0, "GRID.AREA": 23.618297664044224, "REGION.AREA": 32202.066020262951 }, "geometry": { "type": "Polygon", "coordinates": [ [ [ 78.626535152789216, 19.356114911836023 ], [ 78.671531984763533, 19.356114938867652 ], [ 78.671531984763533, 19.401116125406123 ], [ 78.626535152789216, 19.40111611994131 ], [ 78.626535152789216, 19.356114911836023 ] ] ] } },
{ "type": "Feature", "properties": { "REGION": 1.0, "STATE.NAME": "Telangana", "DISTRICT.NAME": "Adilabad", "DISTRICT.AREA": 3996.656205, "GRID_G0": "181574", "woodland": 0.44355741638423529, "maskWdl": 1.0, "cropland": 0.4252090045478561, "maskCrp": 0.0, "one": 0.12439625556927092, "maskOne": 0.0, "GRID.AREA": 23.624794777880563, "REGION.AREA": 32202.066020262951 }, "geometry": { "type": "Polygon", "coordinates": [ [ [ 78.221532867981381, 19.311118139880801 ], [ 78.266534107122311, 19.311118144991458 ], [ 78.266534107122311, 19.356114896746131 ], [ 78.221532867981381, 19.356114891944149 ], [ 78.221532867981381, 19.311118139880801 ] ] ] } },
{ "type": "Feature", "properties": { "REGION": 1.0, "STATE.NAME": "Telangana", "DISTRICT.NAME": "Adilabad", "DISTRICT.AREA": 3996.656205, "GRID_G0": "180926", "woodland": 0.17032098774486379, "maskWdl": 0.0, "cropland": 0.69172050289002096, "maskCrp": 1.0, "one": 0.1256230981014356, "maskOne": 0.0, "GRID.AREA": 23.631300363414805, "REGION.AREA": 32202.066020262951 }, "geometry": { "type": "Polygon", "coordinates": [ [ [ 78.311535332528592, 19.266116874409825 ], [ 78.356532096467092, 19.266116866422827 ], [ 78.356532096467092, 19.311118123162753 ], [ 78.311535332528592, 19.311118083177849 ], [ 78.311535332528592, 19.266116874409825 ] ] ] } },
{ "type": "Feature", "properties": { "REGION": 1.0, "STATE.NAME": "Telangana", "DISTRICT.NAME": "Adilabad", "DISTRICT.AREA": 3996.656205, "GRID_G0": "180278", "woodland": 0.27070097936407167, "maskWdl": 0.0, "cropland": 0.55207310629395734, "maskCrp": 1.0, "one": 0.16272340165169455, "maskOne": 0.0, "GRID.AREA": 23.640155743980273, "REGION.AREA": 32202.066020262951 }, "geometry": { "type": "Polygon", "coordinates": [ [ [ 78.401533409796329, 19.221115640047657 ], [ 78.446534648681762, 19.221115596305257 ], [ 78.446534648681762, 19.266116908361312 ], [ 78.401533409796329, 19.266116855283524 ], [ 78.401533409796329, 19.221115640047657 ] ] ] } }
]
}
