{
"type": "FeatureCollection",
"name": "Region 1 Selected Woodland",
"crs": { "type": "name", "properties": { "name": "urn:ogc:def:crs:OGC:1.3:CRS84" } },
"features": [
{ "type": "Feature", "properties": { "REGION": 1.0, "STATE.NAME": "Maharashtra", "DISTRICT.NAME": "Gadchiroli", "DISTRICT.AREA": 14527.292838, "GRID_G0": "199170", "woodland": 0.71702262319513921, "maskWdl": 1.0, "cropland": 0.16377888352451309, "maskCrp": 0.0, "one": 0.10117307871394027, "maskOne": 0.0, "GRID.AREA": 23.44376226239882, "REGION.AREA": 32202.066020262951 }, "geometry": { "type": "Polygon", "coordinates": [ [ [ 80.291536732472025, 20.526116176544122 ], [ 80.336533542262686, 20.52611612774 ], [ 80.336533542262686, 20.571117388724037 ], [ 80.291536732472025, 20.571117421353311 ], [ 80.291536732472025, 20.526116176544122 ] ] ] } },
{ "type": "Feature", "properties": { "REGION": 1.0, "STATE.NAME": "Maharashtra", "DISTRICT.NAME": "Gadchiroli", "DISTRICT.AREA": 14527.292838, "GRID_G0": "198520", "woodland": 0.80559014945641072, "maskWdl": 1.0, "cropland": 0.1263427747751826, "maskCrp": 0.0, "one": 0.066720201594388198, "maskOne": 0.0, "GRID.AREA": 23.448340269156407, "REGION.AREA": 32202.066020262951 }, "geometry": { "type": "Polygon", "coordinates": [ [ [ 80.291536732472025, 20.481119378118599 ], [ 80.336533542262686, 20.481119311566967 ], [ 80.336533542262686, 20.52611612774 ], [ 80.291536732472025, 20.526116176544122 ], [ 80.291536732472025, 20.481119378118599 ] ] ] } },
{ "type": "Feature", "properties": { "REGION": 1.0, "STATE.NAME": "Maharashtra", "DISTRICT.NAME": "Gadchiroli", "DISTRICT.AREA": 14527.292838, "GRID_G0": "195914", "woodland": 0.56782769355878449, "maskWdl": 1.0, "cropland": 0.29253300506686736, "maskCrp": 0.0, "one": 0.13304916355216631, "maskOne": 0.0, "GRID.AREA": 23.47803127190927, "REGION.AREA": 32202.066020262951 }, "geometry": { "type": "Polygon", "coordinates": [ [ [ 80.021533747255191, 20.301118819427728 ], [ 80.066534923665401, 20.30111884109559 ], [ 80.066534923665401, 20.346115554255771 ], [ 80.021533747255191, 20.346115647844258 ], [ 80.021533747255191, 20.301118819427728 ] ] ] } },
{ "type": "Feature", "properties": { "REGION": 1.0, "STATE.NAME": "Maharashtra", "DISTRICT.NAME": "Gadchiroli", "DISTRICT.AREA": 14527.292838, "GRID_G0": "186162", "woodland": 0.81451980744838304, "maskWdl": 1.0, "cropland": 0.11021621969175015, "maskCrp": 0.0, "one": 0.074582539418670796, "maskOne": 0.0, "GRID.AREA": 23.578928225070232, "REGION.AREA": 32202.066020262951 }, "geometry": { "type": "Polygon", "coordinates": [ [ [ 79.931535627200489, 19.626117944151957 ], [ 79.976536957850627, 19.626117955828953 ], [ 79.976536957850612, 19.671114712426292 ], [ 79.931535627200489, 19.67111473955557 ], [ 79.931535627200489, 19.626117944151957 ] ] ] } },
{ "type": "Feature", "properties": { "REGION": 1.0, "STATE.NAME": "Maharashtra", "DISTRICT.NAME": "Gadchiroli", "DISTRICT.AREA": 14527.292838, "GRID_G0": "186165", "woodland": 0.98625127203122931, "maskWdl": 1.0, "cropland": 0.0048545557660009423, "maskCrp": 0.0, "one": 0.0088622883496524262, "maskOne": 0.0, "GRID.AREA": 23.578899307100588, "REGION.AREA": 32202.066020262951 }, "geometry": { "type": "Polygon", "coordinates": [ [ [ 80.066534923665401, 19.626117910472871 ], [ 80.111536188429895, 19.626117945068241 ], [ 80.111536188429895, 19.671114724959683 ], [ 80.066534923665401, 19.671114703959848 ], [ 80.066534923665401, 19.626117910472871 ] ] ] } },
{ "type": "Feature", "properties": { "REGION": 1.0, "STATE.NAME": "Maharashtra", "DISTRICT.NAME": "Yavatmal", "DISTRICT.AREA": 13583.851744, "GRID_G0": "190673", "woodland": 0.45231287346818871, "maskWdl": 1.0, "cropland": 0.38783942784986142, "maskCrp": 0.0, "one": 0.14885092140569328, "maskOne": 0.0, "GRID.AREA": 23.5322406676169, "REGION.AREA": 32202.066020262951 }, "geometry": { "type": "Polygon", "coordinates": [ [ [ 78.176531634831946, 19.941117771980881 ], [ 78.221532867981381, 19.941117726245043 ], [ 78.221532867981381, 19.986114544893965 ], [ 78.176531634831946, 19.986114518159347 ], [ 78.176531634831946, 19.941117771980881 ] ] ] } },
{ "type": "Feature", "properties": { "REGION": 1.0, "STATE.NAME": "Maharashtra", "DISTRICT.NAME": "Yavatmal", "DISTRICT.AREA": 13583.851744, "GRID_G0": "190675", "woodland": 0.20047756453445881, "maskWdl": 0.0, "cropland": 0.6928061004846191, "maskCrp": 1.0, "one": 0.097225861854913914, "maskOne": 0.0, "GRID.AREA": 23.532242805880003, "REGION.AREA": 32202.066020262951 }, "geometry": { "type": "Polygon", "coordinates": [ [ [ 78.266534107122311, 19.941117747075083 ], [ 78.311535332528592, 19.941117751888719 ], [ 78.311535332528592, 19.986114560542941 ], [ 78.266534107122311, 19.986114526913919 ], [ 78.266534107122311, 19.941117747075083 ] ] ] } },
{ "type": "Feature", "properties": { "REGION": 1.0, "STATE.NAME": "Maharashtra", "DISTRICT.NAME": "Yavatmal", "DISTRICT.AREA": 13583.851744, "GRID_G0": "190682", "woodland": 0.26041009477552141, "maskWdl": 0.0, "cropland": 0.60592454417462649, "maskCrp": 1.0, "one": 0.11543154901515192, "maskOne": 0.0, "GRID.AREA": 23.532246921709582, "REGION.AREA": 32202.066020262951 }, "geometry": { "type": "Polygon", "coordinates": [ [ [ 78.58153389932626, 19.941117706006271 ], [ 78.626535152789216, 19.941117745617973 ], [ 78.626535152789216, 19.986114502568238 ], [ 78.58153389932626, 19.986114497162042 ], [ 78.58153389932626, 19.941117706006271 ] ] ] } },
{ "type": "Feature", "properties": { "REGION": 1.0, "STATE.NAME": "Maharashtra", "DISTRICT.NAME": "Yavatmal", "DISTRICT.AREA": 13583.851744, "GRID_G0": "190685", "woodland": 0.46090275516601098, "maskWdl": 1.0, "cropland": 0.35594293026976165, "maskCrp": 0.0, "one": 0.18075110167184705, "maskOne": 0.0, "GRID.AREA": 23.532235345247443, "REGION.AREA": 32202.066020262951 }, "geometry": { "type": "Polygon", "coordinates": [ [ [ 78.716533203310703, 19.941117784260044 ], [ 78.761534456541753, 19.941117726967423 ], [ 78.761534456541753, 19.986114518964854 ], [ 78.716533203310703, 19.986114496571698 ], [ 78.716533203310703, 19.941117784260044 ] ] ] } },
{ "type": "Feature", "properties": { "REGION": 1.0, "STATE.NAME": "Maharashtra", "DISTRICT.NAME": "Yavatmal", "DISTRICT.AREA": 13583.851744, "GRID_G0": "190035", "woodland": 0.49012691967705346, "maskWdl": 1.0, "cropland": 0.21414576911825778, "maskCrp": 0.0, "one": 0.29492225641712355, "maskOne": 0.0, "GRID.AREA": 23.541289777463277, "REGION.AREA": 32202.066020262951 }, "geometry": { "type": "Polygon", "coordinates": [ [ [ 78.716533203310703, 19.896116539965544 ], [ 78.761534456541753, 19.896116489504458 ], [ 78.761534456541753, 19.941117726967423 ], [ 78.716533203310703, 19.941117784260044 ], [ 78.716533203310703, 19.896116539965544 ] ] ] } },
{ "type": "Feature", "properties": { "REGION": 1.0, "STATE.NAME": "Maharashtra", "DISTRICT.NAME": "Yavatmal", "DISTRICT.AREA": 13583.851744, "GRID_G0": "185468", "woodland": 0.58119131168580229, "maskWdl": 1.0, "cropland": 0.027379322538404686, "maskCrp": 0.0, "one": 0.39142936577579307, "maskOne": 1.0, "GRID.AREA": 23.585511551914728, "REGION.AREA": 32202.066020262951 }, "geometry": { "type": "Polygon", "coordinates": [ [ [ 77.951534251315636, 19.58111664935873 ], [ 77.996531068852022, 19.58111668658708 ], [ 77.996531068852022, 19.626117903074945 ], [ 77.951534251315636, 19.6261179300473 ], [ 77.951534251315636, 19.58111664935873 ] ] ] } },
{ "type": "Feature", "properties": { "REGION": 1.0, "STATE.NAME": "Maharashtra", "DISTRICT.NAME": "Yavatmal", "DISTRICT.AREA": 13583.851744, "GRID_G0": "185469", "woodland": 0.72486308718321812, "maskWdl": 1.0, "cropland": 0.088298112961730513, "maskCrp": 0.0, "one": 0.1863747295365264, "maskOne": 0.0, "GRID.AREA": 23.587832699969521, "REGION.AREA": 32202.066020262951 }, "geometry": { "type": "Polygon", "coordinates": [ [ [ 77.996531068852022, 19.58111668658708 ], [ 78.041532344959762, 19.581116688533196 ], [ 78.041532344959762, 19.626117908728009 ], [ 77.996531068852022, 19.626117903074945 ], [ 77.996531068852022, 19.58111668658708 ] ] ] } },
{ "type": "Feature", "properties": { "REGION": 1.0, "STATE.NAME": "Telangana", "DISTRICT.NAME": "Adilabad", "DISTRICT.AREA": 3996.656205, "GRID_G0": "182883", "woodland": 0.19037341507410477, "maskWdl": 0.0, "cropland": 0.57697680365323012, "maskCrp": 1.0, "one": 0.22616102375685812, "maskOne": 0.0, "GRID.AREA": 23.611800557821461, "REGION.AREA": 32202.066020262951 }, "geometry": { "type": "Polygon", "coordinates": [ [ [ 78.626535152789216, 19.40111611994131 ], [ 78.671531984763533, 19.401116125406123 ], [ 78.671531984763533, 19.446117377252605 ], [ 78.626535152789216, 19.446117396080396 ], [ 78.626535152789216, 19.40111611994131 ] ] ] } },
{ "type": "Feature", "properties": { "REGION": 1.0, "STATE.NAME": "Telangana", "DISTRICT.NAME": "Adilabad", "DISTRICT.AREA": 3996.656205, "GRID_G0": "181574", "woodland": 0.44355741638423529, "maskWdl": 1.0, "cropland": 0.4252090045478561, "maskCrp": 0.0, "one": 0.12439625556927092, "maskOne": 0.0, "GRID.AREA": 23.624794777880563, "REGION.AREA": 32202.066020262951 }, "geometry": { "type": "Polygon", "coordinates": [ [ [ 78.221532867981381, 19.311118139880801 ], [ 78.266534107122311, 19.311118144991458 ], [ 78.266534107122311, 19.356114896746131 ], [ 78.221532867981381, 19.356114891944149 ], [ 78.221532867981381, 19.311118139880801 ] ] ] } },
{ "type": "Feature", "properties": { "REGION": 1.0, "STATE.NAME": "Telangana", "DISTRICT.NAME": "Adilabad", "DISTRICT.AREA": 3996.656205, "GRID_G0": "180926", "woodland": 0.17032098774486379, "maskWdl": 0.0, "cropland": 0.69172050289002096, "maskCrp": 1.0, "one": 0.1256230981014356, "maskOne": 0.0, "GRID.AREA": 23.631300363414805, "REGION.AREA": 32202.066020262951 }, "geometry": { "type": "Polygon", "coordinates": [ [ [ 78.311535332528592, 19.266116874409825 ], [ 78.356532096467092, 19.266116866422827 ], [ 78.356532096467092, 19.311118123162753 ], [ 78.311535332528592, 19.311118083177849 ], [ 78.311535332528592, 19.266116874409825 ] ] ] } },
{ "type": "Feature", "properties": { "REGION": 1.0, "STATE.NAME": "Telangana", "DISTRICT.NAME": "Adilabad", "DISTRICT.AREA": 3996.656205, "GRID_G0": "180278", "woodland": 0.27070097936407167, "maskWdl": 0.0, "cropland": 0.55207310629395734, "maskCrp": 1.0, "one": 0.16272340165169455, "maskOne": 0.0, "GRID.AREA": 23.640155743980273, "REGION.AREA": 32202.066020262951 }, "geometry": { "type": "Polygon", "coordinates": [ [ [ 78.401533409796329, 19.221115640047657 ], [ 78.446534648681762, 19.221115596305257 ], [ 78.446534648681762, 19.266116908361312 ], [ 78.401533409796329, 19.266116855283524 ], [ 78.401533409796329, 19.221115640047657 ] ] ] } }
]
}
