{
"type": "FeatureCollection",
"name": "Region 2 Woodland Mask",
"crs": { "type": "name", "properties": { "name": "urn:ogc:def:crs:OGC:1.3:CRS84" } },
"features": [
{ "type": "Feature", "properties": { "REGION": 2.0, "STATE.NAME": "Maharashtra", "DISTRICT.NAME": "Hingoli", "DISTRICT.AREA": 4890.910828, "GRID_G0": "182206", "woodland": 0.45671305660902423, "maskWdl": 1.0, "cropland": 0.24474087107742953, "maskCrp": 0.0, "one": 0.28437575602223841, "maskOne": 0.0, "GRID.AREA": 9.1613966630135248, "REGION.AREA": 59928.662280600729 }, "geometry": { "type": "Polygon", "coordinates": [ [ [ 77.440840834725137, 19.401117393237293 ], [ 77.411532665061301, 19.401116147343902 ], [ 77.411532665061301, 19.366390458304771 ], [ 77.413303593785884, 19.366766588007689 ], [ 77.41333834898569, 19.366823404476577 ], [ 77.413510185147004, 19.367104206993588 ], [ 77.414396973341695, 19.36881727339852 ], [ 77.414809192890004, 19.36961353044012 ], [ 77.415010132911334, 19.370297224737158 ], [ 77.415308904782194, 19.371313775210581 ], [ 77.416619954447413, 19.375096551264903 ], [ 77.416671074610463, 19.375728682033127 ], [ 77.416825192328815, 19.377751272603181 ], [ 77.418918806857505, 19.377627880222519 ], [ 77.420242054926973, 19.377700866501812 ], [ 77.42049477611306, 19.377714805993545 ], [ 77.421054051903013, 19.37768978145829 ], [ 77.422997791714749, 19.377602787338787 ], [ 77.423797668527641, 19.377639362766445 ], [ 77.424879626693496, 19.377904870513419 ], [ 77.426610834222686, 19.37851488605321 ], [ 77.428076121216066, 19.378952552818138 ], [ 77.428246252262795, 19.379003367211681 ], [ 77.430104274992345, 19.379305581687277 ], [ 77.43105978308256, 19.37941768487832 ], [ 77.431247423030186, 19.379439698483338 ], [ 77.432985358387612, 19.379534743333807 ], [ 77.433428648613301, 19.379512349315519 ], [ 77.434179677849897, 19.379474406019085 ], [ 77.435965535381229, 19.379632350352722 ], [ 77.436026742340346, 19.379646167536634 ], [ 77.436141906823593, 19.379672169634944 ], [ 77.436952244550525, 19.379875746468599 ], [ 77.437735209612299, 19.38028723037144 ], [ 77.439901191686715, 19.381696097496956 ], [ 77.440167057363851, 19.381869027233847 ], [ 77.440645109983905, 19.38215708458182 ], [ 77.441824544766973, 19.382867737855861 ], [ 77.442628055740215, 19.383308116976082 ], [ 77.443596051816371, 19.383838607265943 ], [ 77.444445617970928, 19.384240756206001 ], [ 77.445341934482769, 19.384484469782478 ], [ 77.446343074173569, 19.384750270708484 ], [ 77.446484893662955, 19.384754775412603 ], [ 77.446833426821229, 19.384765801100912 ], [ 77.446905580328348, 19.384897676786409 ], [ 77.446934471049076, 19.384950443608147 ], [ 77.447523045851938, 19.387133470533286 ], [ 77.447894389414614, 19.388789108030949 ], [ 77.448182042966948, 19.389970907131723 ], [ 77.448175824155044, 19.390131622276613 ], [ 77.448144818228855, 19.39093316463391 ], [ 77.447920979669561, 19.391221443215102 ], [ 77.447592027450185, 19.39164516779033 ], [ 77.446582314522232, 19.393195066599105 ], [ 77.445947410244855, 19.394182038370445 ], [ 77.445666972852564, 19.394618023403101 ], [ 77.444877688254792, 19.395597655807194 ], [ 77.443962742286772, 19.397083776495151 ], [ 77.443438695639387, 19.397845254055255 ], [ 77.442053861096895, 19.399582306278489 ], [ 77.441609584314904, 19.400140222293487 ], [ 77.440840834725137, 19.401117393237293 ] ] ] } },
{ "type": "Feature", "properties": { "REGION": 2.0, "STATE.NAME": "Maharashtra", "DISTRICT.NAME": "Nanded", "DISTRICT.AREA": 10535.728211, "GRID_G0": "188717", "woodland": 0.58560234613979278, "maskWdl": 1.0, "cropland": 0.17532081510375316, "maskCrp": 0.0, "one": 0.20398637157543742, "maskOne": 0.0, "GRID.AREA": 23.552322923485804, "REGION.AREA": 59928.662280600729 }, "geometry": { "type": "Polygon", "coordinates": [ [ [ 77.906533022918595, 19.806118460264202 ], [ 77.951534251315636, 19.806118453916344 ], [ 77.951534251315636, 19.851115270378592 ], [ 77.906533022918595, 19.851115243629764 ], [ 77.906533022918595, 19.806118460264202 ] ] ] } },
{ "type": "Feature", "properties": { "REGION": 2.0, "STATE.NAME": "Maharashtra", "DISTRICT.NAME": "Nanded", "DISTRICT.AREA": 10535.728211, "GRID_G0": "188071", "woodland": 0.42267929016112682, "maskWdl": 1.0, "cropland": 0.39015048040956019, "maskCrp": 0.0, "one": 0.16861478271041966, "maskOne": 0.0, "GRID.AREA": 23.561354963796891, "REGION.AREA": 59928.662280600729 }, "geometry": { "type": "Polygon", "coordinates": [ [ [ 78.086533529357553, 19.76111719956036 ], [ 78.131534777466058, 19.761117178671284 ], [ 78.131534777466058, 19.806118503277503 ], [ 78.086533529357553, 19.806118486058605 ], [ 78.086533529357553, 19.76111719956036 ] ] ] } },
{ "type": "Feature", "properties": { "REGION": 2.0, "STATE.NAME": "Maharashtra", "DISTRICT.NAME": "Nanded", "DISTRICT.AREA": 10535.728211, "GRID_G0": "188072", "woodland": 0.40517330103561366, "maskWdl": 1.0, "cropland": 0.47196299899348032, "maskCrp": 0.0, "one": 0.10578074339639525, "maskOne": 0.0, "GRID.AREA": 23.559046776077945, "REGION.AREA": 59928.662280600729 }, "geometry": { "type": "Polygon", "coordinates": [ [ [ 78.131534777466058, 19.761117178671284 ], [ 78.176531634831946, 19.761117181356298 ], [ 78.176531634831946, 19.806118432233745 ], [ 78.131534777466058, 19.806118503277503 ], [ 78.131534777466058, 19.761117178671284 ] ] ] } },
{ "type": "Feature", "properties": { "REGION": 2.0, "STATE.NAME": "Maharashtra", "DISTRICT.NAME": "Nanded", "DISTRICT.AREA": 10535.728211, "GRID_G0": "188073", "woodland": 0.45322694284180659, "maskWdl": 1.0, "cropland": 0.35633633092897415, "maskCrp": 0.0, "one": 0.18476685713442376, "maskOne": 0.0, "GRID.AREA": 23.561317022851686, "REGION.AREA": 59928.662280600729 }, "geometry": { "type": "Polygon", "coordinates": [ [ [ 78.176531634831946, 19.761117181356298 ], [ 78.221532867981381, 19.761117175094292 ], [ 78.221532867981381, 19.806118420285465 ], [ 78.176531634831946, 19.806118432233745 ], [ 78.176531634831946, 19.761117181356298 ] ] ] } },
{ "type": "Feature", "properties": { "REGION": 2.0, "STATE.NAME": "Maharashtra", "DISTRICT.NAME": "Nanded", "DISTRICT.AREA": 10535.728211, "GRID_G0": "187420", "woodland": 0.57394112385142382, "maskWdl": 1.0, "cropland": 0.33139401700766868, "maskCrp": 0.0, "one": 0.092928811288486485, "maskOne": 0.0, "GRID.AREA": 23.567917544939053, "REGION.AREA": 59928.662280600729 }, "geometry": { "type": "Polygon", "coordinates": [ [ [ 78.041532344959762, 19.716116002405155 ], [ 78.086533529357553, 19.71611596426018 ], [ 78.086533529357553, 19.76111719956036 ], [ 78.041532344959762, 19.761117174962639 ], [ 78.041532344959762, 19.716116002405155 ] ] ] } },
{ "type": "Feature", "properties": { "REGION": 2.0, "STATE.NAME": "Maharashtra", "DISTRICT.NAME": "Nanded", "DISTRICT.AREA": 10535.728211, "GRID_G0": "187423", "woodland": 0.68256726435059167, "maskWdl": 1.0, "cropland": 0.1716563111516741, "maskCrp": 0.0, "one": 0.14555323956909363, "maskOne": 0.0, "GRID.AREA": 23.567942940909159, "REGION.AREA": 59928.662280600729 }, "geometry": { "type": "Polygon", "coordinates": [ [ [ 78.176531634831932, 19.716115976205725 ], [ 78.221532867981381, 19.716115972912114 ], [ 78.221532867981381, 19.761117175094292 ], [ 78.176531634831946, 19.761117181356298 ], [ 78.176531634831932, 19.716115976205725 ] ] ] } },
{ "type": "Feature", "properties": { "REGION": 2.0, "STATE.NAME": "Maharashtra", "DISTRICT.NAME": "Nanded", "DISTRICT.AREA": 10535.728211, "GRID_G0": "187424", "woodland": 0.713532897714105, "maskWdl": 1.0, "cropland": 0.22407641476779872, "maskCrp": 0.0, "one": 0.062291052123857951, "maskOne": 0.0, "GRID.AREA": 23.567962206527632, "REGION.AREA": 59928.662280600729 }, "geometry": { "type": "Polygon", "coordinates": [ [ [ 78.221532867981381, 19.716115972912114 ], [ 78.266534107122311, 19.716115966669779 ], [ 78.266534107122311, 19.761117233415852 ], [ 78.221532867981381, 19.761117175094292 ], [ 78.221532867981381, 19.716115972912114 ] ] ] } },
{ "type": "Feature", "properties": { "REGION": 2.0, "STATE.NAME": "Maharashtra", "DISTRICT.NAME": "Nanded", "DISTRICT.AREA": 10535.728211, "GRID_G0": "186770", "woodland": 0.41551976709631944, "maskWdl": 1.0, "cropland": 0.47729090339870467, "maskCrp": 0.0, "one": 0.080267226645279882, "maskOne": 0.0, "GRID.AREA": 20.910936326754772, "REGION.AREA": 59928.662280600729 }, "geometry": { "type": "Polygon", "coordinates": [ [ [ 78.055615962938973, 19.671115899944908 ], [ 78.086533529357553, 19.671114685661863 ], [ 78.086533529357553, 19.71611596426018 ], [ 78.041532344959762, 19.716116002405155 ], [ 78.041532344959762, 19.691510524421606 ], [ 78.041851588879808, 19.691423531970486 ], [ 78.042772169100374, 19.691216143810038 ], [ 78.043726074598737, 19.691044931778205 ], [ 78.044579808211608, 19.690837573295425 ], [ 78.045839003867002, 19.69055358088309 ], [ 78.046878791922779, 19.690260445962849 ], [ 78.047737450223224, 19.689994233147392 ], [ 78.048753391855598, 19.68950689682589 ], [ 78.049311580365213, 19.689208982908269 ], [ 78.049526272819264, 19.689069012425023 ], [ 78.049779074944411, 19.688856951387262 ], [ 78.050146561314818, 19.688378185604847 ], [ 78.050537885115375, 19.68774150696504 ], [ 78.050938873929965, 19.687000847810911 ], [ 78.051263425766535, 19.686332511236458 ], [ 78.051774264970391, 19.685302939479126 ], [ 78.052098803317165, 19.684774633642466 ], [ 78.05266208648618, 19.683600479678429 ], [ 78.05293897155633, 19.683013386058974 ], [ 78.053387728760754, 19.681888818913936 ], [ 78.053564352912588, 19.681477930362234 ], [ 78.054003746375827, 19.68015008675712 ], [ 78.05443823583596, 19.678858473239988 ], [ 78.054810930180338, 19.677440263957063 ], [ 78.05517380842457, 19.676315769657094 ], [ 78.055317187338403, 19.675755688074617 ], [ 78.055613346678697, 19.674576932279653 ], [ 78.055642272472937, 19.673935607742184 ], [ 78.055761898492904, 19.672928391332221 ], [ 78.055766884334275, 19.672526285559684 ], [ 78.055615962938973, 19.671115899944908 ] ] ] } },
{ "type": "Feature", "properties": { "REGION": 2.0, "STATE.NAME": "Maharashtra", "DISTRICT.NAME": "Nanded", "DISTRICT.AREA": 10535.728211, "GRID_G0": "186774", "woodland": 0.68900914742260078, "maskWdl": 1.0, "cropland": 0.20444198650239187, "maskCrp": 0.0, "one": 0.10653292841040125, "maskOne": 0.0, "GRID.AREA": 23.54617561914381, "REGION.AREA": 59928.662280600729 }, "geometry": { "type": "Polygon", "coordinates": [ [ [ 78.266534107122311, 19.673819586669524 ], [ 78.266534107122311, 19.716115966669779 ], [ 78.221532867981381, 19.716115972912114 ], [ 78.221532867981381, 19.671114719164393 ], [ 78.265049770727728, 19.67111491319767 ], [ 78.265811919984174, 19.673088473354422 ], [ 78.266534107122311, 19.673819586669524 ] ] ] } },
{ "type": "Feature", "properties": { "REGION": 2.0, "STATE.NAME": "Maharashtra", "DISTRICT.NAME": "Nanded", "DISTRICT.AREA": 10535.728211, "GRID_G0": "186775", "woodland": 0.95441329573893607, "maskWdl": 1.0, "cropland": 0.013522342541742375, "maskCrp": 0.0, "one": 0.032056892874275253, "maskOne": 0.0, "GRID.AREA": 14.923738180435775, "REGION.AREA": 59928.662280600729 }, "geometry": { "type": "Polygon", "coordinates": [ [ [ 78.311535332528592, 19.691039423342364 ], [ 78.311535332528592, 19.716115964279901 ], [ 78.266534107122311, 19.716115966669779 ], [ 78.266534107122311, 19.673819586669524 ], [ 78.266843400102914, 19.674132699564492 ], [ 78.268819158477413, 19.675507114561753 ], [ 78.269737825840025, 19.676008643084458 ], [ 78.271102895981926, 19.678703699915843 ], [ 78.272354078677836, 19.68136591170753 ], [ 78.273872411282809, 19.684414555887088 ], [ 78.274761124926044, 19.687524431307512 ], [ 78.275537156214853, 19.69048415501976 ], [ 78.276205944249, 19.692413735005911 ], [ 78.279272832974925, 19.691330508796 ], [ 78.282947616639262, 19.690014249358168 ], [ 78.286227976539919, 19.688585668194094 ], [ 78.287868763532686, 19.688033807314412 ], [ 78.291041649952263, 19.688088885393771 ], [ 78.295498720589535, 19.687931314278785 ], [ 78.300205999707202, 19.687983851773364 ], [ 78.30203492037532, 19.689749146306099 ], [ 78.30342887764067, 19.691203118029534 ], [ 78.305604387132803, 19.690968001072463 ], [ 78.307801697990044, 19.690918060819911 ], [ 78.311535332528592, 19.691039423342364 ] ] ] } },
{ "type": "Feature", "properties": { "REGION": 2.0, "STATE.NAME": "Maharashtra", "DISTRICT.NAME": "Nanded", "DISTRICT.AREA": 10535.728211, "GRID_G0": "186776", "woodland": 0.63385839744385153, "maskWdl": 1.0, "cropland": 0.25686712373898024, "maskCrp": 0.0, "one": 0.10733277616871903, "maskOne": 0.0, "GRID.AREA": 3.3594436615890917, "REGION.AREA": 59928.662280600729 }, "geometry": { "type": "Polygon", "coordinates": [ [ [ 78.342813088401456, 19.716117144321615 ], [ 78.311535332528592, 19.716115964279901 ], [ 78.311535332528592, 19.691039423342364 ], [ 78.311841050624025, 19.691049357342024 ], [ 78.312385806859538, 19.691758905349278 ], [ 78.313471395588465, 19.693105915305807 ], [ 78.313724636582776, 19.694737780124512 ], [ 78.314251461235997, 19.69746009450779 ], [ 78.315057225011017, 19.70037476578284 ], [ 78.315751798406836, 19.702593266466124 ], [ 78.31669449835249, 19.703094788693591 ], [ 78.317508163570949, 19.704050773424516 ], [ 78.318673412448106, 19.705524821613267 ], [ 78.320035991467876, 19.706400630884445 ], [ 78.322067168764875, 19.707576537627176 ], [ 78.323850134975828, 19.707946551092505 ], [ 78.327247964322169, 19.70836890600026 ], [ 78.330133849197864, 19.70897563361865 ], [ 78.332977503708889, 19.709532212341799 ], [ 78.333731332535024, 19.709449516981692 ], [ 78.334761008613725, 19.709847980499948 ], [ 78.33768369914344, 19.711010140205872 ], [ 78.340377756828047, 19.712156366623049 ], [ 78.341207798701021, 19.712507719155951 ], [ 78.343153537705632, 19.71324924525652 ], [ 78.343161645093929, 19.713299056906006 ], [ 78.343161657684391, 19.713299136046317 ], [ 78.343514860122767, 19.715468798146564 ], [ 78.342813088401456, 19.716117144321615 ] ] ] } },
{ "type": "Feature", "properties": { "REGION": 2.0, "STATE.NAME": "Maharashtra", "DISTRICT.NAME": "Nanded", "DISTRICT.AREA": 10535.728211, "GRID_G0": "186120", "woodland": 0.59708903105718247, "maskWdl": 1.0, "cropland": 0.33112760939249181, "maskCrp": 0.0, "one": 0.040027367327863085, "maskOne": 0.0, "GRID.AREA": 6.5371591549910821, "REGION.AREA": 59928.662280600729 }, "geometry": { "type": "Polygon", "coordinates": [ [ [ 78.086533529357553, 19.637462654855579 ], [ 78.086533529357553, 19.671114685661863 ], [ 78.055615962938973, 19.671115899944908 ], [ 78.055605441637866, 19.671017575700603 ], [ 78.055176890401242, 19.669581083200452 ], [ 78.054629035101925, 19.668311632575808 ], [ 78.054114723615669, 19.667137078413479 ], [ 78.053971858214766, 19.66663104968325 ], [ 78.053938678627162, 19.666292306544733 ], [ 78.05394860084732, 19.665452175177791 ], [ 78.054025141247337, 19.66490574620326 ], [ 78.054144490276087, 19.664603088361901 ], [ 78.054330627456523, 19.664070221163854 ], [ 78.054712515570202, 19.66332950805042 ], [ 78.054950988797145, 19.663045134325557 ], [ 78.055370809415365, 19.662616211668876 ], [ 78.056067249803789, 19.662160219418638 ], [ 78.056529776528009, 19.661975246860209 ], [ 78.057278532278474, 19.66173603888711 ], [ 78.057965205130188, 19.661650561024601 ], [ 78.058752039075387, 19.661560506512213 ], [ 78.059662720458221, 19.661637636867514 ], [ 78.060764225388766, 19.66166506169327 ], [ 78.062142149540648, 19.661706191287749 ], [ 78.062704867935338, 19.661787676160372 ], [ 78.063324707669153, 19.66172914288569 ], [ 78.064039978062567, 19.661711357892901 ], [ 78.064898273036931, 19.661521958871329 ], [ 78.065799600571154, 19.66131446549025 ], [ 78.066681843592278, 19.660971375928284 ], [ 78.067526049787432, 19.660488403117373 ], [ 78.068446454640252, 19.659987305369892 ], [ 78.069276216824008, 19.659590135976032 ], [ 78.070082258489492, 19.659116025084529 ], [ 78.070959744996287, 19.658596897728671 ], [ 78.071422459678843, 19.658208549784774 ], [ 78.072037693984441, 19.657608005904823 ], [ 78.072676992349386, 19.656871972863318 ], [ 78.073034740860635, 19.65635711908584 ], [ 78.073354474129758, 19.655788021799822 ], [ 78.073674117466624, 19.655151206463078 ], [ 78.074065353133619, 19.654297745344707 ], [ 78.074318273969197, 19.653868633830427 ], [ 78.074833612481314, 19.652694371947742 ], [ 78.075057780192481, 19.652315054995828 ], [ 78.07557314208691, 19.651118191351483 ], [ 78.075830912066976, 19.65023745919143 ], [ 78.075969386977704, 19.649740711464688 ], [ 78.076284459060616, 19.648625050305899 ], [ 78.076465719217651, 19.648241133321676 ], [ 78.076653419419813, 19.647827624145577 ], [ 78.076976325497071, 19.647116611142732 ], [ 78.077209990049084, 19.646642411218352 ], [ 78.07768245068462, 19.645404935989063 ], [ 78.077763617197206, 19.645088724465097 ], [ 78.077821009232267, 19.644551237449718 ], [ 78.077902146067231, 19.644189915032598 ], [ 78.07806921402306, 19.643693079172291 ], [ 78.078255287351681, 19.643209904013933 ], [ 78.078369878067463, 19.64284855551648 ], [ 78.078694260831526, 19.64206718315404 ], [ 78.078956617354038, 19.641579482607082 ], [ 78.079433690612404, 19.640874872777207 ], [ 78.079810531730701, 19.64046389968928 ], [ 78.080120416524039, 19.640183906562072 ], [ 78.080997804105436, 19.639660229535991 ], [ 78.081481847109615, 19.639407381545482 ], [ 78.081965887415834, 19.639154533554915 ], [ 78.082638089276429, 19.638825003970794 ], [ 78.083515450777512, 19.638504548546109 ], [ 78.084368982042918, 19.638269780525999 ], [ 78.084903081312234, 19.638062128864192 ], [ 78.085389370822838, 19.637922217736218 ], [ 78.086228576787448, 19.637583614891984 ], [ 78.086507407091233, 19.637473001877595 ], [ 78.086533529357553, 19.637462654855579 ] ] ] } },
{ "type": "Feature", "properties": { "REGION": 2.0, "STATE.NAME": "Maharashtra", "DISTRICT.NAME": "Nanded", "DISTRICT.AREA": 10535.728211, "GRID_G0": "186121", "woodland": 0.57324750774970767, "maskWdl": 1.0, "cropland": 0.334130810118618, "maskCrp": 0.0, "one": 0.054530669345456417, "maskOne": 0.0, "GRID.AREA": 10.741356161086374, "REGION.AREA": 59928.662280600729 }, "geometry": { "type": "Polygon", "coordinates": [ [ [ 78.131534777466058, 19.664386822318207 ], [ 78.131534777466058, 19.671114759091182 ], [ 78.086533529357553, 19.671114685661863 ], [ 78.086533529357553, 19.637462654855579 ], [ 78.086786428051255, 19.637362481493366 ], [ 78.087320326771703, 19.637154819039726 ], [ 78.088197666689041, 19.636834245803872 ], [ 78.088955855428424, 19.636640121744282 ], [ 78.089899872880892, 19.636504795360054 ], [ 78.090924825720208, 19.636446304353509 ], [ 78.091887878223076, 19.636464555195118 ], [ 78.092264515195268, 19.636491810049055 ], [ 78.092688832423732, 19.636622855660331 ], [ 78.093265689959708, 19.636835147823888 ], [ 78.094056995334142, 19.637350265102729 ], [ 78.094528839034751, 19.637684689696702 ], [ 78.094948352984161, 19.637955691402112 ], [ 78.095458351321895, 19.638416568769685 ], [ 78.095801493943853, 19.638841127016462 ], [ 78.095949294824152, 19.639139331415038 ], [ 78.096044515941742, 19.639649742541621 ], [ 78.096096847491594, 19.640277578147789 ], [ 78.096125261571615, 19.640909975115338 ], [ 78.096167941597287, 19.641799819206369 ], [ 78.096139249626731, 19.642716771561822 ], [ 78.096229570338437, 19.643380744625688 ], [ 78.096291249441663, 19.644672529014031 ], [ 78.096410396122963, 19.645205576076535 ], [ 78.096505515617082, 19.646118056103436 ], [ 78.096538785136886, 19.646858845659267 ], [ 78.096681726980194, 19.647355723787655 ], [ 78.096900899856678, 19.647906777076177 ], [ 78.097344131626414, 19.648516653221009 ], [ 78.097639686622301, 19.648914142773489 ], [ 78.098068653345706, 19.649749859368569 ], [ 78.098321285498969, 19.650206152891712 ], [ 78.098716951226379, 19.650874680122456 ], [ 78.09908871297381, 19.651294826295274 ], [ 78.099503410154284, 19.651751076650896 ], [ 78.100027734692276, 19.652239049692412 ], [ 78.100442555979228, 19.652550772700067 ], [ 78.100771418266405, 19.652857906467261 ], [ 78.101086162096749, 19.653237350223609 ], [ 78.101310059111995, 19.653540016158843 ], [ 78.101591386833093, 19.653991710549061 ], [ 78.101824914688109, 19.654578960650554 ], [ 78.101948781910835, 19.655130079589526 ], [ 78.102125066118958, 19.655432687068924 ], [ 78.102311043220141, 19.655681119388191 ], [ 78.102554178532557, 19.655961243816421 ], [ 78.103021386228022, 19.65624588284129 ], [ 78.103436145461785, 19.656413069507611 ], [ 78.104280019807106, 19.656706737725813 ], [ 78.104795002187643, 19.656878507337296 ], [ 78.10526229262075, 19.656973406497571 ], [ 78.106020319482241, 19.657104444914239 ], [ 78.106706959058954, 19.657167773374113 ], [ 78.107088375927844, 19.657190365243196 ], [ 78.107617680911289, 19.657091076492009 ], [ 78.10810401808601, 19.656978283521028 ], [ 78.108552274368037, 19.656869782114825 ], [ 78.109086312483385, 19.656648532703684 ], [ 78.109430341836855, 19.656428987507809 ], [ 78.110006583337224, 19.656061455271981 ], [ 78.110650362124545, 19.655596366379253 ], [ 78.110988927197297, 19.65532980912343 ], [ 78.111732840098568, 19.654778793606511 ], [ 78.112190537463391, 19.654571079891468 ], [ 78.112901103503191, 19.654169125204987 ], [ 78.113506742941865, 19.653834836408635 ], [ 78.113878587426939, 19.653717541431437 ], [ 78.11486084675073, 19.653414949240585 ], [ 78.115814528317912, 19.653144054554506 ], [ 78.116524971150582, 19.652859412831674 ], [ 78.116744357166397, 19.652755612181803 ], [ 78.117421395581005, 19.652281271063885 ], [ 78.117850545766146, 19.651847798736977 ], [ 78.11818913781849, 19.651522605683741 ], [ 78.118546750532175, 19.651251495160405 ], [ 78.118932946398388, 19.651030268232319 ], [ 78.119533733095352, 19.650818003947791 ], [ 78.120020095451082, 19.650673475700387 ], [ 78.120482539437717, 19.650691545778272 ], [ 78.12100227743322, 19.650745712844412 ], [ 78.121865227298485, 19.651048432739 ], [ 78.122489908982175, 19.65126066734598 ], [ 78.123214523331626, 19.651387244225987 ], [ 78.124368456039463, 19.651667347969802 ], [ 78.124897636017124, 19.651947277245082 ], [ 78.12553167514676, 19.652543582620297 ], [ 78.125855939200278, 19.652968115686065 ], [ 78.12641377427633, 19.653514761397162 ], [ 78.12685244558395, 19.653907749842858 ], [ 78.127376886134471, 19.654305217811611 ], [ 78.12774880436389, 19.65481101811406 ], [ 78.12798722812812, 19.655271768677206 ], [ 78.128106412580905, 19.655569859761268 ], [ 78.128273202646255, 19.656595230785342 ], [ 78.128306552205686, 19.657439938802156 ], [ 78.128316099408494, 19.658031677420013 ], [ 78.128301768711708, 19.658880748048151 ], [ 78.128349488538106, 19.659440809845535 ], [ 78.128511497807452, 19.660122859282577 ], [ 78.128630641790721, 19.660714692329236 ], [ 78.128778528106636, 19.661401159236163 ], [ 78.128983517775168, 19.662123900297786 ], [ 78.129231409601914, 19.662941455084141 ], [ 78.129569993560438, 19.663551212518485 ], [ 78.129875158711684, 19.663867357492624 ], [ 78.130299509215035, 19.664129412742227 ], [ 78.130733393431399, 19.664264883917326 ], [ 78.13122459593842, 19.66438683198675 ], [ 78.131534777466058, 19.664386822318207 ] ] ] } },
{ "type": "Feature", "properties": { "REGION": 2.0, "STATE.NAME": "Maharashtra", "DISTRICT.NAME": "Nanded", "DISTRICT.AREA": 10535.728211, "GRID_G0": "186122", "woodland": 0.51228643443703192, "maskWdl": 1.0, "cropland": 0.40257255023905214, "maskCrp": 0.0, "one": 0.052943143101258847, "maskOne": 0.0, "GRID.AREA": 7.0507682067025614, "REGION.AREA": 59928.662280600729 }, "geometry": { "type": "Polygon", "coordinates": [ [ [ 78.176531634831946, 19.651543520488456 ], [ 78.176531634831946, 19.671114722233451 ], [ 78.131534777466058, 19.671114759091182 ], [ 78.131534777466058, 19.664386822318207 ], [ 78.131734867670048, 19.664386815798935 ], [ 78.132540630545748, 19.664355138978522 ], [ 78.133017395336594, 19.664219723561416 ], [ 78.133441884335525, 19.663993791380392 ], [ 78.133890002121973, 19.663853788521578 ], [ 78.134328776851646, 19.663813081608453 ], [ 78.134629147717078, 19.663876299451715 ], [ 78.134962904114801, 19.664007375639926 ], [ 78.135339611234144, 19.664174457984871 ], [ 78.135582846371335, 19.664210587348805 ], [ 78.135916608165019, 19.66416083955113 ], [ 78.136288595642213, 19.664047897292676 ], [ 78.136545947437583, 19.663871681433022 ], [ 78.136875087615252, 19.663465192364814 ], [ 78.137165822244981, 19.663162506644426 ], [ 78.137561581501814, 19.662909557030503 ], [ 78.138148173299612, 19.662624910811019 ], [ 78.138729839510518, 19.662498511996777 ], [ 78.139402232027464, 19.66238996742311 ], [ 78.13975502167699, 19.662317755460094 ], [ 78.140556080199019, 19.662114434933301 ], [ 78.141094905405623, 19.66190213197785 ], [ 78.141690938286217, 19.66173951566617 ], [ 78.142820967014089, 19.661341926288912 ], [ 78.143164294896337, 19.66122438309884 ], [ 78.143669706691639, 19.661147545922574 ], [ 78.144475622452092, 19.66115200655992 ], [ 78.144780744435877, 19.661138451078731 ], [ 78.145119225871611, 19.661034440886791 ], [ 78.145681937971119, 19.660840243982136 ], [ 78.146406654843304, 19.660573645357488 ], [ 78.146978783743918, 19.66040648297286 ], [ 78.147593911030242, 19.660243713776428 ], [ 78.148261403141305, 19.660067538386215 ], [ 78.14883835330744, 19.659846127996445 ], [ 78.149257979672086, 19.659611270943458 ], [ 78.149834918147008, 19.659299447211765 ], [ 78.150526196426881, 19.65891103721464 ], [ 78.151270033785067, 19.658508853201056 ], [ 78.151961282387333, 19.658142948738146 ], [ 78.152800446983122, 19.65780405271494 ], [ 78.153363121311045, 19.657582724163433 ], [ 78.153542196115495, 19.657538989232986 ], [ 78.153992456986373, 19.657429019233916 ], [ 78.15465529420652, 19.657293368194416 ], [ 78.155256007159039, 19.657189376888255 ], [ 78.155828102784767, 19.657071888556853 ], [ 78.156295389620595, 19.65695888604381 ], [ 78.156652888120334, 19.656845898819199 ], [ 78.157325034222993, 19.656534217180422 ], [ 78.157830317415289, 19.656254000122033 ], [ 78.158306991374616, 19.65592417915758 ], [ 78.158859970111578, 19.655616987833753 ], [ 78.159203191873871, 19.655476895942058 ], [ 78.159799129426347, 19.65540902770454 ], [ 78.160552464524699, 19.655390882982886 ], [ 78.161119731690349, 19.655453951538675 ], [ 78.161687206599368, 19.655544216492444 ], [ 78.1625071517837, 19.655548569211135 ], [ 78.163231926212461, 19.655498726984717 ], [ 78.16381358073221, 19.655390239068314 ], [ 78.164342641100063, 19.655227441992906 ], [ 78.164957625394152, 19.654951864536997 ], [ 78.165261316556553, 19.65479174294461 ], [ 78.165763194915542, 19.654527127325139 ], [ 78.166444828865792, 19.654016511153145 ], [ 78.166873827964821, 19.653695815609467 ], [ 78.167445878624449, 19.653212326587663 ], [ 78.167884262149016, 19.652751535554959 ], [ 78.168441981212538, 19.65220933968931 ], [ 78.168794620675271, 19.65184800468171 ], [ 78.169171174909877, 19.651531710420159 ], [ 78.169528678805534, 19.651359890446656 ], [ 78.170115048470791, 19.651174625608519 ], [ 78.171054201490279, 19.650934990457472 ], [ 78.171483156522527, 19.650835528137183 ], [ 78.171926549270893, 19.650722551704465 ], [ 78.172284007301144, 19.650645727118675 ], [ 78.172779820632286, 19.650613972057215 ], [ 78.173313905512373, 19.650726658908241 ], [ 78.174052855055265, 19.65095689524458 ], [ 78.174672760439591, 19.651205142303525 ], [ 78.175216287301851, 19.651372148206118 ], [ 78.175712148297066, 19.651507511462512 ], [ 78.176074560692484, 19.651543567082005 ], [ 78.176531634831946, 19.651543520488456 ] ] ] } },
{ "type": "Feature", "properties": { "REGION": 2.0, "STATE.NAME": "Maharashtra", "DISTRICT.NAME": "Nanded", "DISTRICT.AREA": 10535.728211, "GRID_G0": "186124", "woodland": 0.44002987261216886, "maskWdl": 1.0, "cropland": 0.34293834333388001, "maskCrp": 0.0, "one": 0.20662409516142377, "maskOne": 0.0, "GRID.AREA": 23.379903939612433, "REGION.AREA": 59928.662280600729 }, "geometry": { "type": "Polygon", "coordinates": [ [ [ 78.265049770727728, 19.67111491319767 ], [ 78.221532867981381, 19.671114719164393 ], [ 78.221532867981381, 19.626117967748112 ], [ 78.266534107122311, 19.626117914151095 ], [ 78.266534107122311, 19.664479564331582 ], [ 78.266482810633249, 19.664488297996627 ], [ 78.264616156210707, 19.664807475484682 ], [ 78.262669338918897, 19.665062571780314 ], [ 78.26369845112265, 19.667542135760979 ], [ 78.264669171245316, 19.670129344093993 ], [ 78.265049770727728, 19.67111491319767 ] ] ] } },
{ "type": "Feature", "properties": { "REGION": 2.0, "STATE.NAME": "Maharashtra", "DISTRICT.NAME": "Nanded", "DISTRICT.AREA": 10535.728211, "GRID_G0": "186125", "woodland": 0.61931461155963452, "maskWdl": 1.0, "cropland": 0.21844694379806884, "maskCrp": 0.0, "one": 0.16143345321721059, "maskOne": 0.0, "GRID.AREA": 8.4482240970033065, "REGION.AREA": 59928.662280600729 }, "geometry": { "type": "Polygon", "coordinates": [ [ [ 78.266534107122311, 19.664479564331582 ], [ 78.266534107122311, 19.626117914151095 ], [ 78.292353321499093, 19.626119278068028 ], [ 78.292218795960707, 19.62741254065628 ], [ 78.29224665695773, 19.629570290336684 ], [ 78.292216314731206, 19.631813279559253 ], [ 78.292241891450203, 19.634589434554812 ], [ 78.292239266329148, 19.636909382362148 ], [ 78.292181818536164, 19.638610464401438 ], [ 78.292180748342901, 19.639959942097672 ], [ 78.292208241517187, 19.64130534046916 ], [ 78.292102506425579, 19.642225011475148 ], [ 78.291543790013975, 19.643600423820544 ], [ 78.290542738456679, 19.64586386272714 ], [ 78.290482607086687, 19.645999822234046 ], [ 78.290340230916968, 19.646063156989158 ], [ 78.289649483237113, 19.646370423856016 ], [ 78.287369567851329, 19.647019554508859 ], [ 78.286865530220098, 19.647246652211265 ], [ 78.286723159446296, 19.647310798154876 ], [ 78.286593580629301, 19.647447339523126 ], [ 78.285946822387984, 19.648128838575079 ], [ 78.284717352923565, 19.649817793256602 ], [ 78.284247831272467, 19.650242847029801 ], [ 78.284106056749181, 19.650371193775641 ], [ 78.283963274985183, 19.650392106610468 ], [ 78.281600608481369, 19.650738142351429 ], [ 78.281045568498257, 19.650886831761909 ], [ 78.280902950410905, 19.650925037660382 ], [ 78.280867677201627, 19.651060785826644 ], [ 78.280539181837824, 19.652325006893591 ], [ 78.279871314709453, 19.654895393407742 ], [ 78.279071536822016, 19.657504104530858 ], [ 78.279029901808599, 19.657639906656414 ], [ 78.278887044501573, 19.657653505305063 ], [ 78.277360577528668, 19.657798807868744 ], [ 78.274603194082204, 19.658113383525858 ], [ 78.271210736386422, 19.658520166672421 ], [ 78.271067910555701, 19.658537290663503 ], [ 78.271089415144445, 19.658672567584976 ], [ 78.271334527166744, 19.660214527178709 ], [ 78.271639028618324, 19.66191021598371 ], [ 78.2702981790178, 19.662911906059662 ], [ 78.269073670213743, 19.663950935986975 ], [ 78.268931792268461, 19.664071321034669 ], [ 78.268789026692275, 19.664095629709603 ], [ 78.266534107122311, 19.664479564331582 ] ] ] } },
{ "type": "Feature", "properties": { "REGION": 2.0, "STATE.NAME": "Maharashtra", "DISTRICT.NAME": "Nanded", "DISTRICT.AREA": 10535.728211, "GRID_G0": "185475", "woodland": 0.4967412054063593, "maskWdl": 1.0, "cropland": 0.22994785554115013, "maskCrp": 0.0, "one": 0.23794198984236734, "maskOne": 0.0, "GRID.AREA": 18.161939693839511, "REGION.AREA": 59928.662280600729 }, "geometry": { "type": "Polygon", "coordinates": [ [ [ 78.292353321499093, 19.626119278068028 ], [ 78.266534107122311, 19.626117914151095 ], [ 78.266534107122311, 19.581116647705652 ], [ 78.301619878215703, 19.581117631718119 ], [ 78.302007940713963, 19.582027322802734 ], [ 78.30239419053953, 19.583240940816836 ], [ 78.303838864172292, 19.584781400341399 ], [ 78.304113198765151, 19.58705466883794 ], [ 78.304307739210856, 19.590482588600651 ], [ 78.30461238815127, 19.593866580078668 ], [ 78.304666262038438, 19.595410829346349 ], [ 78.304835550420364, 19.598134385693413 ], [ 78.305307631542007, 19.601023560289153 ], [ 78.305476070064628, 19.602555439382062 ], [ 78.304722925622571, 19.604294545656785 ], [ 78.304529059668425, 19.605430089027436 ], [ 78.305060739761416, 19.606008711033212 ], [ 78.30547479842329, 19.606459756112883 ], [ 78.305587032015978, 19.607065746287219 ], [ 78.304249197842239, 19.607855566880971 ], [ 78.302689401095051, 19.609311220336622 ], [ 78.30129718311855, 19.610691786696631 ], [ 78.299598495973839, 19.612222631569239 ], [ 78.297565815010387, 19.61420597212793 ], [ 78.297083584140125, 19.614729181506561 ], [ 78.296504811947557, 19.615364195501289 ], [ 78.295723789421402, 19.616606568438442 ], [ 78.294749302938044, 19.618108651193324 ], [ 78.293919592914961, 19.619440771074778 ], [ 78.293250967658082, 19.621686232533644 ], [ 78.29260884632123, 19.624117038870281 ], [ 78.292443448406459, 19.625252830453803 ], [ 78.292353321499093, 19.626119278068028 ] ] ] } },
{ "type": "Feature", "properties": { "REGION": 2.0, "STATE.NAME": "Maharashtra", "DISTRICT.NAME": "Nanded", "DISTRICT.AREA": 10535.728211, "GRID_G0": "184821", "woodland": 0.72673023995640385, "maskWdl": 1.0, "cropland": 0.10171042990469489, "maskCrp": 0.0, "one": 0.15476838909535667, "maskOne": 0.0, "GRID.AREA": 1.7645488542350893, "REGION.AREA": 59928.662280600729 }, "geometry": { "type": "Polygon", "coordinates": [ [ [ 78.126948360923194, 19.536115977966869 ], [ 78.131534777466058, 19.536115469806827 ], [ 78.131534777466058, 19.5505362900583 ], [ 78.131246768723429, 19.550604042842338 ], [ 78.1299031321239, 19.550942843537428 ], [ 78.129002713804255, 19.551146105608325 ], [ 78.127921123461135, 19.551304176746381 ], [ 78.127420844996038, 19.551313303965856 ], [ 78.126872887174045, 19.551191279454031 ], [ 78.126482211784719, 19.5510693107002 ], [ 78.125996094943901, 19.550870529051736 ], [ 78.125662616436671, 19.550816343099829 ], [ 78.124957366289493, 19.55090215640945 ], [ 78.124581041381987, 19.550924780654157 ], [ 78.124137859075006, 19.550857080589822 ], [ 78.123680484566762, 19.550744091566624 ], [ 78.123137293151615, 19.550545312616123 ], [ 78.122541657771364, 19.550278804823051 ], [ 78.122050940898248, 19.549994146013095 ], [ 78.121388626184228, 19.54967341629515 ], [ 78.120878882354589, 19.549370783634799 ], [ 78.120516734359853, 19.549081682173949 ], [ 78.119954409868171, 19.548652612927814 ], [ 78.119525644592898, 19.548146592291456 ], [ 78.119277880469838, 19.547834961014701 ], [ 78.119130139844117, 19.547591016312424 ], [ 78.118863296603934, 19.547017317195468 ], [ 78.118734631498128, 19.546547618377929 ], [ 78.11863468264454, 19.546068729388427 ], [ 78.118682334122468, 19.545644075813467 ], [ 78.118920506975883, 19.545115635977876 ], [ 78.119149190183066, 19.544614176702964 ], [ 78.119320651327044, 19.544198626065793 ], [ 78.119716122800867, 19.543503049026523 ], [ 78.120225991636289, 19.542631339764565 ], [ 78.12063090868952, 19.542035008309032 ], [ 78.121350341145387, 19.541199387941447 ], [ 78.121736203363128, 19.540779290332011 ], [ 78.122689088130983, 19.539803581670014 ], [ 78.12309405374765, 19.539361031586392 ], [ 78.124004002183028, 19.538294926669607 ], [ 78.124523303107992, 19.537852256976123 ], [ 78.125223661842597, 19.537246969172312 ], [ 78.125771459585224, 19.536754678485693 ], [ 78.126195509715046, 19.53647000618588 ], [ 78.126948360923194, 19.536115977966869 ] ] ] } },
{ "type": "Feature", "properties": { "REGION": 2.0, "STATE.NAME": "Maharashtra", "DISTRICT.NAME": "Nanded", "DISTRICT.AREA": 10535.728211, "GRID_G0": "184822", "woodland": 0.67428217168363236, "maskWdl": 1.0, "cropland": 0.19167757155424453, "maskCrp": 0.0, "one": 0.1114748221554366, "maskOne": 0.0, "GRID.AREA": 6.743009081408041, "REGION.AREA": 59928.662280600729 }, "geometry": { "type": "Polygon", "coordinates": [ [ [ 78.131534777466058, 19.5505362900583 ], [ 78.131534777466058, 19.536115469806827 ], [ 78.176531634831946, 19.536115442796135 ], [ 78.176531634831946, 19.554802441581948 ], [ 78.176508068992248, 19.5548030808975 ], [ 78.175907745446125, 19.554821247202824 ], [ 78.174707000327885, 19.554807962417556 ], [ 78.174335299734366, 19.55469067013837 ], [ 78.173744469431767, 19.554446935877422 ], [ 78.173467982761281, 19.554347624643185 ], [ 78.17301520378868, 19.554022535911376 ], [ 78.172767425276504, 19.553801207359868 ], [ 78.172443245759268, 19.553363138598002 ], [ 78.172333568939109, 19.553092063148259 ], [ 78.172157112960463, 19.552757969504739 ], [ 78.172014168419196, 19.55259525696556 ], [ 78.171780655852615, 19.552450814153815 ], [ 78.171423233795281, 19.552423812908668 ], [ 78.171127887442083, 19.552428351787057 ], [ 78.170784778994417, 19.552460138324761 ], [ 78.170198787943775, 19.552663573065502 ], [ 78.169627148274344, 19.552930112334877 ], [ 78.168969692597273, 19.55317868674706 ], [ 78.168355020367926, 19.553233117314562 ], [ 78.168016677427772, 19.553242172588227 ], [ 78.167392522746809, 19.553210678330174 ], [ 78.167082834005669, 19.553165607906521 ], [ 78.166873108507218, 19.553088787817334 ], [ 78.166626734736099, 19.553040380009577 ], [ 78.166620659815635, 19.553039185709906 ], [ 78.166610380564691, 19.553040297271938 ], [ 78.166453822985602, 19.553057245895221 ], [ 78.166310926108395, 19.55313862284919 ], [ 78.166039339843735, 19.553346474160495 ], [ 78.165839307238286, 19.553445976950343 ], [ 78.165591454082403, 19.553463953498696 ], [ 78.165272275695031, 19.553432450247442 ], [ 78.164948248163171, 19.55333768058955 ], [ 78.164586044410498, 19.553193196408927 ], [ 78.16427154879301, 19.553039655155999 ], [ 78.163852232694467, 19.55277778876399 ], [ 78.163637737191891, 19.552547485877824 ], [ 78.163394598282139, 19.552032496302729 ], [ 78.16324680639508, 19.551729892420664 ], [ 78.163032258731789, 19.551278186339289 ], [ 78.162870161328954, 19.550867274405224 ], [ 78.162817644518725, 19.550465159639426 ], [ 78.16274603510152, 19.550063177074037 ], [ 78.162774567892029, 19.549728945834264 ], [ 78.162831722506041, 19.549512110295723 ], [ 78.162926895959515, 19.549236579604496 ], [ 78.162950702812736, 19.54905580238341 ], [ 78.162941130428862, 19.548920362684608 ], [ 78.162793320555352, 19.548753263252536 ], [ 78.162402593005311, 19.548464186972694 ], [ 78.161668757906909, 19.548066870989373 ], [ 78.161301842606008, 19.547899812926065 ], [ 78.160901541772773, 19.547814012206974 ], [ 78.160377411488412, 19.547705729335974 ], [ 78.159195750883271, 19.547493570272085 ], [ 78.158190365493056, 19.547281473261421 ], [ 78.157647192963623, 19.547127931109177 ], [ 78.157299300122645, 19.547001519704395 ], [ 78.156722697994169, 19.546658312331317 ], [ 78.155869691932821, 19.545994539816206 ], [ 78.155164460671358, 19.545493184862668 ], [ 78.154911961617813, 19.545371261974196 ], [ 78.154602178447817, 19.545348671004437 ], [ 78.154178138210568, 19.54551592871718 ], [ 78.153892341758251, 19.545601763610534 ], [ 78.153406286970608, 19.545579276062767 ], [ 78.153072792275623, 19.545484454244217 ], [ 78.152634411449014, 19.545245012447424 ], [ 78.152424679655326, 19.545050951340386 ], [ 78.152238911196832, 19.544974134848474 ], [ 78.152142971520959, 19.544960447166943 ], [ 78.151609989209703, 19.544883902270328 ], [ 78.151214575292499, 19.5447890408816 ], [ 78.15083331400632, 19.54477097350167 ], [ 78.150385399466643, 19.544870490680637 ], [ 78.149928149064863, 19.544965389840911 ], [ 78.149537367555524, 19.544969890947755 ], [ 78.14897039986414, 19.544870589606091 ], [ 78.148350984610317, 19.544870674142373 ], [ 78.147755464343277, 19.544852683204795 ], [ 78.147364728699316, 19.544888874621904 ], [ 78.14714079301325, 19.5449160287518 ], [ 78.146678713252072, 19.544974752682716 ], [ 78.146159349374557, 19.545083196532342 ], [ 78.145268461170588, 19.54544928085966 ], [ 78.144415575618382, 19.545625484128834 ], [ 78.143753373319555, 19.545824278367775 ], [ 78.143357951308474, 19.545946296584361 ], [ 78.142748122827641, 19.546099898091882 ], [ 78.142109690509884, 19.546303207826842 ], [ 78.141814345955368, 19.5464477882349 ], [ 78.141666613423524, 19.546569775874502 ], [ 78.141380756716615, 19.546944695141633 ], [ 78.141094997136463, 19.547577120887468 ], [ 78.14091400227943, 19.547811967148618 ], [ 78.14052340962769, 19.548087641731346 ], [ 78.139813460522817, 19.548408372348543 ], [ 78.138650907813201, 19.548787827796048 ], [ 78.137688566674058, 19.549104098675286 ], [ 78.136797541773205, 19.549316528435099 ], [ 78.135835130486953, 19.549442987503937 ], [ 78.135382370400137, 19.549519801297834 ], [ 78.133800568141737, 19.549899281926347 ], [ 78.133219327310144, 19.55004383535476 ], [ 78.131899561415707, 19.550450475509081 ], [ 78.131534777466058, 19.5505362900583 ] ] ] } },
{ "type": "Feature", "properties": { "REGION": 2.0, "STATE.NAME": "Maharashtra", "DISTRICT.NAME": "Nanded", "DISTRICT.AREA": 10535.728211, "GRID_G0": "184825", "woodland": 0.56285250018771316, "maskWdl": 1.0, "cropland": 0.29844398153380858, "maskCrp": 0.0, "one": 0.13850823283572478, "maskOne": 0.0, "GRID.AREA": 12.259353482738646, "REGION.AREA": 59928.662280600729 }, "geometry": { "type": "Polygon", "coordinates": [ [ [ 78.301619878215703, 19.581117631718119 ], [ 78.266534107122311, 19.581116647705652 ], [ 78.266534107122311, 19.536115401251745 ], [ 78.293622950145377, 19.536116776855977 ], [ 78.293006350262885, 19.537711802657608 ], [ 78.292752646117776, 19.539086046783666 ], [ 78.292671268264485, 19.539956460122596 ], [ 78.293250129489934, 19.542232944594787 ], [ 78.29049622012451, 19.542389863701317 ], [ 78.287210803335938, 19.542387737703962 ], [ 78.284926184495873, 19.542310103728369 ], [ 78.283955544412891, 19.541410818554482 ], [ 78.282813207563549, 19.542622465254627 ], [ 78.281697630940982, 19.543996742655622 ], [ 78.280409449236743, 19.545468691826727 ], [ 78.278455859150654, 19.547664915403573 ], [ 78.27653266255237, 19.550114290941849 ], [ 78.275029610328318, 19.55204433677676 ], [ 78.274331363201895, 19.553973618187971 ], [ 78.27547334661773, 19.556120608379445 ], [ 78.275362354089452, 19.557496238360788 ], [ 78.275360222696179, 19.55934239903252 ], [ 78.275288203188111, 19.561887512798535 ], [ 78.275272079243109, 19.56246067861747 ], [ 78.27769801665022, 19.562277993934348 ], [ 78.280035337560832, 19.561931915925243 ], [ 78.281815728113429, 19.561566585229798 ], [ 78.285157847156995, 19.560797418466166 ], [ 78.286637099722441, 19.560537326436531 ], [ 78.290022283701489, 19.559745950015614 ], [ 78.293583344495801, 19.558983432839227 ], [ 78.295028996590986, 19.560411135365655 ], [ 78.297058306895394, 19.56286489330023 ], [ 78.298168867998925, 19.564036271057091 ], [ 78.297499999025774, 19.564647890987434 ], [ 78.297275045307174, 19.567263668083854 ], [ 78.297305944214031, 19.567895989508372 ], [ 78.299700937748128, 19.568344742216141 ], [ 78.302398906584301, 19.568954567099638 ], [ 78.303709188228552, 19.569319928372067 ], [ 78.303543206653728, 19.570514447483788 ], [ 78.30426625978015, 19.572688528852549 ], [ 78.303789369983519, 19.574010783171161 ], [ 78.302816252268258, 19.575833478732136 ], [ 78.301894378822567, 19.577336224287368 ], [ 78.30092226025414, 19.579068710652511 ], [ 78.300922271945367, 19.579068753819968 ], [ 78.301251753865415, 19.580254669117721 ], [ 78.301619878215703, 19.581117631718119 ] ] ] } },
{ "type": "Feature", "properties": { "REGION": 2.0, "STATE.NAME": "Maharashtra", "DISTRICT.NAME": "Nanded", "DISTRICT.AREA": 10535.728211, "GRID_G0": "184171", "woodland": 0.52138645621750013, "maskWdl": 1.0, "cropland": 0.28317833031903317, "maskCrp": 0.0, "one": 0.17343577702941168, "maskOne": 0.0, "GRID.AREA": 2.728475789489349, "REGION.AREA": 59928.662280600729 }, "geometry": { "type": "MultiPolygon", "coordinates": [ [ [ [ 78.118174639324806, 19.491115353074058 ], [ 78.131534777466058, 19.491114181178062 ], [ 78.131534777466058, 19.515452178040825 ], [ 78.130519845814263, 19.514796882670055 ], [ 78.129929074866993, 19.514435488307186 ], [ 78.129228780883579, 19.514015387100471 ], [ 78.127723402113361, 19.513373937557219 ], [ 78.126932640828784, 19.512981072318667 ], [ 78.126392659094009, 19.512657083457668 ], [ 78.126392612329255, 19.512657050182781 ], [ 78.126349066256466, 19.512630926675968 ], [ 78.126349031182883, 19.512630904192921 ], [ 78.125765545643446, 19.512280851180378 ], [ 78.124531728856255, 19.51163480520216 ], [ 78.123255079158639, 19.511038641020491 ], [ 78.122916890901877, 19.510857894376386 ], [ 78.12272632545961, 19.510713277995421 ], [ 78.12254529732769, 19.510482890572973 ], [ 78.122278484664378, 19.509800916679012 ], [ 78.122106896715991, 19.509064477143962 ], [ 78.121902146267075, 19.507930673961482 ], [ 78.121782973505503, 19.507338941638924 ], [ 78.121587698313704, 19.506241271417593 ], [ 78.121563887863218, 19.505785050739579 ], [ 78.121339951277776, 19.504597084987552 ], [ 78.121039771967958, 19.503237382898931 ], [ 78.12073970687203, 19.50206287999794 ], [ 78.120668191883624, 19.501692500508568 ], [ 78.12054440829786, 19.500644429696706 ], [ 78.120750251423047, 19.499901381943285 ], [ 78.120935937143827, 19.498346015256459 ], [ 78.120864091204908, 19.49682845157184 ], [ 78.120715139192384, 19.49538671332618 ], [ 78.120319839489085, 19.493856517764129 ], [ 78.11926400033343, 19.49222416461356 ], [ 78.118174639324806, 19.491115353074058 ] ] ], [ [ [ 78.131534777466058, 19.533019700654727 ], [ 78.131534777466058, 19.536115469806827 ], [ 78.126948360923194, 19.536115977966869 ], [ 78.127386492692551, 19.535909944388493 ], [ 78.127762986672565, 19.535837707244472 ], [ 78.128201176842879, 19.535670523276053 ], [ 78.129263636807423, 19.534925184050049 ], [ 78.129806705914802, 19.534464514425849 ], [ 78.130869079544425, 19.533502360345722 ], [ 78.131240620058634, 19.533208653456654 ], [ 78.131534777466058, 19.533019700654727 ] ] ] ] } },
{ "type": "Feature", "properties": { "REGION": 2.0, "STATE.NAME": "Maharashtra", "DISTRICT.NAME": "Nanded", "DISTRICT.AREA": 10535.728211, "GRID_G0": "184175", "woodland": 0.39855632307526678, "maskWdl": 1.0, "cropland": 0.50103233052490881, "maskCrp": 0.0, "one": 0.096395023233712324, "maskOne": 0.0, "GRID.AREA": 15.33355002210493, "REGION.AREA": 59928.662280600729 }, "geometry": { "type": "Polygon", "coordinates": [ [ [ 78.293622950145377, 19.536116776855977 ], [ 78.266534107122311, 19.536115401251745 ], [ 78.266534107122311, 19.491114169889599 ], [ 78.302562057421483, 19.491115066834698 ], [ 78.302358061175653, 19.491441840768402 ], [ 78.301616332727633, 19.492626072535248 ], [ 78.30076824775648, 19.493953675122043 ], [ 78.299894863057546, 19.494992082718515 ], [ 78.299139309331736, 19.49617555186029 ], [ 78.299027264596646, 19.496351055456898 ], [ 78.298684094095734, 19.496812491303501 ], [ 78.298648480942688, 19.497015280330974 ], [ 78.298932312376394, 19.498011368529884 ], [ 78.299032349363472, 19.498843031880483 ], [ 78.298862026761185, 19.499590670672948 ], [ 78.298578904892622, 19.500630512688076 ], [ 78.297826827945812, 19.503137339616558 ], [ 78.297128600604481, 19.505513700097257 ], [ 78.296756069936748, 19.50687771533433 ], [ 78.296282781924901, 19.508317461581612 ], [ 78.29611256454325, 19.509047009611837 ], [ 78.295948014689202, 19.509704417624846 ], [ 78.295630355256719, 19.510843266903297 ], [ 78.295222832867523, 19.511940574697807 ], [ 78.295152065215689, 19.512300966316616 ], [ 78.294975497721111, 19.513170442561943 ], [ 78.297033185233374, 19.513083091411598 ], [ 78.296461674167006, 19.51561425399467 ], [ 78.296018034105032, 19.51737027381915 ], [ 78.294692495462357, 19.518385945654927 ], [ 78.294110522582628, 19.519743344579751 ], [ 78.293566014559985, 19.521155188461254 ], [ 78.292730104610712, 19.522230032989683 ], [ 78.291535079180619, 19.523906125567297 ], [ 78.29129499706653, 19.524504063212021 ], [ 78.291076281045605, 19.525309859362554 ], [ 78.290416799196009, 19.527623317662005 ], [ 78.291727621332711, 19.528738209900496 ], [ 78.292459110099912, 19.529309939502184 ], [ 78.29283475871722, 19.530189547509679 ], [ 78.293324949486873, 19.531887428861804 ], [ 78.29358871524704, 19.532977961164022 ], [ 78.293712209251112, 19.53342162101103 ], [ 78.294129842718121, 19.534793651006225 ], [ 78.293752007848923, 19.535782925041985 ], [ 78.293622950145377, 19.536116776855977 ] ] ] } },
{ "type": "Feature", "properties": { "REGION": 2.0, "STATE.NAME": "Maharashtra", "DISTRICT.NAME": "Nanded", "DISTRICT.AREA": 10535.728211, "GRID_G0": "183520", "woodland": 0.4506617632974852, "maskWdl": 1.0, "cropland": 0.29807539656270327, "maskCrp": 0.0, "one": 0.23322085016164334, "maskOne": 0.0, "GRID.AREA": 11.09446504874653, "REGION.AREA": 59928.662280600729 }, "geometry": { "type": "Polygon", "coordinates": [ [ [ 78.041532344959762, 19.47768558020535 ], [ 78.041532344959762, 19.446117410148617 ], [ 78.086533529357553, 19.446117384759511 ], [ 78.086533529357553, 19.474048831947098 ], [ 78.086506188509873, 19.47402336578574 ], [ 78.084662259056074, 19.473018607222969 ], [ 78.082596884138923, 19.471465040978899 ], [ 78.080628347320442, 19.470151812256407 ], [ 78.078684382678148, 19.46878918107592 ], [ 78.077129494430679, 19.467521222426516 ], [ 78.075530475551091, 19.465977280726975 ], [ 78.074617890303443, 19.465109316241978 ], [ 78.073098301345567, 19.464071885309295 ], [ 78.072439767381411, 19.463445947272703 ], [ 78.072066055004484, 19.462498251593107 ], [ 78.071920474550325, 19.460821677878187 ], [ 78.071592000770295, 19.46006857570427 ], [ 78.070758947967136, 19.458935051311638 ], [ 78.069508329146117, 19.458465008053736 ], [ 78.068171707258557, 19.458404808335274 ], [ 78.06727830544952, 19.458674631928773 ], [ 78.066448770794182, 19.459161885512628 ], [ 78.066089051868289, 19.459379037612564 ], [ 78.065161477620165, 19.460095388091759 ], [ 78.063548729690183, 19.461178682650143 ], [ 78.061105427273731, 19.462821469735108 ], [ 78.060083635551393, 19.463459950616254 ], [ 78.058407670677525, 19.464262655796972 ], [ 78.057337422584055, 19.464968279162807 ], [ 78.056385709632877, 19.465706955311816 ], [ 78.055974463151017, 19.466234997647064 ], [ 78.055447040448598, 19.467298898325566 ], [ 78.054730915699281, 19.468604579937445 ], [ 78.054130527401981, 19.469410314034803 ], [ 78.053563344772613, 19.469850880213986 ], [ 78.051476945504703, 19.470730072734739 ], [ 78.050404440112857, 19.471232517666639 ], [ 78.048885817926191, 19.472000817483771 ], [ 78.046918332415146, 19.472890331523615 ], [ 78.04578703474391, 19.473522965912199 ], [ 78.044634328711368, 19.474340593543612 ], [ 78.043390599596535, 19.475572407540653 ], [ 78.042213007524325, 19.476850098653191 ], [ 78.041532344959762, 19.47768558020535 ] ] ] } },
{ "type": "Feature", "properties": { "REGION": 2.0, "STATE.NAME": "Maharashtra", "DISTRICT.NAME": "Nanded", "DISTRICT.AREA": 10535.728211, "GRID_G0": "182872", "woodland": 0.52686302691009823, "maskWdl": 1.0, "cropland": 0.16503003243979689, "maskCrp": 0.0, "one": 0.25956539658032762, "maskOne": 0.0, "GRID.AREA": 23.61092366328592, "REGION.AREA": 59928.662280600729 }, "geometry": { "type": "Polygon", "coordinates": [ [ [ 78.176531634831932, 19.412231299441451 ], [ 78.176531634831946, 19.446117373611337 ], [ 78.131534777466058, 19.446117378117297 ], [ 78.131534777466058, 19.401116121772539 ], [ 78.176531634831932, 19.401116168665641 ], [ 78.176531634831932, 19.411762903777202 ], [ 78.176212044550255, 19.412260825276917 ], [ 78.176531634831932, 19.412231299441451 ] ] ] } },
{ "type": "Feature", "properties": { "REGION": 2.0, "STATE.NAME": "Maharashtra", "DISTRICT.NAME": "Nanded", "DISTRICT.AREA": 10535.728211, "GRID_G0": "182873", "woodland": 0.53288952502581743, "maskWdl": 1.0, "cropland": 0.33236892764893394, "maskCrp": 0.0, "one": 0.13260586129468313, "maskOne": 0.0, "GRID.AREA": 15.285947403932175, "REGION.AREA": 59928.662280600729 }, "geometry": { "type": "MultiPolygon", "coordinates": [ [ [ [ 78.221532867981381, 19.432117939950864 ], [ 78.221532867981381, 19.446117420529976 ], [ 78.176531634831946, 19.446117373611337 ], [ 78.176531634831932, 19.412231299441451 ], [ 78.181156731198257, 19.411803939100533 ], [ 78.183840399914573, 19.412198436608609 ], [ 78.186626805382843, 19.410372878505598 ], [ 78.192466084542218, 19.406692721392005 ], [ 78.195087118176048, 19.406752369826052 ], [ 78.1963824045244, 19.407867862811656 ], [ 78.198834328741327, 19.410155921558555 ], [ 78.198924868887673, 19.410951540980875 ], [ 78.199099882353721, 19.413043670728882 ], [ 78.199207031179583, 19.414841697886114 ], [ 78.20075656036704, 19.416194564227798 ], [ 78.201471187745199, 19.417326405089568 ], [ 78.202551780740123, 19.41970361183229 ], [ 78.204083408922259, 19.420961533148272 ], [ 78.205958153645952, 19.422177847329863 ], [ 78.209045756456533, 19.425872113007639 ], [ 78.211608518518361, 19.428477230439906 ], [ 78.215725342350709, 19.43045315698765 ], [ 78.219982876808388, 19.433017429011215 ], [ 78.221532867981381, 19.432117939950864 ] ] ], [ [ [ 78.176531634831932, 19.411762903777202 ], [ 78.176531634831932, 19.401116168665641 ], [ 78.183449050395268, 19.401116879909271 ], [ 78.181229372137878, 19.404522347928037 ], [ 78.178874037806679, 19.408113330965477 ], [ 78.176531634831932, 19.411762903777202 ] ] ] ] } },
{ "type": "Feature", "properties": { "REGION": 2.0, "STATE.NAME": "Maharashtra", "DISTRICT.NAME": "Nanded", "DISTRICT.AREA": 10535.728211, "GRID_G0": "182874", "woodland": 0.5741552445567305, "maskWdl": 1.0, "cropland": 0.26203336250098075, "maskCrp": 0.0, "one": 0.16184124583461773, "maskOne": 0.0, "GRID.AREA": 6.299234675880979, "REGION.AREA": 59928.662280600729 }, "geometry": { "type": "Polygon", "coordinates": [ [ [ 78.263201462837714, 19.446117797952599 ], [ 78.221532867981381, 19.446117420529976 ], [ 78.221532867981381, 19.432117939950864 ], [ 78.225032953208256, 19.430086689549114 ], [ 78.229624065098562, 19.429773939515769 ], [ 78.231923553329352, 19.428470761616381 ], [ 78.23563154895686, 19.426753604195543 ], [ 78.237450040187241, 19.428732070428737 ], [ 78.239248832667556, 19.428749808656789 ], [ 78.244530211100425, 19.428801768786627 ], [ 78.24674201723036, 19.432170302717342 ], [ 78.246634639077399, 19.433631904289033 ], [ 78.246502275959301, 19.435197100565805 ], [ 78.248675976914853, 19.436118178111485 ], [ 78.249859092623069, 19.436275056748514 ], [ 78.251298128405949, 19.436524781393583 ], [ 78.252646531412324, 19.43668056195844 ], [ 78.253403507865642, 19.4367680084369 ], [ 78.253831467348391, 19.437205864958745 ], [ 78.254785888158267, 19.438213534626982 ], [ 78.255297528658105, 19.438828363338359 ], [ 78.255880605905304, 19.43943034613363 ], [ 78.256628714143915, 19.44017847775461 ], [ 78.257590158658957, 19.440992125885938 ], [ 78.258327993941805, 19.441794323849027 ], [ 78.25921638832574, 19.442345315983573 ], [ 78.260420764906428, 19.442723553749037 ], [ 78.262667986338556, 19.443058423507466 ], [ 78.262828759040076, 19.443971970130349 ], [ 78.263145195394486, 19.445835288068164 ], [ 78.263201462837714, 19.446117797952599 ] ] ] } },
{ "type": "Feature", "properties": { "REGION": 2.0, "STATE.NAME": "Maharashtra", "DISTRICT.NAME": "Nanded", "DISTRICT.AREA": 10535.728211, "GRID_G0": "182206", "woodland": 0.45671305660902423, "maskWdl": 1.0, "cropland": 0.24474087107742953, "maskCrp": 0.0, "one": 0.28437575602223841, "maskOne": 0.0, "GRID.AREA": 14.459219272130685, "REGION.AREA": 59928.662280600729 }, "geometry": { "type": "Polygon", "coordinates": [ [ [ 77.411532665061301, 19.366390458304771 ], [ 77.411532665061301, 19.356114896207732 ], [ 77.456533885822068, 19.356114930107953 ], [ 77.456533885822068, 19.401116129435536 ], [ 77.440840834725137, 19.401117393237293 ], [ 77.441609584314904, 19.400140222293487 ], [ 77.442053861096895, 19.399582306278489 ], [ 77.443438695639387, 19.397845254055255 ], [ 77.443962742286772, 19.397083776495151 ], [ 77.444877688254792, 19.395597655807194 ], [ 77.445666972852564, 19.394618023403101 ], [ 77.445947410244855, 19.394182038370445 ], [ 77.446582314522232, 19.393195066599105 ], [ 77.447592027450185, 19.39164516779033 ], [ 77.447920979669561, 19.391221443215102 ], [ 77.448144818228855, 19.39093316463391 ], [ 77.448175824155044, 19.390131622276613 ], [ 77.448182042966948, 19.389970907131723 ], [ 77.447894389414614, 19.388789108030949 ], [ 77.447523045851938, 19.387133470533286 ], [ 77.446934471049076, 19.384950443608147 ], [ 77.446905580328348, 19.384897676786409 ], [ 77.446833426821229, 19.384765801100912 ], [ 77.446484893662955, 19.384754775412603 ], [ 77.446343074173569, 19.384750270708484 ], [ 77.445341934482769, 19.384484469782478 ], [ 77.444445617970928, 19.384240756206001 ], [ 77.443596051816371, 19.383838607265943 ], [ 77.442628055740215, 19.383308116976082 ], [ 77.441824544766973, 19.382867737855861 ], [ 77.440645109983905, 19.38215708458182 ], [ 77.440167057363851, 19.381869027233847 ], [ 77.439901191686715, 19.381696097496956 ], [ 77.437735209612299, 19.38028723037144 ], [ 77.436952244550525, 19.379875746468599 ], [ 77.436141906823593, 19.379672169634944 ], [ 77.436026742340346, 19.379646167536634 ], [ 77.435965535381229, 19.379632350352722 ], [ 77.434179677849897, 19.379474406019085 ], [ 77.433428648613301, 19.379512349315519 ], [ 77.432985358387612, 19.379534743333807 ], [ 77.431247423030186, 19.379439698483338 ], [ 77.43105978308256, 19.37941768487832 ], [ 77.430104274992345, 19.379305581687277 ], [ 77.428246252262795, 19.379003367211681 ], [ 77.428076121216066, 19.378952552818138 ], [ 77.426610834222686, 19.37851488605321 ], [ 77.424879626693496, 19.377904870513419 ], [ 77.423797668527641, 19.377639362766445 ], [ 77.422997791714749, 19.377602787338787 ], [ 77.421054051903013, 19.37768978145829 ], [ 77.42049477611306, 19.377714805993545 ], [ 77.420242054926973, 19.377700866501812 ], [ 77.418918806857505, 19.377627880222519 ], [ 77.416825192328815, 19.377751272603181 ], [ 77.416671074610463, 19.375728682033127 ], [ 77.416619954447413, 19.375096551264903 ], [ 77.415308904782194, 19.371313775210581 ], [ 77.415010132911334, 19.370297224737158 ], [ 77.414809192890004, 19.36961353044012 ], [ 77.414396973341695, 19.36881727339852 ], [ 77.413510185147004, 19.367104206993588 ], [ 77.41333834898569, 19.366823404476577 ], [ 77.413303593785884, 19.366766588007689 ], [ 77.411532665061301, 19.366390458304771 ] ] ] } },
{ "type": "Feature", "properties": { "REGION": 2.0, "STATE.NAME": "Maharashtra", "DISTRICT.NAME": "Nanded", "DISTRICT.AREA": 10535.728211, "GRID_G0": "182221", "woodland": 0.60837455923293271, "maskWdl": 1.0, "cropland": 0.12837962999736094, "maskCrp": 0.0, "one": 0.25701074172527766, "maskOne": 0.0, "GRID.AREA": 23.620648530291344, "REGION.AREA": 59928.662280600729 }, "geometry": { "type": "Polygon", "coordinates": [ [ [ 78.086533529357553, 19.356114915860587 ], [ 78.131534777466058, 19.356114874798021 ], [ 78.131534777466058, 19.401116121772539 ], [ 78.086533529357553, 19.401116188853127 ], [ 78.086533529357553, 19.356114915860587 ] ] ] } },
{ "type": "Feature", "properties": { "REGION": 2.0, "STATE.NAME": "Maharashtra", "DISTRICT.NAME": "Nanded", "DISTRICT.AREA": 10535.728211, "GRID_G0": "182222", "woodland": 0.61585481782276952, "maskWdl": 1.0, "cropland": 0.058292409072809907, "maskCrp": 0.0, "one": 0.32584081568717482, "maskOne": 0.0, "GRID.AREA": 23.377680362254562, "REGION.AREA": 59928.662280600729 }, "geometry": { "type": "Polygon", "coordinates": [ [ [ 78.176531634831946, 19.361548327026046 ], [ 78.176531634831932, 19.401116168665641 ], [ 78.131534777466058, 19.401116121772539 ], [ 78.131534777466058, 19.356114874798021 ], [ 78.171758964973876, 19.356115404127785 ], [ 78.171751729159041, 19.357650280036466 ], [ 78.172083745368639, 19.359717239559018 ], [ 78.172117029277558, 19.359717650549157 ], [ 78.174466365130684, 19.360564753460661 ], [ 78.176531634831946, 19.361548327026046 ] ] ] } },
{ "type": "Feature", "properties": { "REGION": 2.0, "STATE.NAME": "Maharashtra", "DISTRICT.NAME": "Nanded", "DISTRICT.AREA": 10535.728211, "GRID_G0": "182223", "woodland": 0.64635423641267964, "maskWdl": 1.0, "cropland": 0.12057013180800796, "maskCrp": 0.0, "one": 0.22490139906516429, "maskOne": 0.0, "GRID.AREA": 2.5240518940768344, "REGION.AREA": 59928.662280600729 }, "geometry": { "type": "Polygon", "coordinates": [ [ [ 78.183449050395268, 19.401116879909271 ], [ 78.176531634831932, 19.401116168665641 ], [ 78.176531634831946, 19.361548327026046 ], [ 78.179248536191039, 19.362842183120275 ], [ 78.176810747518061, 19.367398613555228 ], [ 78.177630946311183, 19.370017067933361 ], [ 78.18068757017528, 19.37778414821992 ], [ 78.183027871439151, 19.383796045950813 ], [ 78.184306570691717, 19.387078599297976 ], [ 78.185878156651654, 19.390544851763533 ], [ 78.187694975143017, 19.39459156085189 ], [ 78.18544609895838, 19.398052829274718 ], [ 78.183449050395268, 19.401116879909271 ] ] ] } },
{ "type": "Feature", "properties": { "REGION": 2.0, "STATE.NAME": "Maharashtra", "DISTRICT.NAME": "Nanded", "DISTRICT.AREA": 10535.728211, "GRID_G0": "181557", "woodland": 0.41818129650986241, "maskWdl": 1.0, "cropland": 0.23740044488474199, "maskCrp": 0.0, "one": 0.34441427361128929, "maskOne": 1.0, "GRID.AREA": 23.622461249037702, "REGION.AREA": 59928.662280600729 }, "geometry": { "type": "Polygon", "coordinates": [ [ [ 77.456533885822068, 19.311118147936885 ], [ 77.501530685759349, 19.31111815651975 ], [ 77.501530685759349, 19.35611486662274 ], [ 77.456533885822068, 19.356114930107953 ], [ 77.456533885822068, 19.311118147936885 ] ] ] } },
{ "type": "Feature", "properties": { "REGION": 2.0, "STATE.NAME": "Maharashtra", "DISTRICT.NAME": "Nanded", "DISTRICT.AREA": 10535.728211, "GRID_G0": "181558", "woodland": 0.40241467277457382, "maskWdl": 1.0, "cropland": 0.39048122437026017, "maskCrp": 0.0, "one": 0.20002381860035334, "maskOne": 0.0, "GRID.AREA": 23.624822204261655, "REGION.AREA": 59928.662280600729 }, "geometry": { "type": "Polygon", "coordinates": [ [ [ 77.501530685759349, 19.31111815651975 ], [ 77.546531976600761, 19.311118092600495 ], [ 77.546531976600761, 19.356114887389996 ], [ 77.501530685759349, 19.35611486662274 ], [ 77.501530685759349, 19.31111815651975 ] ] ] } },
{ "type": "Feature", "properties": { "REGION": 2.0, "STATE.NAME": "Maharashtra", "DISTRICT.NAME": "Nanded", "DISTRICT.AREA": 10535.728211, "GRID_G0": "181567", "woodland": 0.42040124453654493, "maskWdl": 1.0, "cropland": 0.41151978064178757, "maskCrp": 0.0, "one": 0.16024942051336852, "maskOne": 0.0, "GRID.AREA": 13.567992400703002, "REGION.AREA": 59928.662280600729 }, "geometry": { "type": "Polygon", "coordinates": [ [ [ 77.951534251315636, 19.340262835042399 ], [ 77.951534251315636, 19.356114941157951 ], [ 77.906533022918595, 19.35611490186043 ], [ 77.906533022918595, 19.31674866323851 ], [ 77.907986809843464, 19.316439296936039 ], [ 77.910349408898185, 19.316174210071779 ], [ 77.911323785664251, 19.31621750973034 ], [ 77.911570708021827, 19.316252122837227 ], [ 77.911683952452506, 19.316316631207599 ], [ 77.911993235599425, 19.316663562673341 ], [ 77.912613721046455, 19.31756951991747 ], [ 77.913475278761155, 19.318948006145607 ], [ 77.914605867766625, 19.320117470145188 ], [ 77.915688984259248, 19.3212864431149 ], [ 77.917001596046873, 19.322728932294467 ], [ 77.917626825417713, 19.323278311045271 ], [ 77.918302072382801, 19.323647637428568 ], [ 77.919757960561469, 19.324328796536804 ], [ 77.920975501418297, 19.32469102187321 ], [ 77.922165652522892, 19.324967163204064 ], [ 77.922496570660257, 19.325120129790207 ], [ 77.923329806925096, 19.325771312695963 ], [ 77.923525299752853, 19.326018324086416 ], [ 77.923525435550459, 19.326018494957623 ], [ 77.923755468640024, 19.326309145051024 ], [ 77.924210672184813, 19.327131834066957 ], [ 77.925135473823104, 19.328411684451734 ], [ 77.925671280005645, 19.32925340851801 ], [ 77.92632993088165, 19.33015985319474 ], [ 77.927191417549921, 19.331195052909436 ], [ 77.928038925156329, 19.332203049930854 ], [ 77.92842559676393, 19.332455976162407 ], [ 77.929321718122878, 19.333031135778356 ], [ 77.930952914745262, 19.333772960453814 ], [ 77.931254866618872, 19.333961690379741 ], [ 77.931916698396947, 19.334628811970159 ], [ 77.932001848906296, 19.33466600163473 ], [ 77.932316124189825, 19.334633554095319 ], [ 77.933750813549239, 19.334406852094613 ], [ 77.935424896142081, 19.334065632223204 ], [ 77.937062556192075, 19.333958644375972 ], [ 77.937856409345898, 19.333990717797466 ], [ 77.938155359282462, 19.334048419199235 ], [ 77.938268699940579, 19.33410850200579 ], [ 77.938521869888461, 19.334386914124821 ], [ 77.93936955106399, 19.335390350684179 ], [ 77.940323482642683, 19.336638835413964 ], [ 77.940955411962761, 19.337775109034112 ], [ 77.941458447749199, 19.339302694763603 ], [ 77.941859057949216, 19.340671068115341 ], [ 77.942225522689796, 19.342102160186585 ], [ 77.942318436146991, 19.342270333409207 ], [ 77.942506518561061, 19.342435142268073 ], [ 77.943539537419781, 19.342736399865032 ], [ 77.943877489154886, 19.342713254912841 ], [ 77.945146306656795, 19.342448412664169 ], [ 77.946984612649842, 19.341914801726773 ], [ 77.948567134365817, 19.341301491071025 ], [ 77.949983110632104, 19.340695137570609 ], [ 77.951534251315636, 19.340262835042399 ] ] ] } },
{ "type": "Feature", "properties": { "REGION": 2.0, "STATE.NAME": "Maharashtra", "DISTRICT.NAME": "Nanded", "DISTRICT.AREA": 10535.728211, "GRID_G0": "181568", "woodland": 0.51579582525166268, "maskWdl": 1.0, "cropland": 0.2512659161489863, "maskCrp": 0.0, "one": 0.21794017967868851, "maskOne": 0.0, "GRID.AREA": 17.09795201320981, "REGION.AREA": 59928.662280600729 }, "geometry": { "type": "Polygon", "coordinates": [ [ [ 77.984298757125345, 19.311119208042108 ], [ 77.996531068852022, 19.311118118149839 ], [ 77.996531068852022, 19.356114899773495 ], [ 77.951534251315636, 19.356114941157951 ], [ 77.951534251315636, 19.340262835042399 ], [ 77.951568102785757, 19.340253400474126 ], [ 77.953689621478929, 19.339519907118074 ], [ 77.955482930792698, 19.338791593857025 ], [ 77.95736812204126, 19.33793787193531 ], [ 77.959488864619459, 19.336901841247027 ], [ 77.96098756682278, 19.336142960928953 ], [ 77.961648565828682, 19.335789532760767 ], [ 77.961884041615292, 19.335607149350498 ], [ 77.962212752816356, 19.335204700036915 ], [ 77.963116373621801, 19.33412268431448 ], [ 77.963874257491071, 19.332907968228199 ], [ 77.964376092682585, 19.331631599119078 ], [ 77.964779266849746, 19.329888958508661 ], [ 77.965040502817033, 19.328826410410556 ], [ 77.965286668844726, 19.328188161554465 ], [ 77.965417846656351, 19.327972933104434 ], [ 77.965900278974743, 19.327454843566219 ], [ 77.96684773363603, 19.326653267934031 ], [ 77.967725200357791, 19.326108261686951 ], [ 77.969426455966243, 19.325130372168985 ], [ 77.971462295348715, 19.324020929822098 ], [ 77.973109473823243, 19.323173323290291 ], [ 77.97413451029945, 19.322616429804441 ], [ 77.974621429335571, 19.322482192499251 ], [ 77.975116450363942, 19.322451847574765 ], [ 77.976731565309535, 19.322601740278117 ], [ 77.977447124385321, 19.322804280193452 ], [ 77.977495525897837, 19.322802369134084 ], [ 77.977537537727244, 19.322800831293364 ], [ 77.977657724024823, 19.322702911310387 ], [ 77.97799222685984, 19.322219230732969 ], [ 77.978641437552369, 19.320935474592545 ], [ 77.978880551995928, 19.320464178579016 ], [ 77.979350834473507, 19.319413102232939 ], [ 77.979515664016731, 19.319171136938447 ], [ 77.979860147527859, 19.318646905030675 ], [ 77.980920049820497, 19.31760275526301 ], [ 77.981913291665137, 19.316557785313591 ], [ 77.982927597430717, 19.314993816611377 ], [ 77.983552102847341, 19.313411778730654 ], [ 77.984047663468971, 19.311873357069828 ], [ 77.984298757125345, 19.311119208042108 ] ] ] } },
{ "type": "Feature", "properties": { "REGION": 2.0, "STATE.NAME": "Maharashtra", "DISTRICT.NAME": "Nanded", "DISTRICT.AREA": 10535.728211, "GRID_G0": "181569", "woodland": 0.47026200826453685, "maskWdl": 1.0, "cropland": 0.36695370403928385, "maskCrp": 0.0, "one": 0.15328894293305345, "maskOne": 0.0, "GRID.AREA": 23.624835127782774, "REGION.AREA": 59928.662280600729 }, "geometry": { "type": "Polygon", "coordinates": [ [ [ 77.996531068852022, 19.311118118149839 ], [ 78.041532344959762, 19.311118128346571 ], [ 78.041532344959762, 19.35611493031919 ], [ 77.996531068852022, 19.356114899773495 ], [ 77.996531068852022, 19.311118118149839 ] ] ] } },
{ "type": "Feature", "properties": { "REGION": 2.0, "STATE.NAME": "Maharashtra", "DISTRICT.NAME": "Nanded", "DISTRICT.AREA": 10535.728211, "GRID_G0": "181570", "woodland": 0.50012415644540886, "maskWdl": 1.0, "cropland": 0.29067550031541151, "maskCrp": 0.0, "one": 0.20747514241333992, "maskOne": 0.0, "GRID.AREA": 23.624791882551239, "REGION.AREA": 59928.662280600729 }, "geometry": { "type": "Polygon", "coordinates": [ [ [ 78.041532344959762, 19.311118128346571 ], [ 78.086533529357553, 19.311118115566526 ], [ 78.086533529357553, 19.356114915860587 ], [ 78.041532344959762, 19.35611493031919 ], [ 78.041532344959762, 19.311118128346571 ] ] ] } },
{ "type": "Feature", "properties": { "REGION": 2.0, "STATE.NAME": "Maharashtra", "DISTRICT.NAME": "Nanded", "DISTRICT.AREA": 10535.728211, "GRID_G0": "181572", "woodland": 0.61727548881971961, "maskWdl": 1.0, "cropland": 0.25202443710068645, "maskCrp": 0.0, "one": 0.12798236116651251, "maskOne": 0.0, "GRID.AREA": 22.816342447624258, "REGION.AREA": 59928.662280600729 }, "geometry": { "type": "Polygon", "coordinates": [ [ [ 78.171758964973876, 19.356115404127785 ], [ 78.131534777466058, 19.356114874798021 ], [ 78.131534777466058, 19.311118098183876 ], [ 78.176531634831946, 19.311118150493606 ], [ 78.176531634831946, 19.334680412892229 ], [ 78.176247874439923, 19.334924917351088 ], [ 78.175772580939906, 19.335687341897369 ], [ 78.175174351914848, 19.336787064371549 ], [ 78.174683324775685, 19.338077580715829 ], [ 78.174238303355082, 19.340285172622657 ], [ 78.173418382452439, 19.343608473352393 ], [ 78.172170529046753, 19.349297488388402 ], [ 78.17267443987356, 19.35051752576328 ], [ 78.172091973265992, 19.351490979824916 ], [ 78.171767159726699, 19.354377081437235 ], [ 78.171758964973876, 19.356115404127785 ] ] ] } },
{ "type": "Feature", "properties": { "REGION": 2.0, "STATE.NAME": "Maharashtra", "DISTRICT.NAME": "Nanded", "DISTRICT.AREA": 10535.728211, "GRID_G0": "181573", "woodland": 0.63107118937407158, "maskWdl": 1.0, "cropland": 0.27119900059476448, "maskCrp": 0.0, "one": 0.093940561877366463, "maskOne": 0.0, "GRID.AREA": 3.4814965143530228, "REGION.AREA": 59928.662280600729 }, "geometry": { "type": "Polygon", "coordinates": [ [ [ 78.176531634831946, 19.334680412892229 ], [ 78.176531634831946, 19.311118150493606 ], [ 78.192384723532498, 19.311119405257287 ], [ 78.193723205461595, 19.314473964401998 ], [ 78.193761087604173, 19.314885230668892 ], [ 78.19356951761921, 19.315804246069149 ], [ 78.193417071740498, 19.31661986551444 ], [ 78.193263519695734, 19.317137448734343 ], [ 78.192775390172187, 19.317394165608331 ], [ 78.19174831942945, 19.318173316645296 ], [ 78.191001387504059, 19.318996105485951 ], [ 78.190524901503068, 19.319871418331331 ], [ 78.190228729572254, 19.320775840432759 ], [ 78.190409867421522, 19.32154529587876 ], [ 78.191108367257414, 19.323196318955013 ], [ 78.192299509414909, 19.325827884549255 ], [ 78.189532075145223, 19.32896782880232 ], [ 78.187909306069685, 19.329040769216196 ], [ 78.185527052331679, 19.329385438886959 ], [ 78.183260688829762, 19.329979648841743 ], [ 78.181921202601472, 19.331026222282393 ], [ 78.179912964311939, 19.332314022674037 ], [ 78.177795305508994, 19.333591546512707 ], [ 78.176531634831946, 19.334680412892229 ] ] ] } },
{ "type": "Feature", "properties": { "REGION": 2.0, "STATE.NAME": "Maharashtra", "DISTRICT.NAME": "Nanded", "DISTRICT.AREA": 10535.728211, "GRID_G0": "180909", "woodland": 0.41952088916237701, "maskWdl": 1.0, "cropland": 0.34903082640003696, "maskCrp": 0.0, "one": 0.21844506581516909, "maskOne": 0.0, "GRID.AREA": 23.633621838484576, "REGION.AREA": 59928.662280600729 }, "geometry": { "type": "Polygon", "coordinates": [ [ [ 77.546531976600761, 19.2661168779597 ], [ 77.591533190519684, 19.26611690169802 ], [ 77.591533190519684, 19.311118093327131 ], [ 77.546531976600761, 19.311118092600495 ], [ 77.546531976600761, 19.2661168779597 ] ] ] } },
{ "type": "Feature", "properties": { "REGION": 2.0, "STATE.NAME": "Maharashtra", "DISTRICT.NAME": "Nanded", "DISTRICT.AREA": 10535.728211, "GRID_G0": "180914", "woodland": 0.44606835722976507, "maskWdl": 1.0, "cropland": 0.38538538115657139, "maskCrp": 0.0, "one": 0.16529007898124815, "maskOne": 0.0, "GRID.AREA": 23.633664056898457, "REGION.AREA": 59928.662280600729 }, "geometry": { "type": "Polygon", "coordinates": [ [ [ 77.771533724775892, 19.266116903753055 ], [ 77.816535009901216, 19.266116896369979 ], [ 77.816535009901216, 19.311118086493185 ], [ 77.771533724775892, 19.311118138272779 ], [ 77.771533724775892, 19.266116903753055 ] ] ] } },
{ "type": "Feature", "properties": { "REGION": 2.0, "STATE.NAME": "Maharashtra", "DISTRICT.NAME": "Nanded", "DISTRICT.AREA": 10535.728211, "GRID_G0": "180915", "woodland": 0.43856722668677445, "maskWdl": 1.0, "cropland": 0.34330497718857322, "maskCrp": 0.0, "one": 0.20480739927095587, "maskOne": 0.0, "GRID.AREA": 23.631275152304582, "REGION.AREA": 59928.662280600729 }, "geometry": { "type": "Polygon", "coordinates": [ [ [ 77.816535009901216, 19.266116896369979 ], [ 77.861531757373555, 19.266116906005351 ], [ 77.861531757373555, 19.311118118314543 ], [ 77.816535009901216, 19.311118086493185 ], [ 77.816535009901216, 19.266116896369979 ] ] ] } },
{ "type": "Feature", "properties": { "REGION": 2.0, "STATE.NAME": "Maharashtra", "DISTRICT.NAME": "Nanded", "DISTRICT.AREA": 10535.728211, "GRID_G0": "180260", "woodland": 0.41592959176001354, "maskWdl": 1.0, "cropland": 0.29450682312517207, "maskCrp": 0.0, "one": 0.25679671817733996, "maskOne": 0.0, "GRID.AREA": 23.6401670003705, "REGION.AREA": 59928.662280600729 }, "geometry": { "type": "Polygon", "coordinates": [ [ [ 77.591533190519684, 19.221115652535183 ], [ 77.636534486368078, 19.221115646231979 ], [ 77.636534486368078, 19.266116853297707 ], [ 77.591533190519684, 19.26611690169802 ], [ 77.591533190519684, 19.221115652535183 ] ] ] } },
{ "type": "Feature", "properties": { "REGION": 2.0, "STATE.NAME": "Maharashtra", "DISTRICT.NAME": "Nanded", "DISTRICT.AREA": 10535.728211, "GRID_G0": "180271", "woodland": 0.44138545546589769, "maskWdl": 1.0, "cropland": 0.44085951276859769, "maskCrp": 0.0, "one": 0.11446385768003361, "maskOne": 0.0, "GRID.AREA": 11.64993272179413, "REGION.AREA": 59928.662280600729 }, "geometry": { "type": "Polygon", "coordinates": [ [ [ 78.131534777466058, 19.240168661890273 ], [ 78.131534777466058, 19.266116855922299 ], [ 78.086533529357553, 19.266116853072912 ], [ 78.086533529357553, 19.240998679450406 ], [ 78.087246200152094, 19.24063160696312 ], [ 78.089173116346274, 19.239366211381594 ], [ 78.090180853463664, 19.24014517715824 ], [ 78.091183093025393, 19.240978248847167 ], [ 78.092954302399221, 19.242298558831465 ], [ 78.095332680958506, 19.243738506526881 ], [ 78.097612304064626, 19.243926472029102 ], [ 78.099877209765452, 19.244163986578773 ], [ 78.102811225457742, 19.24410643446441 ], [ 78.104876119237588, 19.243980407969502 ], [ 78.10721684767941, 19.244620550797837 ], [ 78.110925667985271, 19.244580442833236 ], [ 78.113195436320382, 19.244420454340567 ], [ 78.114097734223094, 19.24527037572733 ], [ 78.114690677932515, 19.246934135002391 ], [ 78.115242689898253, 19.248827784374782 ], [ 78.117061239584586, 19.24863564062235 ], [ 78.117078103671588, 19.248626218425272 ], [ 78.118401542397294, 19.247887411874618 ], [ 78.118574241008446, 19.247762873757669 ], [ 78.120511257488616, 19.24643869219193 ], [ 78.122905197916623, 19.245065264650293 ], [ 78.124264192238741, 19.244344224206657 ], [ 78.125336949440737, 19.243701374418947 ], [ 78.126402289933765, 19.243080971709503 ], [ 78.12746778690888, 19.242460464678743 ], [ 78.128115184568173, 19.241997998209115 ], [ 78.130091611138994, 19.240940516891385 ], [ 78.131211530587734, 19.240329720740078 ], [ 78.131534777466058, 19.240168661890273 ] ] ] } },
{ "type": "Feature", "properties": { "REGION": 2.0, "STATE.NAME": "Maharashtra", "DISTRICT.NAME": "Nanded", "DISTRICT.AREA": 10535.728211, "GRID_G0": "180272", "woodland": 0.41898464891172477, "maskWdl": 1.0, "cropland": 0.43232983498053801, "maskCrp": 0.0, "one": 0.13163615428079123, "maskOne": 0.0, "GRID.AREA": 16.806838979938753, "REGION.AREA": 59928.662280600729 }, "geometry": { "type": "Polygon", "coordinates": [ [ [ 78.176531634831946, 19.240028516397032 ], [ 78.176531634831946, 19.26611686169181 ], [ 78.131534777466058, 19.266116855922299 ], [ 78.131534777466058, 19.240168661890273 ], [ 78.133091277340611, 19.239393118197881 ], [ 78.134304974495024, 19.238891659822286 ], [ 78.134841148500243, 19.237804777868234 ], [ 78.135900579548149, 19.235910846108709 ], [ 78.137112231644224, 19.234393406530558 ], [ 78.138808067038724, 19.232935395951813 ], [ 78.139867550247288, 19.232206424387019 ], [ 78.140646287596155, 19.231496971707944 ], [ 78.142888704849895, 19.230049450821529 ], [ 78.144569928059809, 19.229399589919179 ], [ 78.146169870543133, 19.229186822014299 ], [ 78.148555425692393, 19.229258060011485 ], [ 78.151015040911489, 19.229497132186964 ], [ 78.153148576345757, 19.231543377624803 ], [ 78.154162093405944, 19.233040093225785 ], [ 78.15541995806467, 19.234381343024605 ], [ 78.15665657264276, 19.235126331515062 ], [ 78.158421979590742, 19.235777786915378 ], [ 78.15957187164463, 19.235821823118673 ], [ 78.162404263945703, 19.23550947778023 ], [ 78.16496867806211, 19.23455286891982 ], [ 78.167299001347885, 19.235269063816304 ], [ 78.168755144934039, 19.235944119225792 ], [ 78.17008695365007, 19.236288133290774 ], [ 78.172707211168927, 19.237016456444334 ], [ 78.175343696954087, 19.237577799775693 ], [ 78.175898844855851, 19.238464290294814 ], [ 78.176531634831946, 19.240028516397032 ] ] ] } },
{ "type": "Feature", "properties": { "REGION": 2.0, "STATE.NAME": "Maharashtra", "DISTRICT.NAME": "Washim", "DISTRICT.AREA": 5139.74697, "GRID_G0": "197150", "woodland": 0.45744945602319259, "maskWdl": 1.0, "cropland": 0.25649638139855274, "maskCrp": 0.0, "one": 0.28087333639107237, "maskOne": 0.0, "GRID.AREA": 3.4901489810767368, "REGION.AREA": 59928.662280600729 }, "geometry": { "type": "MultiPolygon", "coordinates": [ [ [ [ 77.150390601460572, 20.391117768802495 ], [ 77.186530881566128, 20.39111686395076 ], [ 77.186530881566128, 20.402337821551068 ], [ 77.186418084626951, 20.402079809735486 ], [ 77.186092104666955, 20.401610152286764 ], [ 77.185550544622004, 20.40098027701822 ], [ 77.18497550641456, 20.400345867367946 ], [ 77.184869067153784, 20.400217792217404 ], [ 77.184560891971671, 20.399846955872363 ], [ 77.184266537570693, 20.399471059042185 ], [ 77.183947464404014, 20.399063552840747 ], [ 77.18384210163174, 20.398936969665442 ], [ 77.183398868063364, 20.39840429312369 ], [ 77.183111271168286, 20.398176318582273 ], [ 77.182771062134861, 20.398047684952758 ], [ 77.182557778918408, 20.398020702593385 ], [ 77.182272793654533, 20.397984642477297 ], [ 77.181827351351217, 20.397955435195232 ], [ 77.181281181381451, 20.397932998908797 ], [ 77.180224969906476, 20.397917494596754 ], [ 77.180224861088504, 20.397917494596754 ], [ 77.179202314835038, 20.397924575858557 ], [ 77.179202201520468, 20.39792457675787 ], [ 77.178591494401985, 20.397931582476584 ], [ 77.178078900620861, 20.397945291741848 ], [ 77.177518498879692, 20.398010909875666 ], [ 77.177426072855042, 20.398026589555514 ], [ 77.177025062456721, 20.39809448926934 ], [ 77.176495846506157, 20.398336372725453 ], [ 77.176214858728827, 20.398456555425749 ], [ 77.175830102677139, 20.398621083696128 ], [ 77.175552278714747, 20.398842504877738 ], [ 77.175376777816098, 20.398957377980651 ], [ 77.175317588036307, 20.398996107284578 ], [ 77.175068626016369, 20.399296520418144 ], [ 77.175025153687955, 20.399406689167449 ], [ 77.174970540558036, 20.399544987811002 ], [ 77.174898655948255, 20.399769188797055 ], [ 77.174805420533801, 20.400059809212848 ], [ 77.174570923209615, 20.400936203043386 ], [ 77.17431613088479, 20.400939290415977 ], [ 77.173996065765891, 20.400943131420433 ], [ 77.173064332153274, 20.400884698869792 ], [ 77.17165117166428, 20.400756228017546 ], [ 77.170214055034648, 20.400607608754171 ], [ 77.170127673353477, 20.400253113990065 ], [ 77.169916776038463, 20.399853461568057 ], [ 77.169916749958091, 20.399853429192433 ], [ 77.169916727475027, 20.399853387823612 ], [ 77.169629294256595, 20.399568921468585 ], [ 77.168953734327431, 20.399413293788545 ], [ 77.166991082672382, 20.399224626815112 ], [ 77.166259086687546, 20.399154250368383 ], [ 77.165542942153138, 20.39904823558766 ], [ 77.164400346298976, 20.398912969458024 ], [ 77.163968699595841, 20.398884671390537 ], [ 77.16364593021558, 20.39886348156449 ], [ 77.163320718276566, 20.398851291254118 ], [ 77.163047159798623, 20.398841011103855 ], [ 77.162706776296773, 20.39888952593094 ], [ 77.161935813586979, 20.398999362830356 ], [ 77.161522654247165, 20.399070061234397 ], [ 77.161143057606068, 20.39913497519899 ], [ 77.160446019168489, 20.399263806679357 ], [ 77.159782562315456, 20.399313646207876 ], [ 77.159068856742422, 20.399363422783775 ], [ 77.158501241539113, 20.399383887756244 ], [ 77.158337555933542, 20.399384731320371 ], [ 77.15804129047325, 20.399386262865789 ], [ 77.157138736263732, 20.399369084016087 ], [ 77.156862809870859, 20.399363830176696 ], [ 77.155492807846898, 20.39933921123566 ], [ 77.153773188981518, 20.399411745155987 ], [ 77.152781075786095, 20.39948085445792 ], [ 77.151823482168027, 20.399547554476101 ], [ 77.151423465520566, 20.39952052085539 ], [ 77.151252915389819, 20.399436620403776 ], [ 77.151203107337608, 20.399412121072601 ], [ 77.151109672273606, 20.399316258738395 ], [ 77.151109629106159, 20.399316212872975 ], [ 77.150961073694646, 20.399163798470568 ], [ 77.150834138884477, 20.398928971994508 ], [ 77.15086283894891, 20.398414071452294 ], [ 77.151059110589529, 20.397567148405244 ], [ 77.151136596177025, 20.397184577706128 ], [ 77.151307946704435, 20.396338563873655 ], [ 77.151482633716626, 20.395697413804672 ], [ 77.151655028356913, 20.395012995553373 ], [ 77.151696496096463, 20.394750469958293 ], [ 77.151745991184612, 20.394437105687928 ], [ 77.151765661156404, 20.394185900758774 ], [ 77.151798511592133, 20.39376631216561 ], [ 77.15179483786153, 20.393528332666449 ], [ 77.151793644461179, 20.393455081986474 ], [ 77.15179127204965, 20.393303413122055 ], [ 77.151745684515788, 20.393045965099247 ], [ 77.151673718067684, 20.392891359049031 ], [ 77.151660183270906, 20.392862246195765 ], [ 77.151625870537544, 20.392788571935114 ], [ 77.151556611048818, 20.392677250254962 ], [ 77.151187540972273, 20.392084044842814 ], [ 77.150665242606919, 20.39139308941958 ], [ 77.150390601460572, 20.391117768802495 ] ] ], [ [ [ 77.186530881566128, 20.432120327038646 ], [ 77.186530881566128, 20.436118138281056 ], [ 77.183045306896517, 20.436118549650647 ], [ 77.183005195233648, 20.43500865552511 ], [ 77.183050444622381, 20.434581766235567 ], [ 77.183195908164691, 20.433663773364515 ], [ 77.183275170812522, 20.433163551556731 ], [ 77.183344414113492, 20.432420567655129 ], [ 77.184629217964073, 20.432275449452504 ], [ 77.185229729468517, 20.432207626181022 ], [ 77.185569932206647, 20.432157843309881 ], [ 77.185897360974479, 20.432143972166614 ], [ 77.186106506410226, 20.432135112045842 ], [ 77.186530881566128, 20.432120327038646 ] ] ] ] } },
{ "type": "Feature", "properties": { "REGION": 2.0, "STATE.NAME": "Maharashtra", "DISTRICT.NAME": "Washim", "DISTRICT.AREA": 5139.74697, "GRID_G0": "196494", "woodland": 0.61820055708752186, "maskWdl": 1.0, "cropland": 0.16208345472378571, "maskCrp": 0.0, "one": 0.21816564446274211, "maskOne": 0.0, "GRID.AREA": 0.28159200516849914, "REGION.AREA": 59928.662280600729 }, "geometry": { "type": "Polygon", "coordinates": [ [ [ 76.908297811440761, 20.346116426779634 ], [ 76.916532331261266, 20.346115564928851 ], [ 76.916532331261266, 20.351052356678448 ], [ 76.915854596412544, 20.350930329671034 ], [ 76.915468908663286, 20.350860837257869 ], [ 76.915427314119313, 20.35084635907225 ], [ 76.914872498966702, 20.350653181998776 ], [ 76.914677226472861, 20.350618063472893 ], [ 76.914496715451094, 20.350585548484332 ], [ 76.913016652596525, 20.349603498702546 ], [ 76.912137738865624, 20.348973674695401 ], [ 76.910061525319179, 20.34766199370608 ], [ 76.90983616870426, 20.347499427756418 ], [ 76.90965444539637, 20.347368389339746 ], [ 76.908754392201502, 20.346554643182291 ], [ 76.908483377905611, 20.346309558139637 ], [ 76.908297811440761, 20.346116426779634 ] ] ] } },
{ "type": "Feature", "properties": { "REGION": 2.0, "STATE.NAME": "Maharashtra", "DISTRICT.NAME": "Washim", "DISTRICT.AREA": 5139.74697, "GRID_G0": "196500", "woodland": 0.39843789453763317, "maskWdl": 1.0, "cropland": 0.22265280114320779, "maskCrp": 0.0, "one": 0.37371728622240863, "maskOne": 1.0, "GRID.AREA": 22.940666761606479, "REGION.AREA": 59928.662280600729 }, "geometry": { "type": "Polygon", "coordinates": [ [ [ 77.141534092209227, 20.379375425825828 ], [ 77.141534092209227, 20.346115600505151 ], [ 77.186530881566128, 20.346115593463452 ], [ 77.186530881566128, 20.39111686395076 ], [ 77.150390601460572, 20.391117768802495 ], [ 77.150174186689412, 20.390900817618672 ], [ 77.149431632663777, 20.3903206092088 ], [ 77.148036386669958, 20.389291290160941 ], [ 77.147723767937578, 20.389060651827663 ], [ 77.147481015736332, 20.388847158169881 ], [ 77.147043459588019, 20.388462306790078 ], [ 77.146712708724579, 20.388245680793602 ], [ 77.14653332815061, 20.388128113321841 ], [ 77.145908250765217, 20.38771493149892 ], [ 77.14585343888514, 20.387669556205083 ], [ 77.145512970846994, 20.387387527012834 ], [ 77.145375192011556, 20.387191394767115 ], [ 77.145287739237858, 20.387066866542682 ], [ 77.145112922723285, 20.386646747349573 ], [ 77.144765459758219, 20.385596872497729 ], [ 77.144144977009148, 20.383532758430135 ], [ 77.1441389992155, 20.383506798599914 ], [ 77.144077899275715, 20.383241425751237 ], [ 77.143986765576813, 20.38279890354659 ], [ 77.143967083913822, 20.382698014002191 ], [ 77.143967078517903, 20.382697975331325 ], [ 77.143926862634657, 20.382491706826841 ], [ 77.143934905271692, 20.382435018061702 ], [ 77.143950879929207, 20.382322403156426 ], [ 77.144021849928492, 20.382196757974043 ], [ 77.14408724952699, 20.382080757121287 ], [ 77.144221367222372, 20.381730645652851 ], [ 77.144245337752182, 20.381518393059427 ], [ 77.144168603997912, 20.381218045576418 ], [ 77.143948241318355, 20.380757423616274 ], [ 77.143948222432584, 20.38075739124065 ], [ 77.143555463314044, 20.380265171600456 ], [ 77.143440317716568, 20.380172850796498 ], [ 77.143306013861491, 20.380065169571992 ], [ 77.143155582464203, 20.379944480553377 ], [ 77.142546302569883, 20.379674130856529 ], [ 77.142458489168007, 20.379635205500392 ], [ 77.141869322611228, 20.37943650838821 ], [ 77.141534092209227, 20.379375425825828 ] ] ] } },
{ "type": "Feature", "properties": { "REGION": 2.0, "STATE.NAME": "Maharashtra", "DISTRICT.NAME": "Washim", "DISTRICT.AREA": 5139.74697, "GRID_G0": "195844", "woodland": 0.5341010060763024, "maskWdl": 1.0, "cropland": 0.30126187867317461, "maskCrp": 0.0, "one": 0.16324255403924692, "maskOne": 0.0, "GRID.AREA": 9.2780975398393668, "REGION.AREA": 59928.662280600729 }, "geometry": { "type": "Polygon", "coordinates": [ [ [ 76.893259313451836, 20.301120264282559 ], [ 76.916532331261266, 20.301118840764893 ], [ 76.916532331261266, 20.346115564928851 ], [ 76.908297811440761, 20.346116426779634 ], [ 76.905856132654435, 20.343575146076201 ], [ 76.903918784324503, 20.341565690104574 ], [ 76.903435350161317, 20.34100618768548 ], [ 76.90324347260821, 20.340784348319062 ], [ 76.903064745841391, 20.340617585233417 ], [ 76.903064707170543, 20.34061755465649 ], [ 76.902541815252619, 20.34012963917155 ], [ 76.900832039467105, 20.338286999345595 ], [ 76.899658658920032, 20.337103908818392 ], [ 76.89951919835238, 20.336959298732719 ], [ 76.898377626826061, 20.335776123669234 ], [ 76.897498758061317, 20.334963309209396 ], [ 76.897456478233948, 20.334878296296385 ], [ 76.897352737838617, 20.334669765097658 ], [ 76.896421058185354, 20.331268315980029 ], [ 76.896415446415801, 20.331247918456711 ], [ 76.896392031667006, 20.331162784135245 ], [ 76.896388817489992, 20.331150490402873 ], [ 76.895970521222637, 20.329595544598764 ], [ 76.895545488133848, 20.327970941805575 ], [ 76.895158573709239, 20.326492709071317 ], [ 76.894622134404017, 20.324771990335137 ], [ 76.894135836799478, 20.322741760923581 ], [ 76.894111894148637, 20.322739661905924 ], [ 76.893725281896309, 20.322705724189859 ], [ 76.892718639253872, 20.322617730923582 ], [ 76.892088988815829, 20.322633588669248 ], [ 76.891909401397811, 20.322480044718365 ], [ 76.891780027626226, 20.321621837877558 ], [ 76.891780084283539, 20.321481874588869 ], [ 76.891625551078391, 20.321336760882843 ], [ 76.891193531156603, 20.32093086087059 ], [ 76.891128855512306, 20.320361839127596 ], [ 76.891732020016775, 20.319623265501377 ], [ 76.892397440089837, 20.318602472925818 ], [ 76.892411799564968, 20.318446990935911 ], [ 76.892428411841763, 20.31826599068296 ], [ 76.892392896714853, 20.318150576188202 ], [ 76.892234528800543, 20.317636070448316 ], [ 76.892069308052157, 20.316981089705564 ], [ 76.89236365795648, 20.316791435276571 ], [ 76.893941207320893, 20.316420935278018 ], [ 76.895521075137538, 20.315838132324018 ], [ 76.89657444475489, 20.315275631565214 ], [ 76.898266636096423, 20.314552778987601 ], [ 76.8993727653409, 20.314213900051474 ], [ 76.900509642406121, 20.313597197153001 ], [ 76.901062512325154, 20.313226859931721 ], [ 76.901517323765518, 20.312935502071809 ], [ 76.901907464957617, 20.312612453002377 ], [ 76.903097123233692, 20.31249037543051 ], [ 76.9040331196328, 20.312352451804259 ], [ 76.905708957702302, 20.31262998078904 ], [ 76.906798114041806, 20.312767506914952 ], [ 76.908531197556783, 20.312399068162502 ], [ 76.909687327308347, 20.31221370619761 ], [ 76.909381253841843, 20.311940712493936 ], [ 76.90937848392997, 20.311938241156952 ], [ 76.90892125780988, 20.311647008302831 ], [ 76.907873694215652, 20.310964022671559 ], [ 76.907082535430732, 20.310448200324231 ], [ 76.905145721298084, 20.309143235471993 ], [ 76.903316970601793, 20.307901483067042 ], [ 76.903316937326849, 20.307901460583992 ], [ 76.902349399005629, 20.307244468057831 ], [ 76.902189134421079, 20.30714095339232 ], [ 76.901209816779669, 20.306508400842066 ], [ 76.899781267091839, 20.305525147767412 ], [ 76.896575221769126, 20.303318366149711 ], [ 76.896469756474119, 20.303245770176204 ], [ 76.895102836426815, 20.302401292385809 ], [ 76.893259313451836, 20.301120264282559 ] ] ] } },
{ "type": "Feature", "properties": { "REGION": 2.0, "STATE.NAME": "Maharashtra", "DISTRICT.NAME": "Washim", "DISTRICT.AREA": 5139.74697, "GRID_G0": "195192", "woodland": 0.46065510787742747, "maskWdl": 1.0, "cropland": 0.26283306179318522, "maskCrp": 0.0, "one": 0.27229525288305489, "maskOne": 0.0, "GRID.AREA": 0.93483232132787875, "REGION.AREA": 59928.662280600729 }, "geometry": { "type": "Polygon", "coordinates": [ [ [ 76.823484122376087, 20.256117926104825 ], [ 76.826534291071354, 20.256117560181536 ], [ 76.826534291071354, 20.281928971032126 ], [ 76.826391399943191, 20.281923328299001 ], [ 76.824661045870641, 20.281685676153078 ], [ 76.824302114750878, 20.281640517595861 ], [ 76.824211167211672, 20.281629106997741 ], [ 76.824211124044211, 20.281629100702503 ], [ 76.823856713816326, 20.281573075636967 ], [ 76.82289757516304, 20.28142145893321 ], [ 76.821978262986477, 20.28127608622248 ], [ 76.821389457057876, 20.281140418095845 ], [ 76.821331709790627, 20.281125293297691 ], [ 76.8194151474911, 20.2806231946048 ], [ 76.819403497673363, 20.280620258318322 ], [ 76.819385337663277, 20.280615625011137 ], [ 76.819384456327668, 20.280615400180633 ], [ 76.819385769337828, 20.280613494517183 ], [ 76.819386432138174, 20.280613663589747 ], [ 76.820873467436627, 20.278452885892023 ], [ 76.823435685408583, 20.274391058300751 ], [ 76.825149999173163, 20.271844184561527 ], [ 76.825360719321793, 20.271491966880831 ], [ 76.825585841213638, 20.270191869159479 ], [ 76.826451636533875, 20.265191568436197 ], [ 76.82645170128508, 20.265078646862094 ], [ 76.824724352746728, 20.26384747048445 ], [ 76.823846167466684, 20.263329915143515 ], [ 76.820814844229744, 20.26124010384774 ], [ 76.822953203627492, 20.257286571717945 ], [ 76.823408183241099, 20.256286215336615 ], [ 76.823484122376087, 20.256117926104825 ] ] ] } },
{ "type": "Feature", "properties": { "REGION": 2.0, "STATE.NAME": "Maharashtra", "DISTRICT.NAME": "Washim", "DISTRICT.AREA": 5139.74697, "GRID_G0": "195193", "woodland": 0.507360637350601, "maskWdl": 1.0, "cropland": 0.18420645657076487, "maskCrp": 0.0, "one": 0.30565478064766594, "maskOne": 0.0, "GRID.AREA": 18.980854570869024, "REGION.AREA": 59928.662280600729 }, "geometry": { "type": "Polygon", "coordinates": [ [ [ 76.826534291071354, 20.281928971032126 ], [ 76.826534291071354, 20.256117560181536 ], [ 76.871531086720481, 20.256117530741633 ], [ 76.871531086720481, 20.275106993533971 ], [ 76.871121174802454, 20.275503549349366 ], [ 76.870716993394581, 20.275898670986919 ], [ 76.870192709326147, 20.276411278257914 ], [ 76.869898229919443, 20.276649018537402 ], [ 76.86918020849987, 20.277228686454748 ], [ 76.867303885466015, 20.278520386306809 ], [ 76.867303858486309, 20.27852042947427 ], [ 76.867303278423606, 20.278521389950242 ], [ 76.867150713834405, 20.278775570736062 ], [ 76.866829162136185, 20.279553218106575 ], [ 76.866777217294796, 20.279678842604543 ], [ 76.86660963762472, 20.280363165527717 ], [ 76.8664297849067, 20.281075928611248 ], [ 76.866145234015391, 20.282203598417372 ], [ 76.86583162692807, 20.283876987632937 ], [ 76.865649689581574, 20.285107793489942 ], [ 76.865594684347286, 20.285533400346196 ], [ 76.865537032408156, 20.285979487463404 ], [ 76.865496798538459, 20.286325875738612 ], [ 76.865467485136378, 20.286578657179348 ], [ 76.865458146576259, 20.286659146502473 ], [ 76.865458139381701, 20.286659239132632 ], [ 76.865441353535687, 20.287350320460973 ], [ 76.86545085936973, 20.287641565905577 ], [ 76.865492584315348, 20.287913811373357 ], [ 76.865527290951775, 20.288140665359496 ], [ 76.865655632301653, 20.2886435851334 ], [ 76.86571139026853, 20.288862248993667 ], [ 76.8658360641831, 20.289351160927371 ], [ 76.865916716283493, 20.289711310628547 ], [ 76.865996373733708, 20.290067020376739 ], [ 76.866075329712771, 20.290545833823217 ], [ 76.866063484742085, 20.290630486108114 ], [ 76.86604908479751, 20.290733171598617 ], [ 76.866024391212761, 20.290796563011043 ], [ 76.866024376823589, 20.290796602581167 ], [ 76.865996280204229, 20.290868712021506 ], [ 76.865692314748571, 20.291318074469586 ], [ 76.865321547651376, 20.291801912428351 ], [ 76.865036463462104, 20.292173950267625 ], [ 76.864646175680548, 20.292735524724719 ], [ 76.864093239211684, 20.293531121663992 ], [ 76.862759931325854, 20.295177299193028 ], [ 76.862443398743892, 20.295603465427636 ], [ 76.861969992920876, 20.296240839243413 ], [ 76.861853156597931, 20.296408875769032 ], [ 76.861853127819643, 20.296408915339214 ], [ 76.86143615625366, 20.297008597668707 ], [ 76.861121699307034, 20.297350280690978 ], [ 76.861089031433721, 20.297385778730757 ], [ 76.860863992279462, 20.297496452899054 ], [ 76.86054092162631, 20.297597984559388 ], [ 76.860172736482639, 20.297769103961006 ], [ 76.860172695113818, 20.297769122846773 ], [ 76.859715058003587, 20.297981826000523 ], [ 76.858946661958953, 20.298288891419247 ], [ 76.858264508200534, 20.298555284099105 ], [ 76.857803312472925, 20.298758253890355 ], [ 76.857048486298652, 20.299090446367074 ], [ 76.856337543442919, 20.299300313059067 ], [ 76.856055013328273, 20.299377031524841 ], [ 76.855392062793499, 20.299473696953616 ], [ 76.855358521678511, 20.299478592862844 ], [ 76.855292069873201, 20.299489976481258 ], [ 76.853283113924647, 20.299835146175099 ], [ 76.852359216105015, 20.300076642922761 ], [ 76.851128841922574, 20.300297769126814 ], [ 76.851058258631781, 20.300233300326628 ], [ 76.850915711590858, 20.300103572222159 ], [ 76.850451503134423, 20.29945989955479 ], [ 76.849527785179191, 20.298102484442158 ], [ 76.848879099690748, 20.298091087333887 ], [ 76.847524366356481, 20.297980171247957 ], [ 76.846640795936025, 20.297867077004071 ], [ 76.845157193349849, 20.297677167167596 ], [ 76.843443279783585, 20.297505191611378 ], [ 76.84329258668356, 20.297484901107339 ], [ 76.842725324913886, 20.297369537873919 ], [ 76.83907284083898, 20.29671839094107 ], [ 76.839024750491888, 20.297687176621931 ], [ 76.838890034747351, 20.299839293848379 ], [ 76.838887656040527, 20.299836588687644 ], [ 76.837353906357748, 20.298093366215937 ], [ 76.836453119316047, 20.297051668899432 ], [ 76.835908544743575, 20.296421854784796 ], [ 76.835323318116707, 20.29575518555345 ], [ 76.83506388529014, 20.29545965124197 ], [ 76.835250672680445, 20.295184149329089 ], [ 76.83542336049976, 20.294931853522257 ], [ 76.835826388077408, 20.2943430925597 ], [ 76.836297011398017, 20.293655577043296 ], [ 76.836554230093725, 20.293284993407781 ], [ 76.837589990985364, 20.291792815785868 ], [ 76.837489963890803, 20.291693541423857 ], [ 76.837489918924689, 20.291693495558437 ], [ 76.837403369070273, 20.291607516773521 ], [ 76.836895300677668, 20.291123436897124 ], [ 76.836895271, 20.291123409917475 ], [ 76.836853071212317, 20.291083200329467 ], [ 76.836647139054264, 20.290886981748887 ], [ 76.835086924122322, 20.289524831705648 ], [ 76.834579679508636, 20.288989525546246 ], [ 76.834504914370385, 20.288907751991186 ], [ 76.834381907798843, 20.288773192728684 ], [ 76.834141766329537, 20.288510623066827 ], [ 76.833885732940303, 20.288232707373595 ], [ 76.833455856102944, 20.287596830929033 ], [ 76.833155969972097, 20.287153171981345 ], [ 76.833017275626844, 20.286956603564477 ], [ 76.83301724415054, 20.286956558598376 ], [ 76.832990200637312, 20.286917532518146 ], [ 76.832792899272931, 20.286632793668563 ], [ 76.832048361342856, 20.285558546289906 ], [ 76.830878357750066, 20.284049585519995 ], [ 76.830251808174467, 20.283366361568369 ], [ 76.830251767704965, 20.283366318400908 ], [ 76.829722647981896, 20.282789263913454 ], [ 76.829414315418376, 20.28249421433657 ], [ 76.829414286640088, 20.282494185558281 ], [ 76.829012194357347, 20.282109255038165 ], [ 76.828742519152001, 20.281897169718665 ], [ 76.828680094510801, 20.281848109003082 ], [ 76.82865316341281, 20.281826917378396 ], [ 76.828423349757827, 20.281811013767307 ], [ 76.827983265615273, 20.281874106604789 ], [ 76.827696940361591, 20.281915164253462 ], [ 76.827370221158858, 20.281961979361881 ], [ 76.826534291071354, 20.281928971032126 ] ] ] } }
]
}
