{
"type": "FeatureCollection",
"name": "Region 2 Selected ONE",
"crs": { "type": "name", "properties": { "name": "urn:ogc:def:crs:OGC:1.3:CRS84" } },
"features": [
{ "type": "Feature", "properties": { "REGION": 2.0, "STATE.NAME": "Maharashtra", "DISTRICT.NAME": "Bid", "DISTRICT.AREA": 10603.290349, "GRID_G0": "176323", "woodland": 0.03025848650097621, "maskWdl": 0.0, "cropland": 0.58478187373071588, "maskCrp": 1.0, "one": 0.37319748549772436, "maskOne": 1.0, "GRID.AREA": 23.676414788211552, "REGION.AREA": 59928.662280600729 }, "geometry": { "type": "Polygon", "coordinates": [ [ [ 75.926531654410823, 18.951117040169319 ], [ 75.971532874280271, 18.951117078504851 ], [ 75.971532874280271, 18.996113819621186 ], [ 75.926531654410823, 18.996113864755429 ], [ 75.926531654410823, 18.951117040169319 ] ] ] } },
{ "type": "Feature", "properties": { "REGION": 2.0, "STATE.NAME": "Maharashtra", "DISTRICT.NAME": "Bid", "DISTRICT.AREA": 10603.290349, "GRID_G0": "176325", "woodland": 0.013777686094811524, "maskWdl": 0.0, "cropland": 0.51651775978410996, "maskCrp": 0.0, "one": 0.42320635809326068, "maskOne": 1.0, "GRID.AREA": 23.676456159503338, "REGION.AREA": 59928.662280600729 }, "geometry": { "type": "Polygon", "coordinates": [ [ [ 76.016529660900304, 18.951117064138916 ], [ 76.061530950579169, 18.951117070650714 ], [ 76.061530950579169, 18.996113842302229 ], [ 76.016529660900304, 18.996113875842909 ], [ 76.016529660900304, 18.951117064138916 ] ] ] } },
{ "type": "Feature", "properties": { "REGION": 2.0, "STATE.NAME": "Maharashtra", "DISTRICT.NAME": "Bid", "DISTRICT.AREA": 10603.290349, "GRID_G0": "175657", "woodland": 0.064970313126221535, "maskWdl": 0.0, "cropland": 0.376250727349072, "maskCrp": 0.0, "one": 0.55457323371835066, "maskOne": 1.0, "GRID.AREA": 23.685181795680929, "REGION.AREA": 59928.662280600729 }, "geometry": { "type": "Polygon", "coordinates": [ [ [ 75.206529531966567, 18.906115802286351 ], [ 75.251530793480697, 18.906115767708705 ], [ 75.251530793480697, 18.951117042617945 ], [ 75.206529531966567, 18.951117057895079 ], [ 75.206529531966567, 18.906115802286351 ] ] ] } },
{ "type": "Feature", "properties": { "REGION": 2.0, "STATE.NAME": "Maharashtra", "DISTRICT.NAME": "Bid", "DISTRICT.AREA": 10603.290349, "GRID_G0": "175663", "woodland": 0.0204932764819231, "maskWdl": 0.0, "cropland": 0.36091083505157251, "maskCrp": 0.0, "one": 0.61344221729189008, "maskOne": 1.0, "GRID.AREA": 23.682792272970222, "REGION.AREA": 59928.662280600729 }, "geometry": { "type": "Polygon", "coordinates": [ [ [ 75.47653254909001, 18.906115829238143 ], [ 75.521529301354491, 18.906115783535963 ], [ 75.521529301354491, 18.951117047354337 ], [ 75.47653254909001, 18.951117034366217 ], [ 75.47653254909001, 18.906115829238143 ] ] ] } },
{ "type": "Feature", "properties": { "REGION": 2.0, "STATE.NAME": "Maharashtra", "DISTRICT.NAME": "Bid", "DISTRICT.AREA": 10603.290349, "GRID_G0": "175668", "woodland": 0.033730144259194274, "maskWdl": 0.0, "cropland": 0.43067127463927235, "maskCrp": 0.0, "one": 0.46905084014196963, "maskOne": 1.0, "GRID.AREA": 23.685192908532791, "REGION.AREA": 59928.662280600729 }, "geometry": { "type": "Polygon", "coordinates": [ [ [ 75.701529839824033, 18.906115788945943 ], [ 75.746531141771456, 18.906115841850085 ], [ 75.746531141771456, 18.951117060622447 ], [ 75.701529839824033, 18.951117062064437 ], [ 75.701529839824033, 18.906115788945943 ] ] ] } },
{ "type": "Feature", "properties": { "REGION": 2.0, "STATE.NAME": "Maharashtra", "DISTRICT.NAME": "Bid", "DISTRICT.AREA": 10603.290349, "GRID_G0": "175670", "woodland": 0.042049247478221967, "maskWdl": 0.0, "cropland": 0.43698581450419111, "maskCrp": 0.0, "one": 0.50039808616515269, "maskOne": 1.0, "GRID.AREA": 23.682810526905218, "REGION.AREA": 59928.662280600729 }, "geometry": { "type": "Polygon", "coordinates": [ [ [ 75.791532389518707, 18.906115796413271 ], [ 75.836529142263856, 18.906115761930028 ], [ 75.836529142263856, 18.951117068994591 ], [ 75.791532389518707, 18.951117026699286 ], [ 75.791532389518707, 18.906115796413271 ] ] ] } },
{ "type": "Feature", "properties": { "REGION": 2.0, "STATE.NAME": "Maharashtra", "DISTRICT.NAME": "Bid", "DISTRICT.AREA": 10603.290349, "GRID_G0": "175015", "woodland": 0.040038155483595649, "maskWdl": 0.0, "cropland": 0.2997365056255033, "maskCrp": 0.0, "one": 0.64975808164301274, "maskOne": 1.0, "GRID.AREA": 23.691531153817483, "REGION.AREA": 59928.662280600729 }, "geometry": { "type": "Polygon", "coordinates": [ [ [ 75.566530568072068, 18.86111454279434 ], [ 75.611531809473433, 18.861114559168609 ], [ 75.611531809473433, 18.906115809857024 ], [ 75.566530568072068, 18.90611577590667 ], [ 75.566530568072068, 18.86111454279434 ] ] ] } },
{ "type": "Feature", "properties": { "REGION": 2.0, "STATE.NAME": "Maharashtra", "DISTRICT.NAME": "Bid", "DISTRICT.AREA": 10603.290349, "GRID_G0": "175024", "woodland": 0.010024952199988032, "maskWdl": 0.0, "cropland": 0.26141153309826565, "maskCrp": 0.0, "one": 0.71329667981686684, "maskOne": 1.0, "GRID.AREA": 23.689156819141171, "REGION.AREA": 59928.662280600729 }, "geometry": { "type": "Polygon", "coordinates": [ [ [ 75.971532874280271, 18.86111457189336 ], [ 76.016529660900304, 18.861114581594844 ], [ 76.016529660900304, 18.906115763187241 ], [ 75.971532874280271, 18.906115763720411 ], [ 75.971532874280271, 18.86111457189336 ] ] ] } },
{ "type": "Feature", "properties": { "REGION": 2.0, "STATE.NAME": "Maharashtra", "DISTRICT.NAME": "Bid", "DISTRICT.AREA": 10603.290349, "GRID_G0": "175028", "woodland": 0.0040976394634289108, "maskWdl": 0.0, "cropland": 0.22988518093683832, "maskCrp": 0.0, "one": 0.76354461666351947, "maskOne": 1.0, "GRID.AREA": 23.689196253098864, "REGION.AREA": 59928.662280600729 }, "geometry": { "type": "Polygon", "coordinates": [ [ [ 76.151533451249307, 18.861114531005526 ], [ 76.196530222433793, 18.861114548791303 ], [ 76.196530222433793, 18.906115819836497 ], [ 76.151533451249307, 18.906115814080145 ], [ 76.151533451249307, 18.861114531005526 ] ] ] } },
{ "type": "Feature", "properties": { "REGION": 2.0, "STATE.NAME": "Maharashtra", "DISTRICT.NAME": "Bid", "DISTRICT.AREA": 10603.290349, "GRID_G0": "174376", "woodland": 0.019025796892061807, "maskWdl": 0.0, "cropland": 0.16550088705071903, "maskCrp": 0.0, "one": 0.80560446705611721, "maskOne": 1.0, "GRID.AREA": 23.695515649847668, "REGION.AREA": 59928.662280600729 }, "geometry": { "type": "Polygon", "coordinates": [ [ [ 76.061530950579169, 18.816117786377131 ], [ 76.106532128531541, 18.816117723105286 ], [ 76.106532128531541, 18.861114540964422 ], [ 76.061530950579169, 18.861114567471066 ], [ 76.061530950579169, 18.816117786377131 ] ] ] } },
{ "type": "Feature", "properties": { "REGION": 2.0, "STATE.NAME": "Maharashtra", "DISTRICT.NAME": "Bid", "DISTRICT.AREA": 10603.290349, "GRID_G0": "174377", "woodland": 0.013154995605775217, "maskWdl": 0.0, "cropland": 0.38898778155823677, "maskCrp": 0.0, "one": 0.54845570642740482, "maskOne": 1.0, "GRID.AREA": 23.695581940554266, "REGION.AREA": 59928.662280600729 }, "geometry": { "type": "Polygon", "coordinates": [ [ [ 76.106532128531541, 18.816117723105286 ], [ 76.151533451249307, 18.816117787652221 ], [ 76.151533451249307, 18.861114531005526 ], [ 76.106532128531541, 18.861114540964422 ], [ 76.106532128531541, 18.816117723105286 ] ] ] } },
{ "type": "Feature", "properties": { "REGION": 2.0, "STATE.NAME": "Maharashtra", "DISTRICT.NAME": "Bid", "DISTRICT.AREA": 10603.290349, "GRID_G0": "173735", "woodland": 0.023985857620830619, "maskWdl": 0.0, "cropland": 0.39124100971167819, "maskCrp": 0.0, "one": 0.55887596179086996, "maskOne": 1.0, "GRID.AREA": 23.701866334480414, "REGION.AREA": 59928.662280600729 }, "geometry": { "type": "Polygon", "coordinates": [ [ [ 76.466533246752277, 18.771116513524671 ], [ 76.51152999825247, 18.771116528147367 ], [ 76.51152999825247, 18.81611773338102 ], [ 76.466533246752277, 18.81611779292605 ], [ 76.466533246752277, 18.771116513524671 ] ] ] } },
{ "type": "Feature", "properties": { "REGION": 2.0, "STATE.NAME": "Maharashtra", "DISTRICT.NAME": "Hingoli", "DISTRICT.AREA": 4890.910828, "GRID_G0": "186092", "woodland": 0.023408614191953992, "maskWdl": 0.0, "cropland": 0.56399696902293828, "maskCrp": 1.0, "one": 0.39919730575601042, "maskOne": 1.0, "GRID.AREA": 0.04051689889007213, "REGION.AREA": 59928.662280600729 }, "geometry": { "type": "MultiPolygon", "coordinates": [ [ [ [ 76.79529546438431, 19.671115919461329 ], [ 76.79074741184786, 19.671115638143224 ], [ 76.791120161066658, 19.670953503501433 ], [ 76.791153482747063, 19.670938968658504 ], [ 76.791263675778055, 19.670891080658922 ], [ 76.791398928417891, 19.670837941517849 ], [ 76.792016404733374, 19.670596255013209 ], [ 76.792016497363534, 19.670596258610484 ], [ 76.793556941599604, 19.670702187955673 ], [ 76.79529546438431, 19.671115919461329 ] ] ], [ [ [ 76.821999119269464, 19.67111526277133 ], [ 76.818000263196808, 19.671115612256429 ], [ 76.818154182869307, 19.67101032446698 ], [ 76.818315432211477, 19.670900004631566 ], [ 76.81851444678432, 19.67076384817312 ], [ 76.819629309345203, 19.670287695820551 ], [ 76.821193842821629, 19.670551458882755 ], [ 76.821999119269464, 19.67111526277133 ] ] ] ] } },
{ "type": "Feature", "properties": { "REGION": 2.0, "STATE.NAME": "Maharashtra", "DISTRICT.NAME": "Hingoli", "DISTRICT.AREA": 4890.910828, "GRID_G0": "186096", "woodland": 0.042580446398478605, "maskWdl": 0.0, "cropland": 0.37015839839168685, "maskCrp": 0.0, "one": 0.58404457354721739, "maskOne": 1.0, "GRID.AREA": 23.576534956424954, "REGION.AREA": 59928.662280600729 }, "geometry": { "type": "Polygon", "coordinates": [ [ [ 76.961533611786464, 19.626117937175561 ], [ 77.006530345884684, 19.626117896071353 ], [ 77.006530345884684, 19.671114731651542 ], [ 76.961533611786464, 19.671114711391731 ], [ 76.961533611786464, 19.626117937175561 ] ] ] } },
{ "type": "Feature", "properties": { "REGION": 2.0, "STATE.NAME": "Maharashtra", "DISTRICT.NAME": "Hingoli", "DISTRICT.AREA": 4890.910828, "GRID_G0": "184148", "woodland": 0.11307329755454769, "maskWdl": 0.0, "cropland": 0.33282200575376308, "maskCrp": 0.0, "one": 0.54544696950043192, "maskOne": 1.0, "GRID.AREA": 23.6010465984217, "REGION.AREA": 59928.662280600729 }, "geometry": { "type": "Polygon", "coordinates": [ [ [ 77.051531573248397, 19.491114156945425 ], [ 77.096532885086603, 19.49111418448264 ], [ 77.096532885086603, 19.536115424887392 ], [ 77.051531573248397, 19.536115459056099 ], [ 77.051531573248397, 19.491114156945425 ] ] ] } },
{ "type": "Feature", "properties": { "REGION": 2.0, "STATE.NAME": "Maharashtra", "DISTRICT.NAME": "Nanded", "DISTRICT.AREA": 10535.728211, "GRID_G0": "173752", "woodland": 0.065301621451732073, "maskWdl": 0.0, "cropland": 0.50320778426884782, "maskCrp": 0.0, "one": 0.42133272365496544, "maskOne": 1.0, "GRID.AREA": 23.704252514883745, "REGION.AREA": 59928.662280600729 }, "geometry": { "type": "Polygon", "coordinates": [ [ [ 77.231532102881161, 18.771116547684997 ], [ 77.27653335308905, 18.771116493301168 ], [ 77.27653335308905, 18.81611780616926 ], [ 77.231532102881161, 18.816117782121065 ], [ 77.231532102881161, 18.771116547684997 ] ] ] } },
{ "type": "Feature", "properties": { "REGION": 2.0, "STATE.NAME": "Maharashtra", "DISTRICT.NAME": "Parbhani", "DISTRICT.AREA": 6128.024671, "GRID_G0": "186092", "woodland": 0.023408614191953992, "maskWdl": 0.0, "cropland": 0.56399696902293828, "maskCrp": 1.0, "one": 0.39919730575601042, "maskOne": 1.0, "GRID.AREA": 23.538357509436743, "REGION.AREA": 59928.662280600729 }, "geometry": { "type": "Polygon", "coordinates": [ [ [ 76.79074741184786, 19.671115638143224 ], [ 76.781533070030974, 19.671114717416266 ], [ 76.781533070030974, 19.626117967322028 ], [ 76.826534291071354, 19.626117947467783 ], [ 76.826534291071354, 19.671114759355795 ], [ 76.821999119269464, 19.67111526277133 ], [ 76.821193842821629, 19.670551458882755 ], [ 76.819629309345203, 19.670287695820551 ], [ 76.81851444678432, 19.67076384817312 ], [ 76.818315432211477, 19.670900004631566 ], [ 76.818154182869307, 19.67101032446698 ], [ 76.818000263196808, 19.671115612256429 ], [ 76.79529546438431, 19.671115919461329 ], [ 76.793556941599604, 19.670702187955673 ], [ 76.792016497363534, 19.670596258610484 ], [ 76.792016404733374, 19.670596255013209 ], [ 76.791398928417891, 19.670837941517849 ], [ 76.791263675778055, 19.670891080658922 ], [ 76.791153482747063, 19.670938968658504 ], [ 76.791120161066658, 19.670953503501433 ], [ 76.79074741184786, 19.671115638143224 ] ] ] } }
]
}
