{
"type": "FeatureCollection",
"name": "Region 1 Selected ONE",
"crs": { "type": "name", "properties": { "name": "urn:ogc:def:crs:OGC:1.3:CRS84" } },
"features": [
{ "type": "Feature", "properties": { "REGION": 1.0, "STATE.NAME": "Maharashtra", "DISTRICT.NAME": "Gadchiroli", "DISTRICT.AREA": 14527.292838, "GRID_G0": "195913", "woodland": 0.40528384034990234, "maskWdl": 1.0, "cropland": 0.22353253167313575, "maskCrp": 0.0, "one": 0.36011269971852966, "maskOne": 1.0, "GRID.AREA": 23.475773696050265, "REGION.AREA": 32202.066020262951 }, "geometry": { "type": "Polygon", "coordinates": [ [ [ 79.976536957850627, 20.301118796466859 ], [ 80.021533747255191, 20.301118819427728 ], [ 80.021533747255191, 20.346115647844258 ], [ 79.976536957850627, 20.346115629291596 ], [ 79.976536957850627, 20.301118796466859 ] ] ] } },
{ "type": "Feature", "properties": { "REGION": 1.0, "STATE.NAME": "Maharashtra", "DISTRICT.NAME": "Yavatmal", "DISTRICT.AREA": 13583.851744, "GRID_G0": "197817", "woodland": 0.04026248511474128, "maskWdl": 0.0, "cropland": 0.36878934637338923, "maskCrp": 0.0, "one": 0.57453111161053561, "maskOne": 1.0, "GRID.AREA": 23.459837668288287, "REGION.AREA": 32202.066020262951 }, "geometry": { "type": "Polygon", "coordinates": [ [ [ 77.906533022918595, 20.436118093962666 ], [ 77.951534251315636, 20.436118132444712 ], [ 77.951534251315636, 20.481119377938121 ], [ 77.906533022918595, 20.481119343024822 ], [ 77.906533022918595, 20.436118093962666 ] ] ] } },
{ "type": "Feature", "properties": { "REGION": 1.0, "STATE.NAME": "Maharashtra", "DISTRICT.NAME": "Yavatmal", "DISTRICT.AREA": 13583.851744, "GRID_G0": "197818", "woodland": 0.1098392875945972, "maskWdl": 0.0, "cropland": 0.42378852995402172, "maskCrp": 0.0, "one": 0.4619459989526376, "maskOne": 1.0, "GRID.AREA": 23.457530534004917, "REGION.AREA": 32202.066020262951 }, "geometry": { "type": "Polygon", "coordinates": [ [ [ 77.951534251315636, 20.436118132444712 ], [ 77.996531068852022, 20.436118087205887 ], [ 77.996531068852022, 20.481119306779064 ], [ 77.951534251315636, 20.481119377938121 ], [ 77.951534251315636, 20.436118132444712 ] ] ] } },
{ "type": "Feature", "properties": { "REGION": 1.0, "STATE.NAME": "Maharashtra", "DISTRICT.NAME": "Yavatmal", "DISTRICT.AREA": 13583.851744, "GRID_G0": "197823", "woodland": 0.16217468296474746, "maskWdl": 0.0, "cropland": 0.43531170430321109, "maskCrp": 0.0, "one": 0.35812588756160718, "maskOne": 1.0, "GRID.AREA": 23.459833849847623, "REGION.AREA": 32202.066020262951 }, "geometry": { "type": "Polygon", "coordinates": [ [ [ 78.176531634831932, 20.436118111323388 ], [ 78.221532867981381, 20.436118097814465 ], [ 78.221532867981381, 20.481119310622883 ], [ 78.176531634831946, 20.481119368907837 ], [ 78.176531634831932, 20.436118111323388 ] ] ] } },
{ "type": "Feature", "properties": { "REGION": 1.0, "STATE.NAME": "Maharashtra", "DISTRICT.NAME": "Yavatmal", "DISTRICT.AREA": 13583.851744, "GRID_G0": "195864", "woodland": 0.020090271067010959, "maskWdl": 0.0, "cropland": 0.51972862180292623, "maskCrp": 0.0, "one": 0.40838635018972591, "maskOne": 1.0, "GRID.AREA": 23.478096926274471, "REGION.AREA": 32202.066020262951 }, "geometry": { "type": "Polygon", "coordinates": [ [ [ 77.771533724775892, 20.30111883926352 ], [ 77.816535009901216, 20.301118777561832 ], [ 77.816535009901216, 20.346115600045749 ], [ 77.771533724775892, 20.346115592599013 ], [ 77.771533724775892, 20.30111883926352 ] ] ] } },
{ "type": "Feature", "properties": { "REGION": 1.0, "STATE.NAME": "Maharashtra", "DISTRICT.NAME": "Yavatmal", "DISTRICT.AREA": 13583.851744, "GRID_G0": "195879", "woodland": 0.020861335223074189, "maskWdl": 0.0, "cropland": 0.58383480648619679, "maskCrp": 1.0, "one": 0.37758277631577897, "maskOne": 1.0, "GRID.AREA": 23.478051804414704, "REGION.AREA": 32202.066020262951 }, "geometry": { "type": "Polygon", "coordinates": [ [ [ 78.446534648681762, 20.30111881812412 ], [ 78.491535879173696, 20.30111884643496 ], [ 78.491535879173696, 20.346115607914285 ], [ 78.446534648681762, 20.346115568768603 ], [ 78.446534648681762, 20.30111881812412 ] ] ] } },
{ "type": "Feature", "properties": { "REGION": 1.0, "STATE.NAME": "Maharashtra", "DISTRICT.NAME": "Yavatmal", "DISTRICT.AREA": 13583.851744, "GRID_G0": "195880", "woodland": 0.063944658894143011, "maskWdl": 0.0, "cropland": 0.3692128716893629, "maskCrp": 0.0, "one": 0.52670296901201075, "maskOne": 1.0, "GRID.AREA": 23.475753683557912, "REGION.AREA": 32202.066020262951 }, "geometry": { "type": "Polygon", "coordinates": [ [ [ 78.491535879173696, 20.30111884643496 ], [ 78.536532660272343, 20.301118790598455 ], [ 78.536532660272343, 20.346115630252395 ], [ 78.491535879173696, 20.346115607914285 ], [ 78.491535879173696, 20.30111884643496 ] ] ] } },
{ "type": "Feature", "properties": { "REGION": 1.0, "STATE.NAME": "Maharashtra", "DISTRICT.NAME": "Yavatmal", "DISTRICT.AREA": 13583.851744, "GRID_G0": "191310", "woodland": 0.42215190811738068, "maskWdl": 1.0, "cropland": 0.19522329304597846, "maskCrp": 0.0, "one": 0.37752000371851008, "maskOne": 1.0, "GRID.AREA": 23.527886460152097, "REGION.AREA": 32202.066020262951 }, "geometry": { "type": "Polygon", "coordinates": [ [ [ 77.591533190519684, 19.986114498245975 ], [ 77.636534486368078, 19.986114530397153 ], [ 77.636534486368078, 20.031115775412992 ], [ 77.591533190519684, 20.031115745664522 ], [ 77.591533190519684, 19.986114498245975 ] ] ] } },
{ "type": "Feature", "properties": { "REGION": 1.0, "STATE.NAME": "Maharashtra", "DISTRICT.NAME": "Yavatmal", "DISTRICT.AREA": 13583.851744, "GRID_G0": "189380", "woodland": 0.4688867928513164, "maskWdl": 1.0, "cropland": 0.14147496490332523, "maskCrp": 0.0, "one": 0.38959042389769738, "maskOne": 1.0, "GRID.AREA": 23.545637035373737, "REGION.AREA": 32202.066020262951 }, "geometry": { "type": "Polygon", "coordinates": [ [ [ 78.491535879173696, 19.85111527656078 ], [ 78.536532660272343, 19.851115281558481 ], [ 78.536532660272343, 19.896116474733329 ], [ 78.491535879173696, 19.896116544730734 ], [ 78.491535879173696, 19.85111527656078 ] ] ] } },
{ "type": "Feature", "properties": { "REGION": 1.0, "STATE.NAME": "Maharashtra", "DISTRICT.NAME": "Yavatmal", "DISTRICT.AREA": 13583.851744, "GRID_G0": "188056", "woodland": 0.1866123059625642, "maskWdl": 0.0, "cropland": 0.38744034724358056, "maskCrp": 0.0, "one": 0.38899986257617825, "maskOne": 1.0, "GRID.AREA": 23.561292906201587, "REGION.AREA": 32202.066020262951 }, "geometry": { "type": "Polygon", "coordinates": [ [ [ 77.411532665061301, 19.76111723868776 ], [ 77.456533885822068, 19.761117232095604 ], [ 77.456533885822068, 19.806118451767297 ], [ 77.411532665061301, 19.806118447761001 ], [ 77.411532665061301, 19.76111723868776 ] ] ] } },
{ "type": "Feature", "properties": { "REGION": 1.0, "STATE.NAME": "Maharashtra", "DISTRICT.NAME": "Yavatmal", "DISTRICT.AREA": 13583.851744, "GRID_G0": "188061", "woodland": 0.1294954883730568, "maskWdl": 0.0, "cropland": 0.4226990383803092, "maskCrp": 0.0, "one": 0.40222297845480959, "maskOne": 1.0, "GRID.AREA": 23.558988759557099, "REGION.AREA": 32202.066020262951 }, "geometry": { "type": "Polygon", "coordinates": [ [ [ 77.636534486368078, 19.761117184504091 ], [ 77.681531217347981, 19.761117183085933 ], [ 77.681531217347981, 19.806118480956549 ], [ 77.636534486368078, 19.806118493280252 ], [ 77.636534486368078, 19.761117184504091 ] ] ] } },
{ "type": "Feature", "properties": { "REGION": 1.0, "STATE.NAME": "Maharashtra", "DISTRICT.NAME": "Yavatmal", "DISTRICT.AREA": 13583.851744, "GRID_G0": "188079", "woodland": 0.020317999515542525, "maskWdl": 0.0, "cropland": 0.48439371854546232, "maskCrp": 0.0, "one": 0.48384568066416017, "maskOne": 1.0, "GRID.AREA": 1.1098971930434558, "REGION.AREA": 32202.066020262951 }, "geometry": { "type": "Polygon", "coordinates": [ [ [ 78.491535879173696, 19.792548257706372 ], [ 78.491535879173696, 19.806118430871031 ], [ 78.481673637209624, 19.806119393565737 ], [ 78.482497079276868, 19.804774713981942 ], [ 78.483165153249274, 19.803810676721412 ], [ 78.483616906095392, 19.802086590923466 ], [ 78.483617761350672, 19.802075240579942 ], [ 78.48361779012896, 19.802074861066046 ], [ 78.483683214009204, 19.801207208645796 ], [ 78.483887581346835, 19.79943692467441 ], [ 78.483985378122782, 19.79827118296879 ], [ 78.483985661409179, 19.798267791625335 ], [ 78.48446169235325, 19.796959039727938 ], [ 78.485052845512499, 19.796052938592315 ], [ 78.485958088694872, 19.795194970071861 ], [ 78.48731987451265, 19.793980229703887 ], [ 78.488528540859534, 19.793287525099231 ], [ 78.490255946055129, 19.792685352547039 ], [ 78.491303945820505, 19.792550920988276 ], [ 78.491306149159527, 19.792550638601142 ], [ 78.491535879173696, 19.792548257706372 ] ] ] } },
{ "type": "Feature", "properties": { "REGION": 1.0, "STATE.NAME": "Maharashtra", "DISTRICT.NAME": "Yavatmal", "DISTRICT.AREA": 13583.851744, "GRID_G0": "188087", "woodland": 0.025829167695250028, "maskWdl": 0.0, "cropland": 0.59911867590588552, "maskCrp": 1.0, "one": 0.34689318014863002, "maskOne": 1.0, "GRID.AREA": 23.193698942786764, "REGION.AREA": 32202.066020262951 }, "geometry": { "type": "Polygon", "coordinates": [ [ [ 78.851532483715133, 19.766686970755096 ], [ 78.851532483715147, 19.806118441951476 ], [ 78.806535721790198, 19.806118484939631 ], [ 78.806535721790198, 19.761117244962982 ], [ 78.813901153557779, 19.761118014618766 ], [ 78.814734728924634, 19.76153700612798 ], [ 78.816933989512052, 19.761838181886617 ], [ 78.818514130722633, 19.761569485143696 ], [ 78.819076755344483, 19.761118375217041 ], [ 78.836305754712185, 19.761118503769303 ], [ 78.836449079161753, 19.761169568320952 ], [ 78.840978220568516, 19.761895940845022 ], [ 78.842690378658119, 19.76249202858429 ], [ 78.84622827021856, 19.763294320076852 ], [ 78.848128720264299, 19.764041305062221 ], [ 78.84941552960305, 19.764918224096785 ], [ 78.850794552726484, 19.76589774768297 ], [ 78.851532483715133, 19.766686970755096 ] ] ] } },
{ "type": "Feature", "properties": { "REGION": 1.0, "STATE.NAME": "Telangana", "DISTRICT.NAME": "Adilabad", "DISTRICT.AREA": 3996.656205, "GRID_G0": "188079", "woodland": 0.020317999515542525, "maskWdl": 0.0, "cropland": 0.48439371854546232, "maskCrp": 0.0, "one": 0.48384568066416017, "maskOne": 1.0, "GRID.AREA": 22.451404954069577, "REGION.AREA": 32202.066020262951 }, "geometry": { "type": "Polygon", "coordinates": [ [ [ 78.481673637209624, 19.806119393565737 ], [ 78.446534648681762, 19.806118424451348 ], [ 78.446534648681762, 19.761117178475978 ], [ 78.491535879173696, 19.761117232278892 ], [ 78.491535879173696, 19.792548257706372 ], [ 78.491306149159527, 19.792550638601142 ], [ 78.491303945820505, 19.792550920988276 ], [ 78.490255946055129, 19.792685352547039 ], [ 78.488528540859534, 19.793287525099231 ], [ 78.48731987451265, 19.793980229703887 ], [ 78.485958088694872, 19.795194970071861 ], [ 78.485052845512499, 19.796052938592315 ], [ 78.48446169235325, 19.796959039727938 ], [ 78.483985661409179, 19.798267791625335 ], [ 78.483985378122782, 19.79827118296879 ], [ 78.483887581346835, 19.79943692467441 ], [ 78.483683214009204, 19.801207208645796 ], [ 78.48361779012896, 19.802074861066046 ], [ 78.483617761350672, 19.802075240579942 ], [ 78.483616906095392, 19.802086590923466 ], [ 78.483165153249274, 19.803810676721412 ], [ 78.482497079276868, 19.804774713981942 ], [ 78.481673637209624, 19.806119393565737 ] ] ] } },
{ "type": "Feature", "properties": { "REGION": 1.0, "STATE.NAME": "Telangana", "DISTRICT.NAME": "Adilabad", "DISTRICT.AREA": 3996.656205, "GRID_G0": "188087", "woodland": 0.025829167695250028, "maskWdl": 0.0, "cropland": 0.59911867590588552, "maskCrp": 1.0, "one": 0.34689318014863002, "maskOne": 1.0, "GRID.AREA": 0.049548013608057551, "REGION.AREA": 32202.066020262951 }, "geometry": { "type": "MultiPolygon", "coordinates": [ [ [ [ 78.836305754712185, 19.761118503769303 ], [ 78.840739018388348, 19.761118270186497 ], [ 78.840758923585497, 19.761253322183109 ], [ 78.840978220568516, 19.761895940845022 ], [ 78.836449079161753, 19.761169568320952 ], [ 78.836305754712185, 19.761118503769303 ] ] ], [ [ [ 78.813901153557779, 19.761118014618766 ], [ 78.819076755344483, 19.761118375217041 ], [ 78.818514130722633, 19.761569485143696 ], [ 78.816933989512052, 19.761838181886617 ], [ 78.814734728924634, 19.76153700612798 ], [ 78.813901153557779, 19.761118014618766 ] ] ] ] } },
{ "type": "Feature", "properties": { "REGION": 1.0, "STATE.NAME": "Telangana", "DISTRICT.NAME": "Adilabad", "DISTRICT.AREA": 3996.656205, "GRID_G0": "184835", "woodland": 0.38143343684472036, "maskWdl": 0.0, "cropland": 0.20591511949780009, "maskCrp": 0.0, "one": 0.40904137085756476, "maskOne": 1.0, "GRID.AREA": 23.594428768905782, "REGION.AREA": 32202.066020262951 }, "geometry": { "type": "Polygon", "coordinates": [ [ [ 78.716533203310703, 19.536115450690328 ], [ 78.761534456541753, 19.536115452443557 ], [ 78.761534456541753, 19.581116710354436 ], [ 78.716533203310703, 19.58111669463716 ], [ 78.716533203310703, 19.536115450690328 ] ] ] } },
{ "type": "Feature", "properties": { "REGION": 1.0, "STATE.NAME": "Telangana", "DISTRICT.NAME": "Adilabad", "DISTRICT.AREA": 3996.656205, "GRID_G0": "184185", "woodland": 0.27262870095520514, "maskWdl": 0.0, "cropland": 0.36535651042466671, "maskCrp": 0.0, "one": 0.35599029402920385, "maskOne": 1.0, "GRID.AREA": 23.601012269806425, "REGION.AREA": 32202.066020262951 }, "geometry": { "type": "Polygon", "coordinates": [ [ [ 78.716533203310703, 19.491114194591063 ], [ 78.761534456541753, 19.491114179718039 ], [ 78.761534456541753, 19.536115452443557 ], [ 78.716533203310703, 19.536115450690328 ], [ 78.716533203310703, 19.491114194591063 ] ] ] } },
{ "type": "Feature", "properties": { "REGION": 1.0, "STATE.NAME": "Telangana", "DISTRICT.NAME": "Adilabad", "DISTRICT.AREA": 3996.656205, "GRID_G0": "182232", "woodland": 0.098851537924628252, "maskWdl": 0.0, "cropland": 0.52637496388625038, "maskCrp": 0.0, "one": 0.37021097603712966, "maskOne": 1.0, "GRID.AREA": 23.620623894548213, "REGION.AREA": 32202.066020262951 }, "geometry": { "type": "Polygon", "coordinates": [ [ [ 78.58153389932626, 19.356114940238093 ], [ 78.626535152789216, 19.356114911836023 ], [ 78.626535152789216, 19.40111611994131 ], [ 78.58153389932626, 19.401116147523151 ], [ 78.58153389932626, 19.356114940238093 ] ] ] } },
{ "type": "Feature", "properties": { "REGION": 1.0, "STATE.NAME": "Telangana", "DISTRICT.NAME": "Adilabad", "DISTRICT.AREA": 3996.656205, "GRID_G0": "182233", "woodland": 0.30896763307505859, "maskWdl": 0.0, "cropland": 0.31275379792693431, "maskCrp": 0.0, "one": 0.3764644432754139, "maskOne": 1.0, "GRID.AREA": 23.618297664044224, "REGION.AREA": 32202.066020262951 }, "geometry": { "type": "Polygon", "coordinates": [ [ [ 78.626535152789216, 19.356114911836023 ], [ 78.671531984763533, 19.356114938867652 ], [ 78.671531984763533, 19.401116125406123 ], [ 78.626535152789216, 19.40111611994131 ], [ 78.626535152789216, 19.356114911836023 ] ] ] } }
]
}
