{
"type": "FeatureCollection",
"name": "Region 1 ONE Mask",
"crs": { "type": "name", "properties": { "name": "urn:ogc:def:crs:OGC:1.3:CRS84" } },
"features": [
{ "type": "Feature", "properties": { "REGION": 1.0, "STATE.NAME": "Maharashtra", "DISTRICT.NAME": "Gadchiroli", "DISTRICT.AREA": 14527.292838, "GRID_G0": "195913", "woodland": 0.40528384034990234, "maskWdl": 1.0, "cropland": 0.22353253167313575, "maskCrp": 0.0, "one": 0.36011269971852966, "maskOne": 1.0, "GRID.AREA": 23.475773696050265, "REGION.AREA": 32202.066020262951 }, "geometry": { "type": "Polygon", "coordinates": [ [ [ 79.976536957850627, 20.301118796466859 ], [ 80.021533747255191, 20.301118819427728 ], [ 80.021533747255191, 20.346115647844258 ], [ 79.976536957850627, 20.346115629291596 ], [ 79.976536957850627, 20.301118796466859 ] ] ] } },
{ "type": "Feature", "properties": { "REGION": 1.0, "STATE.NAME": "Maharashtra", "DISTRICT.NAME": "Gadchiroli", "DISTRICT.AREA": 14527.292838, "GRID_G0": "180312", "woodland": 0.46482352293349588, "maskWdl": 1.0, "cropland": 0.059282042716476496, "maskCrp": 0.0, "one": 0.44375387937323757, "maskOne": 1.0, "GRID.AREA": 23.200381298523631, "REGION.AREA": 32202.066020262951 }, "geometry": { "type": "Polygon", "coordinates": [ [ [ 79.931535627200489, 19.251621100215921 ], [ 79.931535627200489, 19.221115625908411 ], [ 79.976536957850627, 19.22111560746502 ], [ 79.976536957850612, 19.266116884650103 ], [ 79.937540926634057, 19.266117474008414 ], [ 79.936361304031038, 19.264149901896531 ], [ 79.935156584808624, 19.26179831683891 ], [ 79.93411304478127, 19.259528436987804 ], [ 79.9335782080679, 19.25805924154082 ], [ 79.933043382146423, 19.256590047892473 ], [ 79.932342972150479, 19.254108852541549 ], [ 79.932061670509768, 19.252857132950393 ], [ 79.931637300221269, 19.251758511246351 ], [ 79.931535627200489, 19.251621100215921 ] ] ] } },
{ "type": "Feature", "properties": { "REGION": 1.0, "STATE.NAME": "Maharashtra", "DISTRICT.NAME": "Gadchiroli", "DISTRICT.AREA": 14527.292838, "GRID_G0": "180313", "woodland": 0.54436324764018107, "maskWdl": 1.0, "cropland": 0.0035082355961322492, "maskCrp": 0.0, "one": 0.45211257733853916, "maskOne": 1.0, "GRID.AREA": 23.637815229719678, "REGION.AREA": 32202.066020262951 }, "geometry": { "type": "Polygon", "coordinates": [ [ [ 79.976536957850627, 19.22111560746502 ], [ 80.021533747255191, 19.221115596320512 ], [ 80.021533747255191, 19.266116834604055 ], [ 79.976536957850612, 19.266116884650103 ], [ 79.976536957850627, 19.22111560746502 ] ] ] } },
{ "type": "Feature", "properties": { "REGION": 1.0, "STATE.NAME": "Maharashtra", "DISTRICT.NAME": "Gadchiroli", "DISTRICT.AREA": 14527.292838, "GRID_G0": "180314", "woodland": 0.58798978849911165, "maskWdl": 1.0, "cropland": 0.0029534642087917068, "maskCrp": 0.0, "one": 0.40905674729209668, "maskOne": 1.0, "GRID.AREA": 23.640117394089856, "REGION.AREA": 32202.066020262951 }, "geometry": { "type": "Polygon", "coordinates": [ [ [ 80.021533747255191, 19.221115596320512 ], [ 80.066534923665401, 19.221115640080349 ], [ 80.066534923665401, 19.266116908031101 ], [ 80.021533747255191, 19.266116834604055 ], [ 80.021533747255191, 19.221115596320512 ] ] ] } },
{ "type": "Feature", "properties": { "REGION": 1.0, "STATE.NAME": "Maharashtra", "DISTRICT.NAME": "Gadchiroli", "DISTRICT.AREA": 14527.292838, "GRID_G0": "172517", "woodland": 0.049783243587664311, "maskWdl": 0.0, "cropland": 0.37600254074618078, "maskCrp": 0.0, "one": 0.38078955201815173, "maskOne": 1.0, "GRID.AREA": 19.416945408285375, "REGION.AREA": 32202.066020262951 }, "geometry": { "type": "Polygon", "coordinates": [ [ [ 80.201534259565875, 18.693821210617052 ], [ 80.201534259565875, 18.726115265011359 ], [ 80.156537424750198, 18.726115293279442 ], [ 80.156537424750198, 18.700899783491639 ], [ 80.156751121567083, 18.700980129329537 ], [ 80.157713413243471, 18.701008842883823 ], [ 80.158405827367119, 18.700797629007415 ], [ 80.159525768399533, 18.700426485094283 ], [ 80.15976240521087, 18.700348063312507 ], [ 80.160584473694541, 18.700278469275986 ], [ 80.160758065332516, 18.700263774353743 ], [ 80.161630199973786, 18.700346508384712 ], [ 80.163435616860284, 18.70075136698205 ], [ 80.164430816529034, 18.70092010497893 ], [ 80.165122845742815, 18.700952829509507 ], [ 80.166578909289285, 18.700539517284938 ], [ 80.167755182056055, 18.700139259619164 ], [ 80.16862815666417, 18.699738602654463 ], [ 80.168669163950824, 18.699691450300232 ], [ 80.16953055259296, 18.698700965776997 ], [ 80.17049521847963, 18.697351757877357 ], [ 80.171727303172588, 18.694778825382514 ], [ 80.172423847882328, 18.692132654798229 ], [ 80.173385365242495, 18.689748954950346 ], [ 80.174108954364783, 18.688320898990355 ], [ 80.174165315776747, 18.688209664544448 ], [ 80.1755193134656, 18.68636866598121 ], [ 80.17683987436078, 18.684676611336613 ], [ 80.177746617612343, 18.683846755623335 ], [ 80.178709752852853, 18.683297122364365 ], [ 80.184821949273612, 18.681869650963673 ], [ 80.186884629821861, 18.681389335649385 ], [ 80.187980456123199, 18.681115151903875 ], [ 80.197129555328601, 18.681114510557244 ], [ 80.19768705601291, 18.681404920900434 ], [ 80.198378417929689, 18.681893849921266 ], [ 80.19901711374888, 18.682635618838788 ], [ 80.199376422583896, 18.683236922645907 ], [ 80.199644639988207, 18.684533814284183 ], [ 80.199195304519719, 18.686972582318845 ], [ 80.199163974837631, 18.688824695603273 ], [ 80.19922853896594, 18.690030945471793 ], [ 80.199407299907023, 18.690921146593666 ], [ 80.20043330675179, 18.692589449243712 ], [ 80.201534259565875, 18.693821210617052 ] ] ] } },
{ "type": "Feature", "properties": { "REGION": 1.0, "STATE.NAME": "Maharashtra", "DISTRICT.NAME": "Yavatmal", "DISTRICT.AREA": 13583.851744, "GRID_G0": "197816", "woodland": 0.0063479905201843032, "maskWdl": 0.0, "cropland": 0.56498187716638548, "maskCrp": 1.0, "one": 0.41297011567854575, "maskOne": 1.0, "GRID.AREA": 23.459853212260722, "REGION.AREA": 32202.066020262951 }, "geometry": { "type": "Polygon", "coordinates": [ [ [ 77.861531757373555, 20.436118088506873 ], [ 77.906533022918595, 20.436118093962666 ], [ 77.906533022918595, 20.481119343024822 ], [ 77.861531757373555, 20.481119319322875 ], [ 77.861531757373555, 20.436118088506873 ] ] ] } },
{ "type": "Feature", "properties": { "REGION": 1.0, "STATE.NAME": "Maharashtra", "DISTRICT.NAME": "Yavatmal", "DISTRICT.AREA": 13583.851744, "GRID_G0": "197817", "woodland": 0.04026248511474128, "maskWdl": 0.0, "cropland": 0.36878934637338923, "maskCrp": 0.0, "one": 0.57453111161053561, "maskOne": 1.0, "GRID.AREA": 23.459837668288287, "REGION.AREA": 32202.066020262951 }, "geometry": { "type": "Polygon", "coordinates": [ [ [ 77.906533022918595, 20.436118093962666 ], [ 77.951534251315636, 20.436118132444712 ], [ 77.951534251315636, 20.481119377938121 ], [ 77.906533022918595, 20.481119343024822 ], [ 77.906533022918595, 20.436118093962666 ] ] ] } },
{ "type": "Feature", "properties": { "REGION": 1.0, "STATE.NAME": "Maharashtra", "DISTRICT.NAME": "Yavatmal", "DISTRICT.AREA": 13583.851744, "GRID_G0": "197818", "woodland": 0.1098392875945972, "maskWdl": 0.0, "cropland": 0.42378852995402172, "maskCrp": 0.0, "one": 0.4619459989526376, "maskOne": 1.0, "GRID.AREA": 23.457530534004917, "REGION.AREA": 32202.066020262951 }, "geometry": { "type": "Polygon", "coordinates": [ [ [ 77.951534251315636, 20.436118132444712 ], [ 77.996531068852022, 20.436118087205887 ], [ 77.996531068852022, 20.481119306779064 ], [ 77.951534251315636, 20.481119377938121 ], [ 77.951534251315636, 20.436118132444712 ] ] ] } },
{ "type": "Feature", "properties": { "REGION": 1.0, "STATE.NAME": "Maharashtra", "DISTRICT.NAME": "Yavatmal", "DISTRICT.AREA": 13583.851744, "GRID_G0": "197823", "woodland": 0.16217468296474746, "maskWdl": 0.0, "cropland": 0.43531170430321109, "maskCrp": 0.0, "one": 0.35812588756160718, "maskOne": 1.0, "GRID.AREA": 23.459833849847623, "REGION.AREA": 32202.066020262951 }, "geometry": { "type": "Polygon", "coordinates": [ [ [ 78.176531634831932, 20.436118111323388 ], [ 78.221532867981381, 20.436118097814465 ], [ 78.221532867981381, 20.481119310622883 ], [ 78.176531634831946, 20.481119368907837 ], [ 78.176531634831932, 20.436118111323388 ] ] ] } },
{ "type": "Feature", "properties": { "REGION": 1.0, "STATE.NAME": "Maharashtra", "DISTRICT.NAME": "Yavatmal", "DISTRICT.AREA": 13583.851744, "GRID_G0": "195864", "woodland": 0.020090271067010959, "maskWdl": 0.0, "cropland": 0.51972862180292623, "maskCrp": 0.0, "one": 0.40838635018972591, "maskOne": 1.0, "GRID.AREA": 23.478096926274471, "REGION.AREA": 32202.066020262951 }, "geometry": { "type": "Polygon", "coordinates": [ [ [ 77.771533724775892, 20.30111883926352 ], [ 77.816535009901216, 20.301118777561832 ], [ 77.816535009901216, 20.346115600045749 ], [ 77.771533724775892, 20.346115592599013 ], [ 77.771533724775892, 20.30111883926352 ] ] ] } },
{ "type": "Feature", "properties": { "REGION": 1.0, "STATE.NAME": "Maharashtra", "DISTRICT.NAME": "Yavatmal", "DISTRICT.AREA": 13583.851744, "GRID_G0": "195879", "woodland": 0.020861335223074189, "maskWdl": 0.0, "cropland": 0.58383480648619679, "maskCrp": 1.0, "one": 0.37758277631577897, "maskOne": 1.0, "GRID.AREA": 23.478051804414704, "REGION.AREA": 32202.066020262951 }, "geometry": { "type": "Polygon", "coordinates": [ [ [ 78.446534648681762, 20.30111881812412 ], [ 78.491535879173696, 20.30111884643496 ], [ 78.491535879173696, 20.346115607914285 ], [ 78.446534648681762, 20.346115568768603 ], [ 78.446534648681762, 20.30111881812412 ] ] ] } },
{ "type": "Feature", "properties": { "REGION": 1.0, "STATE.NAME": "Maharashtra", "DISTRICT.NAME": "Yavatmal", "DISTRICT.AREA": 13583.851744, "GRID_G0": "195880", "woodland": 0.063944658894143011, "maskWdl": 0.0, "cropland": 0.3692128716893629, "maskCrp": 0.0, "one": 0.52670296901201075, "maskOne": 1.0, "GRID.AREA": 23.475753683557912, "REGION.AREA": 32202.066020262951 }, "geometry": { "type": "Polygon", "coordinates": [ [ [ 78.491535879173696, 20.30111884643496 ], [ 78.536532660272343, 20.301118790598455 ], [ 78.536532660272343, 20.346115630252395 ], [ 78.491535879173696, 20.346115607914285 ], [ 78.491535879173696, 20.30111884643496 ] ] ] } },
{ "type": "Feature", "properties": { "REGION": 1.0, "STATE.NAME": "Maharashtra", "DISTRICT.NAME": "Yavatmal", "DISTRICT.AREA": 13583.851744, "GRID_G0": "195230", "woodland": 0.13534598131855091, "maskWdl": 0.0, "cropland": 0.47881242656316841, "maskCrp": 0.0, "one": 0.38366930278959011, "maskOne": 1.0, "GRID.AREA": 23.484910042863689, "REGION.AREA": 32202.066020262951 }, "geometry": { "type": "Polygon", "coordinates": [ [ [ 78.491535879173696, 20.25611752310007 ], [ 78.536532660272343, 20.256117565210168 ], [ 78.536532660272343, 20.301118790598455 ], [ 78.491535879173696, 20.30111884643496 ], [ 78.491535879173696, 20.25611752310007 ] ] ] } },
{ "type": "Feature", "properties": { "REGION": 1.0, "STATE.NAME": "Maharashtra", "DISTRICT.NAME": "Yavatmal", "DISTRICT.AREA": 13583.851744, "GRID_G0": "195231", "woodland": 0.15344169310316685, "maskWdl": 0.0, "cropland": 0.31089953134093129, "maskCrp": 0.0, "one": 0.52562791006371246, "maskOne": 1.0, "GRID.AREA": 23.487203477114544, "REGION.AREA": 32202.066020262951 }, "geometry": { "type": "Polygon", "coordinates": [ [ [ 78.536532660272343, 20.256117565210168 ], [ 78.58153389932626, 20.256117604023903 ], [ 78.58153389932626, 20.301118799832675 ], [ 78.536532660272343, 20.301118790598455 ], [ 78.536532660272343, 20.256117565210168 ] ] ] } },
{ "type": "Feature", "properties": { "REGION": 1.0, "STATE.NAME": "Maharashtra", "DISTRICT.NAME": "Yavatmal", "DISTRICT.AREA": 13583.851744, "GRID_G0": "194561", "woodland": 0.075035953224965798, "maskWdl": 0.0, "cropland": 0.56812429367756212, "maskCrp": 1.0, "one": 0.34709723696080502, "maskOne": 1.0, "GRID.AREA": 12.464139534406803, "REGION.AREA": 32202.066020262951 }, "geometry": { "type": "Polygon", "coordinates": [ [ [ 77.653099295707079, 20.211117629424859 ], [ 77.681531217347981, 20.211116315776323 ], [ 77.681531217347981, 20.256117592832325 ], [ 77.638242684779243, 20.256117810883516 ], [ 77.638263841503147, 20.256099073613427 ], [ 77.640056760511129, 20.254515918774704 ], [ 77.641863712540385, 20.252919087046283 ], [ 77.643685042031109, 20.251322186969389 ], [ 77.644603565502223, 20.250607109930229 ], [ 77.645249016129242, 20.250535192944824 ], [ 77.647898129295299, 20.250228975586822 ], [ 77.65270447503157, 20.249741427025299 ], [ 77.654461632498396, 20.24956707635954 ], [ 77.655435163002437, 20.249470483775838 ], [ 77.659370898448287, 20.249065301422547 ], [ 77.663054481079485, 20.248214544565656 ], [ 77.663081395090387, 20.248206362533665 ], [ 77.666258486739821, 20.247240462777199 ], [ 77.666258495733075, 20.247240402522603 ], [ 77.66629831861259, 20.245606261519814 ], [ 77.666346438637277, 20.243631665069358 ], [ 77.666006137873012, 20.241646933259403 ], [ 77.664998179522399, 20.239323420539449 ], [ 77.663930359598453, 20.237307355450127 ], [ 77.663339728046083, 20.236238505802476 ], [ 77.662644920826494, 20.234981091704075 ], [ 77.660810847942344, 20.231592747507364 ], [ 77.659745075774708, 20.229179341253655 ], [ 77.659745059586911, 20.229179298086198 ], [ 77.658972026637798, 20.226249010083791 ], [ 77.658458180100979, 20.224827315028623 ], [ 77.658185551522024, 20.22407300236722 ], [ 77.656240536471614, 20.219886022422031 ], [ 77.655248934091105, 20.217797086166627 ], [ 77.653562959762837, 20.214958635132973 ], [ 77.653341539480493, 20.214133603383122 ], [ 77.653524167506362, 20.212298992704405 ], [ 77.653298084239225, 20.211478596959754 ], [ 77.653099295707079, 20.211117629424859 ] ] ] } },
{ "type": "Feature", "properties": { "REGION": 1.0, "STATE.NAME": "Maharashtra", "DISTRICT.NAME": "Yavatmal", "DISTRICT.AREA": 13583.851744, "GRID_G0": "194582", "woodland": 0.18076316878714668, "maskWdl": 0.0, "cropland": 0.40415349186290017, "maskCrp": 0.0, "one": 0.40556831397734916, "maskOne": 1.0, "GRID.AREA": 23.494048868111946, "REGION.AREA": 32202.066020262951 }, "geometry": { "type": "Polygon", "coordinates": [ [ [ 78.58153389932626, 20.211116313348999 ], [ 78.626535152789216, 20.211116290874784 ], [ 78.626535152789216, 20.256117532743676 ], [ 78.58153389932626, 20.256117604023903 ], [ 78.58153389932626, 20.211116313348999 ] ] ] } },
{ "type": "Feature", "properties": { "REGION": 1.0, "STATE.NAME": "Maharashtra", "DISTRICT.NAME": "Yavatmal", "DISTRICT.AREA": 13583.851744, "GRID_G0": "193915", "woodland": 0.17639709220182909, "maskWdl": 0.0, "cropland": 0.42710788773544006, "maskCrp": 0.0, "one": 0.38916098512798025, "maskOne": 1.0, "GRID.AREA": 23.498481564242052, "REGION.AREA": 32202.066020262951 }, "geometry": { "type": "Polygon", "coordinates": [ [ [ 77.816535009901216, 20.166115051859908 ], [ 77.861531757373555, 20.166115045798751 ], [ 77.861531757373555, 20.211116278745472 ], [ 77.816535009901216, 20.211116318986473 ], [ 77.816535009901216, 20.166115051859908 ] ] ] } },
{ "type": "Feature", "properties": { "REGION": 1.0, "STATE.NAME": "Maharashtra", "DISTRICT.NAME": "Yavatmal", "DISTRICT.AREA": 13583.851744, "GRID_G0": "192605", "woodland": 0.17654162800096207, "maskWdl": 0.0, "cropland": 0.40999154235018503, "maskCrp": 0.0, "one": 0.40893737004956549, "maskOne": 1.0, "GRID.AREA": 5.7753817105471592, "REGION.AREA": 32202.066020262951 }, "geometry": { "type": "Polygon", "coordinates": [ [ [ 77.366531414075837, 20.083705966150333 ], [ 77.366531414075837, 20.076116986977912 ], [ 77.411532665061301, 20.076117059161888 ], [ 77.411532665061301, 20.082527349943668 ], [ 77.411441220136282, 20.082684777480551 ], [ 77.411285622133803, 20.083060463869344 ], [ 77.411158391446691, 20.083368339577245 ], [ 77.410992244396596, 20.083585905365283 ], [ 77.41076827813356, 20.083704467487223 ], [ 77.410615616417601, 20.083763960338558 ], [ 77.410343558008833, 20.083828641378769 ], [ 77.409827378630666, 20.083867383273173 ], [ 77.40881487240847, 20.08403971226295 ], [ 77.407845839413994, 20.08429304768606 ], [ 77.407658902736216, 20.084203746805546 ], [ 77.407414868101739, 20.084173391988486 ], [ 77.406754566969767, 20.084072822602707 ], [ 77.405731160964365, 20.084010329613079 ], [ 77.405137869217356, 20.083936567218871 ], [ 77.404668200077424, 20.083735790874073 ], [ 77.404270398460199, 20.083557133355043 ], [ 77.4042320162946, 20.08353926202739 ], [ 77.403819786853717, 20.083347218998995 ], [ 77.403494174716457, 20.083254026752005 ], [ 77.403063948042814, 20.083256182426911 ], [ 77.402610102474284, 20.08332181674848 ], [ 77.402023374878922, 20.083555025344197 ], [ 77.401527814257292, 20.083828522668231 ], [ 77.401212935528633, 20.083943095397562 ], [ 77.400902817810845, 20.084053061799409 ], [ 77.400453711669513, 20.084104983258442 ], [ 77.399870833172486, 20.084175714937317 ], [ 77.39951752911071, 20.084249806483456 ], [ 77.399140028789361, 20.084292310241949 ], [ 77.398814709831086, 20.084248847806126 ], [ 77.398364240317505, 20.084056845247236 ], [ 77.397712741749672, 20.083829888738418 ], [ 77.397487252035106, 20.083677388900412 ], [ 77.39719485995488, 20.083552494651936 ], [ 77.396926889864119, 20.083522256746789 ], [ 77.396712280147653, 20.083604556405191 ], [ 77.396531365330304, 20.083750050524486 ], [ 77.396398428444797, 20.083895185814242 ], [ 77.396228213761106, 20.084234842663932 ], [ 77.396110034750336, 20.084461228103233 ], [ 77.395948309666835, 20.084615606624993 ], [ 77.395843501776255, 20.084665808580269 ], [ 77.395676083084822, 20.084648540697629 ], [ 77.395370211965769, 20.084695320732521 ], [ 77.395027284281809, 20.084900310401054 ], [ 77.394489611106735, 20.085345606114856 ], [ 77.39384219725963, 20.085859217029281 ], [ 77.393294236739678, 20.086173603828797 ], [ 77.392874128338406, 20.086279606019048 ], [ 77.392348079800115, 20.086255140862136 ], [ 77.392119065642419, 20.086342146672788 ], [ 77.391962023328745, 20.086455785006532 ], [ 77.391833784501614, 20.086619018253142 ], [ 77.391643880960373, 20.08685030499765 ], [ 77.391496681726551, 20.087022675356252 ], [ 77.391395941469568, 20.086964464938148 ], [ 77.390950542333712, 20.086826676210194 ], [ 77.389032610366712, 20.086682859326572 ], [ 77.388692317696382, 20.086673402955228 ], [ 77.386813936114322, 20.086621721615188 ], [ 77.384954059882034, 20.086603897951594 ], [ 77.384021408061585, 20.086522717049775 ], [ 77.383059388879758, 20.087177943307495 ], [ 77.381196150082303, 20.088280117333625 ], [ 77.379190563893474, 20.089572642763301 ], [ 77.377222855350567, 20.090792815036423 ], [ 77.37467347250282, 20.092309313923749 ], [ 77.373720464527878, 20.09288309937557 ], [ 77.372538022411845, 20.093893746699109 ], [ 77.370746723982165, 20.094970594917068 ], [ 77.367628169204693, 20.096979906097825 ], [ 77.366531414075837, 20.097617789274079 ], [ 77.366531414075837, 20.096304806571329 ], [ 77.367288841506877, 20.095288259745416 ], [ 77.368503834584374, 20.093265066629556 ], [ 77.369558676391875, 20.091350104223977 ], [ 77.36966329632412, 20.090903348910501 ], [ 77.369764394511265, 20.090471704006006 ], [ 77.369685578826477, 20.089771589886993 ], [ 77.368812896498014, 20.087725250919618 ], [ 77.36802163429104, 20.08581674834431 ], [ 77.367600861290782, 20.08504202466975 ], [ 77.366531414075837, 20.083705966150333 ] ] ] } },
{ "type": "Feature", "properties": { "REGION": 1.0, "STATE.NAME": "Maharashtra", "DISTRICT.NAME": "Yavatmal", "DISTRICT.AREA": 13583.851744, "GRID_G0": "192606", "woodland": 0.1684631742355524, "maskWdl": 0.0, "cropland": 0.43447343399246996, "maskCrp": 0.0, "one": 0.39049133045275652, "maskOne": 1.0, "GRID.AREA": 0.46991405667431585, "REGION.AREA": 32202.066020262951 }, "geometry": { "type": "Polygon", "coordinates": [ [ [ 77.411532665061301, 20.082527349943668 ], [ 77.411532665061301, 20.076117059161888 ], [ 77.424791071468945, 20.076118245128509 ], [ 77.424134778497262, 20.076287254053568 ], [ 77.423390778361806, 20.07657123567401 ], [ 77.423177927719223, 20.076956146409092 ], [ 77.422879091996549, 20.077359611956577 ], [ 77.422403479237232, 20.077782173708385 ], [ 77.421879762640984, 20.078146169809937 ], [ 77.421321974329729, 20.078415529353268 ], [ 77.420911781853306, 20.07858475388332 ], [ 77.42048692143436, 20.078677329195443 ], [ 77.420042310104591, 20.078679560413438 ], [ 77.419678451599339, 20.078586753076252 ], [ 77.41935745388345, 20.078466372525099 ], [ 77.418988849655776, 20.078382490959257 ], [ 77.418611148785544, 20.078366387698679 ], [ 77.418095410974502, 20.07846390748341 ], [ 77.417609630480115, 20.078782582250426 ], [ 77.41728189054686, 20.079150142365222 ], [ 77.416817286388721, 20.079816405103085 ], [ 77.416632077308577, 20.080034196620943 ], [ 77.416498807673918, 20.080147719841417 ], [ 77.416284474948611, 20.080261767366721 ], [ 77.415964919745306, 20.080407913494469 ], [ 77.415549597535971, 20.080504868504931 ], [ 77.414942813260268, 20.080580300040879 ], [ 77.414202633444859, 20.080710502987362 ], [ 77.41371158292327, 20.080938980249812 ], [ 77.413029777202496, 20.081249549427241 ], [ 77.412552770494017, 20.0814461825953 ], [ 77.412300302916719, 20.081614538380279 ], [ 77.412152836584198, 20.081737279651808 ], [ 77.411905822495783, 20.082000510315368 ], [ 77.411630588580863, 20.082358768742207 ], [ 77.411532665061301, 20.082527349943668 ] ] ] } },
{ "type": "Feature", "properties": { "REGION": 1.0, "STATE.NAME": "Maharashtra", "DISTRICT.NAME": "Yavatmal", "DISTRICT.AREA": 13583.851744, "GRID_G0": "192607", "woodland": 0.26997670451121697, "maskWdl": 0.0, "cropland": 0.34492034392411935, "maskCrp": 0.0, "one": 0.37543445520190388, "maskOne": 1.0, "GRID.AREA": 1.8583499239658527, "REGION.AREA": 32202.066020262951 }, "geometry": { "type": "Polygon", "coordinates": [ [ [ 77.469787887512311, 20.076118246993584 ], [ 77.501530685759349, 20.076117058056219 ], [ 77.501530685759349, 20.086696830074498 ], [ 77.499992468977325, 20.086059088656043 ], [ 77.49936151632096, 20.085708174092986 ], [ 77.4993614686569, 20.085708147113333 ], [ 77.498730665288008, 20.085357166899772 ], [ 77.498644331270953, 20.085317014868394 ], [ 77.498408462480597, 20.085078998497011 ], [ 77.498056507401941, 20.084597717310832 ], [ 77.497417169466871, 20.084041372411434 ], [ 77.496807843707074, 20.083710575682574 ], [ 77.496570484740118, 20.083210623671391 ], [ 77.49620791496335, 20.082580505585895 ], [ 77.495541109035003, 20.081473214417372 ], [ 77.494873004485612, 20.080135703999588 ], [ 77.494672582473754, 20.079436789576221 ], [ 77.49418478569936, 20.079412407156898 ], [ 77.493080513554901, 20.079423066821107 ], [ 77.491286472192996, 20.079211864635909 ], [ 77.489856379268531, 20.079106974007686 ], [ 77.488550686864755, 20.079014923000329 ], [ 77.487288154724638, 20.078940688462069 ], [ 77.486240993127424, 20.078910431671147 ], [ 77.486045698150519, 20.07902444052559 ], [ 77.485594029840684, 20.079410741612495 ], [ 77.485090337549082, 20.079923946932642 ], [ 77.484796716994936, 20.080354557616772 ], [ 77.484281466616437, 20.081283275802608 ], [ 77.484022281103421, 20.081894375924776 ], [ 77.48383477425547, 20.082491609400279 ], [ 77.483825553506563, 20.082536775152107 ], [ 77.483801987671654, 20.082604682060492 ], [ 77.483696950453975, 20.082627728986552 ], [ 77.481968423803778, 20.082953476022173 ], [ 77.481228579435424, 20.083156366673052 ], [ 77.480528376283587, 20.083557665753744 ], [ 77.479194052163848, 20.084256023496721 ], [ 77.478941449688193, 20.084379350226872 ], [ 77.478685332662053, 20.083938161716844 ], [ 77.477902896401588, 20.082696173689499 ], [ 77.477840457371258, 20.082597026131907 ], [ 77.47733239707253, 20.08162885288931 ], [ 77.477164650128543, 20.081371553254655 ], [ 77.477033134171847, 20.08116983352107 ], [ 77.47627051537205, 20.080767684581019 ], [ 77.474850046092797, 20.079903834494417 ], [ 77.473627140779968, 20.079269286348563 ], [ 77.472730585947829, 20.078845176863467 ], [ 77.472139207058831, 20.07830645417954 ], [ 77.471470825518225, 20.077677801089692 ], [ 77.470514705889002, 20.076897174265245 ], [ 77.470072375239965, 20.076493260855329 ], [ 77.469787887512311, 20.076118246993584 ] ] ] } },
{ "type": "Feature", "properties": { "REGION": 1.0, "STATE.NAME": "Maharashtra", "DISTRICT.NAME": "Yavatmal", "DISTRICT.AREA": 13583.851744, "GRID_G0": "191955", "woodland": 0.14351143697446928, "maskWdl": 0.0, "cropland": 0.36131847858998489, "maskCrp": 0.0, "one": 0.48989859644484623, "maskOne": 1.0, "GRID.AREA": 22.964883883653147, "REGION.AREA": 32202.066020262951 }, "geometry": { "type": "Polygon", "coordinates": [ [ [ 77.366531414075837, 20.036593202522862 ], [ 77.366531414075837, 20.031115751171644 ], [ 77.411532665061301, 20.031115807849172 ], [ 77.411532665061301, 20.076117059161888 ], [ 77.366531414075837, 20.076116986977912 ], [ 77.366531414075837, 20.052654370571751 ], [ 77.366690487476092, 20.052529439082374 ], [ 77.367633307031554, 20.051788968785957 ], [ 77.369118145286222, 20.049982523075016 ], [ 77.369118175863207, 20.049982490699449 ], [ 77.370899334436785, 20.047970707282392 ], [ 77.372255063320551, 20.046164150954837 ], [ 77.371160299708094, 20.044199103505889 ], [ 77.369984290442687, 20.042265575495946 ], [ 77.36878203266474, 20.040194347790987 ], [ 77.367684948801411, 20.038416690278098 ], [ 77.367296517220566, 20.037802686245012 ], [ 77.366531414075837, 20.036593202522862 ] ] ] } },
{ "type": "Feature", "properties": { "REGION": 1.0, "STATE.NAME": "Maharashtra", "DISTRICT.NAME": "Yavatmal", "DISTRICT.AREA": 13583.851744, "GRID_G0": "191956", "woodland": 0.054682267687084632, "maskWdl": 0.0, "cropland": 0.55214993257973399, "maskCrp": 1.0, "one": 0.34456705066126153, "maskOne": 1.0, "GRID.AREA": 22.180053857036917, "REGION.AREA": 32202.066020262951 }, "geometry": { "type": "Polygon", "coordinates": [ [ [ 77.424791071468945, 20.076118245128509 ], [ 77.411532665061301, 20.076117059161888 ], [ 77.411532665061301, 20.031115807849172 ], [ 77.456533885822068, 20.031115820657298 ], [ 77.456533885822068, 20.06981461623041 ], [ 77.456010428238756, 20.069808907654988 ], [ 77.454084735122478, 20.069923198896561 ], [ 77.452622458159965, 20.070016888468668 ], [ 77.450553051582119, 20.070095672677216 ], [ 77.449401571325495, 20.07019216543614 ], [ 77.448321672607165, 20.070274707911494 ], [ 77.446830584963607, 20.070327858743724 ], [ 77.446003721294744, 20.070345864070418 ], [ 77.44555040452758, 20.070483801186526 ], [ 77.444973644118434, 20.070762390471998 ], [ 77.443858831020293, 20.071396064476858 ], [ 77.442505845968071, 20.072175583336559 ], [ 77.441367059642118, 20.072804877643026 ], [ 77.440995110835729, 20.072955874713902 ], [ 77.440507954378631, 20.073026199899235 ], [ 77.439633539955935, 20.07310761282611 ], [ 77.439250917096217, 20.073140661112685 ], [ 77.438520365422562, 20.073203761144725 ], [ 77.436848224466019, 20.073375324811419 ], [ 77.435558999548221, 20.073634908724099 ], [ 77.433678028818008, 20.074064844017411 ], [ 77.432723259970544, 20.074291186289262 ], [ 77.431104564823855, 20.074611338642395 ], [ 77.430092483081694, 20.074842468005556 ], [ 77.429056321991709, 20.075055708054549 ], [ 77.427127680897797, 20.075508365618646 ], [ 77.425924854748303, 20.075826266069384 ], [ 77.424791071468945, 20.076118245128509 ] ] ] } },
{ "type": "Feature", "properties": { "REGION": 1.0, "STATE.NAME": "Maharashtra", "DISTRICT.NAME": "Yavatmal", "DISTRICT.AREA": 13583.851744, "GRID_G0": "191957", "woodland": 0.25863518629209004, "maskWdl": 0.0, "cropland": 0.2269121338912134, "maskCrp": 0.0, "one": 0.49622171747360033, "maskOne": 1.0, "GRID.AREA": 22.761423878327083, "REGION.AREA": 32202.066020262951 }, "geometry": { "type": "Polygon", "coordinates": [ [ [ 77.456533885822068, 20.06981461623041 ], [ 77.456533885822068, 20.031115820657298 ], [ 77.501530685759349, 20.031115753074534 ], [ 77.501530685759349, 20.076117058056219 ], [ 77.469787887512311, 20.076118246993584 ], [ 77.469604892351981, 20.075877020208342 ], [ 77.469050584417005, 20.075134923937636 ], [ 77.468394869827421, 20.074230682599989 ], [ 77.467744060140319, 20.073340129843189 ], [ 77.466857735096482, 20.072238453142177 ], [ 77.465925023021441, 20.072153278351156 ], [ 77.464400189217429, 20.072179555642037 ], [ 77.464175329927571, 20.070586628769941 ], [ 77.463833952674861, 20.069481983406831 ], [ 77.462448759302845, 20.069656599372593 ], [ 77.460556493987042, 20.069788825793751 ], [ 77.45941375154348, 20.069754361074956 ], [ 77.457396971493097, 20.069824025258583 ], [ 77.456533885822068, 20.06981461623041 ] ] ] } },
{ "type": "Feature", "properties": { "REGION": 1.0, "STATE.NAME": "Maharashtra", "DISTRICT.NAME": "Yavatmal", "DISTRICT.AREA": 13583.851744, "GRID_G0": "191959", "woodland": 0.38168417673816524, "maskWdl": 0.0, "cropland": 0.2302570816058743, "maskCrp": 0.0, "one": 0.38150519516721071, "maskOne": 1.0, "GRID.AREA": 5.7893001871768588, "REGION.AREA": 32202.066020262951 }, "geometry": { "type": "MultiPolygon", "coordinates": [ [ [ [ 77.58258194497121, 20.031116663572444 ], [ 77.591533190519684, 20.031115745664522 ], [ 77.591533190519684, 20.033475533745744 ], [ 77.589494371368176, 20.03197002249857 ], [ 77.588177887099846, 20.032339428921546 ], [ 77.58659883406898, 20.03276335854224 ], [ 77.584528512880638, 20.033319148559883 ], [ 77.58258194497121, 20.031116663572444 ] ] ], [ [ [ 77.546531976600761, 20.066947084570131 ], [ 77.546531976600761, 20.031115804411929 ], [ 77.577509481495184, 20.031116983960519 ], [ 77.573995939061376, 20.033460030955723 ], [ 77.573169197700395, 20.03419358456631 ], [ 77.572566026001368, 20.03472872165321 ], [ 77.571559939139945, 20.035787030347251 ], [ 77.570815277103407, 20.03803148006881 ], [ 77.570815260016275, 20.038031522336951 ], [ 77.569836105152206, 20.040241299596342 ], [ 77.568097380190011, 20.042518868650916 ], [ 77.567126659168025, 20.042406140431069 ], [ 77.566174516340936, 20.042295545403135 ], [ 77.564298375869384, 20.042623019137071 ], [ 77.564440162083883, 20.043630166299181 ], [ 77.564509266889218, 20.044121015372639 ], [ 77.564015126297093, 20.044562080675519 ], [ 77.563448104646397, 20.04490371423509 ], [ 77.562425127617587, 20.045520024129871 ], [ 77.561640314448994, 20.046089281495199 ], [ 77.560492033080891, 20.047333460271034 ], [ 77.559738568480213, 20.047175240744821 ], [ 77.558840684450104, 20.04698664751584 ], [ 77.55646246956735, 20.046580828442533 ], [ 77.555521320952266, 20.047358712334756 ], [ 77.555678152824555, 20.047940329982278 ], [ 77.555104417734753, 20.048639209332123 ], [ 77.554531027984638, 20.050092261049031 ], [ 77.554839345259609, 20.051165325819174 ], [ 77.553062975575926, 20.054301025272139 ], [ 77.554007500245973, 20.056878638738226 ], [ 77.553561491369805, 20.057369012070296 ], [ 77.55244173829567, 20.058600053549693 ], [ 77.552095250195691, 20.058980962301629 ], [ 77.552526351909648, 20.060554557347022 ], [ 77.551419621018738, 20.061608849668744 ], [ 77.550874360263549, 20.062275956869943 ], [ 77.550874316196769, 20.062276000037404 ], [ 77.550684543956606, 20.062831678539169 ], [ 77.55045237407785, 20.063511371752444 ], [ 77.549863158957692, 20.065479407648585 ], [ 77.54839900780803, 20.065980260780464 ], [ 77.546531976600761, 20.066947084570131 ] ] ] ] } },
{ "type": "Feature", "properties": { "REGION": 1.0, "STATE.NAME": "Maharashtra", "DISTRICT.NAME": "Yavatmal", "DISTRICT.AREA": 13583.851744, "GRID_G0": "191977", "woodland": 0.35942572672442885, "maskWdl": 0.0, "cropland": 0.19494721071230678, "maskCrp": 0.0, "one": 0.43697393175237903, "maskOne": 1.0, "GRID.AREA": 23.521150736811613, "REGION.AREA": 32202.066020262951 }, "geometry": { "type": "Polygon", "coordinates": [ [ [ 78.356532096467092, 20.031115799962585 ], [ 78.401533409796329, 20.031115774251393 ], [ 78.401533409796329, 20.076116994377124 ], [ 78.356532096467092, 20.076117039562778 ], [ 78.356532096467092, 20.031115799962585 ] ] ] } },
{ "type": "Feature", "properties": { "REGION": 1.0, "STATE.NAME": "Maharashtra", "DISTRICT.NAME": "Yavatmal", "DISTRICT.AREA": 13583.851744, "GRID_G0": "191305", "woodland": 0.15985985880292278, "maskWdl": 0.0, "cropland": 0.41806479478371295, "maskCrp": 0.0, "one": 0.408722406912708, "maskOne": 1.0, "GRID.AREA": 23.527865901436865, "REGION.AREA": 32202.066020262951 }, "geometry": { "type": "Polygon", "coordinates": [ [ [ 77.366531414075837, 19.986114553195449 ], [ 77.411532665061301, 19.986114502300293 ], [ 77.411532665061301, 20.031115807849172 ], [ 77.366531414075837, 20.031115751171644 ], [ 77.366531414075837, 19.986114553195449 ] ] ] } },
{ "type": "Feature", "properties": { "REGION": 1.0, "STATE.NAME": "Maharashtra", "DISTRICT.NAME": "Yavatmal", "DISTRICT.AREA": 13583.851744, "GRID_G0": "191309", "woodland": 0.21049257707101576, "maskWdl": 0.0, "cropland": 0.40770176578578082, "maskCrp": 0.0, "one": 0.36812525732381263, "maskOne": 1.0, "GRID.AREA": 23.469510308834518, "REGION.AREA": 32202.066020262951 }, "geometry": { "type": "Polygon", "coordinates": [ [ [ 77.577509481495184, 20.031116983960519 ], [ 77.546531976600761, 20.031115804411929 ], [ 77.546531976600761, 19.986114576552524 ], [ 77.591533190519684, 19.986114498245975 ], [ 77.591533190519684, 20.031115745664522 ], [ 77.58258194497121, 20.031116663572444 ], [ 77.582134692961745, 20.030610599199861 ], [ 77.580595515870414, 20.029170294473545 ], [ 77.577816307676528, 20.030912366712414 ], [ 77.577509481495184, 20.031116983960519 ] ] ] } },
{ "type": "Feature", "properties": { "REGION": 1.0, "STATE.NAME": "Maharashtra", "DISTRICT.NAME": "Yavatmal", "DISTRICT.AREA": 13583.851744, "GRID_G0": "191310", "woodland": 0.42215190811738068, "maskWdl": 1.0, "cropland": 0.19522329304597846, "maskCrp": 0.0, "one": 0.37752000371851008, "maskOne": 1.0, "GRID.AREA": 23.527886460152097, "REGION.AREA": 32202.066020262951 }, "geometry": { "type": "Polygon", "coordinates": [ [ [ 77.591533190519684, 19.986114498245975 ], [ 77.636534486368078, 19.986114530397153 ], [ 77.636534486368078, 20.031115775412992 ], [ 77.591533190519684, 20.031115745664522 ], [ 77.591533190519684, 19.986114498245975 ] ] ] } },
{ "type": "Feature", "properties": { "REGION": 1.0, "STATE.NAME": "Maharashtra", "DISTRICT.NAME": "Yavatmal", "DISTRICT.AREA": 13583.851744, "GRID_G0": "191311", "woodland": 0.40767551305315375, "maskWdl": 1.0, "cropland": 0.24430644301967219, "maskCrp": 0.0, "one": 0.34468333824647163, "maskOne": 1.0, "GRID.AREA": 23.525492671192183, "REGION.AREA": 32202.066020262951 }, "geometry": { "type": "Polygon", "coordinates": [ [ [ 77.636534486368078, 19.986114530397153 ], [ 77.681531217347981, 19.98611453435349 ], [ 77.681531217347981, 20.031115754413264 ], [ 77.636534486368078, 20.031115775412992 ], [ 77.636534486368078, 19.986114530397153 ] ] ] } },
{ "type": "Feature", "properties": { "REGION": 1.0, "STATE.NAME": "Maharashtra", "DISTRICT.NAME": "Yavatmal", "DISTRICT.AREA": 13583.851744, "GRID_G0": "191312", "woodland": 0.33251119343250518, "maskWdl": 0.0, "cropland": 0.30238450747068102, "maskCrp": 0.0, "one": 0.36272964206827474, "maskOne": 1.0, "GRID.AREA": 23.527853545879445, "REGION.AREA": 32202.066020262951 }, "geometry": { "type": "Polygon", "coordinates": [ [ [ 77.681531217347981, 19.98611453435349 ], [ 77.726532454914178, 19.986114531094188 ], [ 77.726532454914178, 20.031115794133552 ], [ 77.681531217347981, 20.031115754413264 ], [ 77.681531217347981, 19.98611453435349 ] ] ] } },
{ "type": "Feature", "properties": { "REGION": 1.0, "STATE.NAME": "Maharashtra", "DISTRICT.NAME": "Yavatmal", "DISTRICT.AREA": 13583.851744, "GRID_G0": "191342", "woodland": 0.15398489946925173, "maskWdl": 0.0, "cropland": 0.45821088371080415, "maskCrp": 0.0, "one": 0.36093752515201188, "maskOne": 1.0, "GRID.AREA": 23.527874916694596, "REGION.AREA": 32202.066020262951 }, "geometry": { "type": "Polygon", "coordinates": [ [ [ 79.031532967179075, 19.986114533950214 ], [ 79.076534249862135, 19.98611454039532 ], [ 79.076534249862149, 20.031115785485689 ], [ 79.031532967179075, 20.031115763477594 ], [ 79.031532967179075, 19.986114533950214 ] ] ] } },
{ "type": "Feature", "properties": { "REGION": 1.0, "STATE.NAME": "Maharashtra", "DISTRICT.NAME": "Yavatmal", "DISTRICT.AREA": 13583.851744, "GRID_G0": "190655", "woodland": 0.40584309770270605, "maskWdl": 1.0, "cropland": 0.24096913999007583, "maskCrp": 0.0, "one": 0.35047997438549461, "maskOne": 1.0, "GRID.AREA": 23.532237644464285, "REGION.AREA": 32202.066020262951 }, "geometry": { "type": "Polygon", "coordinates": [ [ [ 77.366531414075837, 19.941117760066145 ], [ 77.411532665061301, 19.941117777827497 ], [ 77.411532665061301, 19.986114502300293 ], [ 77.366531414075837, 19.986114553195449 ], [ 77.366531414075837, 19.941117760066145 ] ] ] } },
{ "type": "Feature", "properties": { "REGION": 1.0, "STATE.NAME": "Maharashtra", "DISTRICT.NAME": "Yavatmal", "DISTRICT.AREA": 13583.851744, "GRID_G0": "190660", "woodland": 0.13280039256560133, "maskWdl": 0.0, "cropland": 0.49595743418319693, "maskCrp": 0.0, "one": 0.35872015114116484, "maskOne": 1.0, "GRID.AREA": 23.532264062631118, "REGION.AREA": 32202.066020262951 }, "geometry": { "type": "Polygon", "coordinates": [ [ [ 77.591533190519684, 19.941117733700544 ], [ 77.636534486368078, 19.941117766036601 ], [ 77.636534486368078, 19.986114530397153 ], [ 77.591533190519684, 19.986114498245975 ], [ 77.591533190519684, 19.941117733700544 ] ] ] } },
{ "type": "Feature", "properties": { "REGION": 1.0, "STATE.NAME": "Maharashtra", "DISTRICT.NAME": "Yavatmal", "DISTRICT.AREA": 13583.851744, "GRID_G0": "190693", "woodland": 0.23556025463168598, "maskWdl": 0.0, "cropland": 0.29041119453525555, "maskCrp": 0.0, "one": 0.37313257655783, "maskOne": 1.0, "GRID.AREA": 11.355640898651508, "REGION.AREA": 32202.066020262951 }, "geometry": { "type": "Polygon", "coordinates": [ [ [ 79.094247533804477, 19.986115902006592 ], [ 79.076534249862135, 19.98611454039532 ], [ 79.076534249862149, 19.941117709378947 ], [ 79.089494908706016, 19.941118877330055 ], [ 79.089678981200052, 19.94263667284423 ], [ 79.089830549340434, 19.944322387268414 ], [ 79.089589607474466, 19.945959843172258 ], [ 79.088978699807228, 19.947462694847559 ], [ 79.088636611190736, 19.948484146626129 ], [ 79.088586791447312, 19.948632905284398 ], [ 79.088580039337387, 19.94876229254584 ], [ 79.088580016854351, 19.948762402263132 ], [ 79.088564816513156, 19.949052957927734 ], [ 79.088534725197462, 19.94906428758685 ], [ 79.08854307450332, 19.949468511262811 ], [ 79.088781046807924, 19.950002007086994 ], [ 79.089046041042025, 19.95043594975931 ], [ 79.089650940338686, 19.950909930249111 ], [ 79.090766379364993, 19.951344845088553 ], [ 79.092024075850475, 19.951714539294585 ], [ 79.093611249759419, 19.952372608309304 ], [ 79.09569852496702, 19.953515375933875 ], [ 79.097024651766333, 19.954276594489276 ], [ 79.09828833503866, 19.955305050187977 ], [ 79.099370759952649, 19.956060911481924 ], [ 79.100765501426793, 19.956815620744351 ], [ 79.101197622072675, 19.957049373429872 ], [ 79.102155246267671, 19.957477554145839 ], [ 79.102653144227304, 19.957831269197754 ], [ 79.103332971439556, 19.959085009565573 ], [ 79.104145279581019, 19.960846682528427 ], [ 79.105058763251407, 19.962367709502242 ], [ 79.105688534198578, 19.963193320415428 ], [ 79.106452774475997, 19.964057603075958 ], [ 79.107101712673966, 19.964882956783068 ], [ 79.107757047749601, 19.966394244099149 ], [ 79.108695110790791, 19.968248842210361 ], [ 79.109169527451797, 19.970087703085085 ], [ 79.109018476421625, 19.971656109042275 ], [ 79.108539265474803, 19.97274178410612 ], [ 79.107736902935756, 19.973931583575794 ], [ 79.106286932296143, 19.974088406454825 ], [ 79.104682262976098, 19.974423502842455 ], [ 79.103330385888682, 19.975025717662788 ], [ 79.101574867885915, 19.975787334617845 ], [ 79.099995743808563, 19.976523712099663 ], [ 79.098367934032979, 19.977197648752565 ], [ 79.097013376066514, 19.977641894957515 ], [ 79.095986699226842, 19.977972870651513 ], [ 79.094804063756612, 19.978121187742659 ], [ 79.093668994328709, 19.978250670332216 ], [ 79.092608913070933, 19.978288877130012 ], [ 79.092086074213, 19.978463529068677 ], [ 79.091637936641519, 19.978817671298543 ], [ 79.091340617175774, 19.979336605300148 ], [ 79.091133854943507, 19.980431802385795 ], [ 79.091150129075245, 19.98143801785028 ], [ 79.091271478196234, 19.982731538829508 ], [ 79.091585486381121, 19.98353020785288 ], [ 79.092253944364089, 19.984373409505277 ], [ 79.093534692272272, 19.985559573915282 ], [ 79.094247533804477, 19.986115902006592 ] ] ] } },
{ "type": "Feature", "properties": { "REGION": 1.0, "STATE.NAME": "Maharashtra", "DISTRICT.NAME": "Yavatmal", "DISTRICT.AREA": 13583.851744, "GRID_G0": "190006", "woodland": 0.42688201723932201, "maskWdl": 1.0, "cropland": 0.21597814886963349, "maskCrp": 0.0, "one": 0.34838570366504773, "maskOne": 1.0, "GRID.AREA": 23.54127893495366, "REGION.AREA": 32202.066020262951 }, "geometry": { "type": "Polygon", "coordinates": [ [ [ 77.411532665061301, 19.896116526194191 ], [ 77.456533885822068, 19.896116452930599 ], [ 77.456533885822068, 19.941117706531525 ], [ 77.411532665061301, 19.941117777827497 ], [ 77.411532665061301, 19.896116526194191 ] ] ] } },
{ "type": "Feature", "properties": { "REGION": 1.0, "STATE.NAME": "Maharashtra", "DISTRICT.NAME": "Yavatmal", "DISTRICT.AREA": 13583.851744, "GRID_G0": "190011", "woodland": 0.020912865637349357, "maskWdl": 0.0, "cropland": 0.60534830156903885, "maskCrp": 1.0, "one": 0.35535489812172427, "maskOne": 1.0, "GRID.AREA": 23.538931041929349, "REGION.AREA": 32202.066020262951 }, "geometry": { "type": "Polygon", "coordinates": [ [ [ 77.636534486368078, 19.896116457502021 ], [ 77.681531217347981, 19.896116503575723 ], [ 77.681531217347981, 19.941117703426173 ], [ 77.636534486368078, 19.941117766036601 ], [ 77.636534486368078, 19.896116457502021 ] ] ] } },
{ "type": "Feature", "properties": { "REGION": 1.0, "STATE.NAME": "Maharashtra", "DISTRICT.NAME": "Yavatmal", "DISTRICT.AREA": 13583.851744, "GRID_G0": "189380", "woodland": 0.4688867928513164, "maskWdl": 1.0, "cropland": 0.14147496490332523, "maskCrp": 0.0, "one": 0.38959042389769738, "maskOne": 1.0, "GRID.AREA": 23.545637035373737, "REGION.AREA": 32202.066020262951 }, "geometry": { "type": "Polygon", "coordinates": [ [ [ 78.491535879173696, 19.85111527656078 ], [ 78.536532660272343, 19.851115281558481 ], [ 78.536532660272343, 19.896116474733329 ], [ 78.491535879173696, 19.896116544730734 ], [ 78.491535879173696, 19.85111527656078 ] ] ] } },
{ "type": "Feature", "properties": { "REGION": 1.0, "STATE.NAME": "Maharashtra", "DISTRICT.NAME": "Yavatmal", "DISTRICT.AREA": 13583.851744, "GRID_G0": "189392", "woodland": 0.10883874196697782, "maskWdl": 0.0, "cropland": 0.47511112363117325, "maskCrp": 0.0, "one": 0.38970850360097664, "maskOne": 1.0, "GRID.AREA": 23.548016220499811, "REGION.AREA": 32202.066020262951 }, "geometry": { "type": "Polygon", "coordinates": [ [ [ 79.031532967179075, 19.851115268741012 ], [ 79.076534249862149, 19.851115214269779 ], [ 79.076534249862149, 19.896116501554644 ], [ 79.031532967179075, 19.89611653308441 ], [ 79.031532967179075, 19.851115268741012 ] ] ] } },
{ "type": "Feature", "properties": { "REGION": 1.0, "STATE.NAME": "Maharashtra", "DISTRICT.NAME": "Yavatmal", "DISTRICT.AREA": 13583.851744, "GRID_G0": "188742", "woodland": 0.031141081489901693, "maskWdl": 0.0, "cropland": 0.55772335048656119, "maskCrp": 1.0, "one": 0.34756570735513703, "maskOne": 1.0, "GRID.AREA": 17.406061411869015, "REGION.AREA": 32202.066020262951 }, "geometry": { "type": "Polygon", "coordinates": [ [ [ 79.076534249862135, 19.821616592420195 ], [ 79.076534249862149, 19.851115214269779 ], [ 79.031532967179075, 19.851115268741012 ], [ 79.031532967179075, 19.806623687050923 ], [ 79.031847928639024, 19.807141196309203 ], [ 79.032866713927774, 19.808476012358145 ], [ 79.033734174792428, 19.810196793147554 ], [ 79.034320875408127, 19.812278166104534 ], [ 79.034490305882969, 19.814825752106803 ], [ 79.034706750216401, 19.815829231833618 ], [ 79.035075395812896, 19.816798873669143 ], [ 79.035572328800029, 19.817725974873895 ], [ 79.036186420067281, 19.818525002726744 ], [ 79.036877861124424, 19.819074769984699 ], [ 79.037746237498936, 19.81964901858737 ], [ 79.039377724602389, 19.820478510075244 ], [ 79.041241681058807, 19.821214374943512 ], [ 79.042868356789313, 19.821745883265976 ], [ 79.043697638735068, 19.821955128526383 ], [ 79.044241456078396, 19.821933723762417 ], [ 79.044849555162898, 19.821748886102284 ], [ 79.045541453075657, 19.821129568874539 ], [ 79.046461128578301, 19.820430109462052 ], [ 79.047459485766694, 19.819874132385337 ], [ 79.048500563450318, 19.81930381202136 ], [ 79.050125788574348, 19.81854001960625 ], [ 79.052102223239046, 19.817662849660852 ], [ 79.053668643493154, 19.81710742206991 ], [ 79.055121303105693, 19.816901268678631 ], [ 79.057050615093885, 19.816652089922062 ], [ 79.058637273691261, 19.816471011428064 ], [ 79.059310084392962, 19.816452205704763 ], [ 79.060135713292595, 19.816738156840529 ], [ 79.060745697356083, 19.81696852447789 ], [ 79.061094768308976, 19.81700849664486 ], [ 79.062681359457258, 19.816822872977241 ], [ 79.064283331710456, 19.816700275597274 ], [ 79.066003779750702, 19.81682411943763 ], [ 79.067462374888748, 19.816987840116781 ], [ 79.069538196330768, 19.817237467635096 ], [ 79.07075525694961, 19.817522041908777 ], [ 79.071827118426825, 19.817980383188168 ], [ 79.073466278545993, 19.81897642102507 ], [ 79.074990257094726, 19.82023150228207 ], [ 79.076443550729323, 19.821546226577141 ], [ 79.076534249862135, 19.821616592420195 ] ] ] } },
{ "type": "Feature", "properties": { "REGION": 1.0, "STATE.NAME": "Maharashtra", "DISTRICT.NAME": "Yavatmal", "DISTRICT.AREA": 13583.851744, "GRID_G0": "188056", "woodland": 0.1866123059625642, "maskWdl": 0.0, "cropland": 0.38744034724358056, "maskCrp": 0.0, "one": 0.38899986257617825, "maskOne": 1.0, "GRID.AREA": 23.561292906201587, "REGION.AREA": 32202.066020262951 }, "geometry": { "type": "Polygon", "coordinates": [ [ [ 77.411532665061301, 19.76111723868776 ], [ 77.456533885822068, 19.761117232095604 ], [ 77.456533885822068, 19.806118451767297 ], [ 77.411532665061301, 19.806118447761001 ], [ 77.411532665061301, 19.76111723868776 ] ] ] } },
{ "type": "Feature", "properties": { "REGION": 1.0, "STATE.NAME": "Maharashtra", "DISTRICT.NAME": "Yavatmal", "DISTRICT.AREA": 13583.851744, "GRID_G0": "188061", "woodland": 0.1294954883730568, "maskWdl": 0.0, "cropland": 0.4226990383803092, "maskCrp": 0.0, "one": 0.40222297845480959, "maskOne": 1.0, "GRID.AREA": 23.558988759557099, "REGION.AREA": 32202.066020262951 }, "geometry": { "type": "Polygon", "coordinates": [ [ [ 77.636534486368078, 19.761117184504091 ], [ 77.681531217347981, 19.761117183085933 ], [ 77.681531217347981, 19.806118480956549 ], [ 77.636534486368078, 19.806118493280252 ], [ 77.636534486368078, 19.761117184504091 ] ] ] } },
{ "type": "Feature", "properties": { "REGION": 1.0, "STATE.NAME": "Maharashtra", "DISTRICT.NAME": "Yavatmal", "DISTRICT.AREA": 13583.851744, "GRID_G0": "188079", "woodland": 0.020317999515542525, "maskWdl": 0.0, "cropland": 0.48439371854546232, "maskCrp": 0.0, "one": 0.48384568066416017, "maskOne": 1.0, "GRID.AREA": 1.1098971930434558, "REGION.AREA": 32202.066020262951 }, "geometry": { "type": "Polygon", "coordinates": [ [ [ 78.491535879173696, 19.792548257706372 ], [ 78.491535879173696, 19.806118430871031 ], [ 78.481673637209624, 19.806119393565737 ], [ 78.482497079276868, 19.804774713981942 ], [ 78.483165153249274, 19.803810676721412 ], [ 78.483616906095392, 19.802086590923466 ], [ 78.483617761350672, 19.802075240579942 ], [ 78.48361779012896, 19.802074861066046 ], [ 78.483683214009204, 19.801207208645796 ], [ 78.483887581346835, 19.79943692467441 ], [ 78.483985378122782, 19.79827118296879 ], [ 78.483985661409179, 19.798267791625335 ], [ 78.48446169235325, 19.796959039727938 ], [ 78.485052845512499, 19.796052938592315 ], [ 78.485958088694872, 19.795194970071861 ], [ 78.48731987451265, 19.793980229703887 ], [ 78.488528540859534, 19.793287525099231 ], [ 78.490255946055129, 19.792685352547039 ], [ 78.491303945820505, 19.792550920988276 ], [ 78.491306149159527, 19.792550638601142 ], [ 78.491535879173696, 19.792548257706372 ] ] ] } },
{ "type": "Feature", "properties": { "REGION": 1.0, "STATE.NAME": "Maharashtra", "DISTRICT.NAME": "Yavatmal", "DISTRICT.AREA": 13583.851744, "GRID_G0": "188087", "woodland": 0.025829167695250028, "maskWdl": 0.0, "cropland": 0.59911867590588552, "maskCrp": 1.0, "one": 0.34689318014863002, "maskOne": 1.0, "GRID.AREA": 23.193698942786764, "REGION.AREA": 32202.066020262951 }, "geometry": { "type": "Polygon", "coordinates": [ [ [ 78.851532483715133, 19.766686970755096 ], [ 78.851532483715147, 19.806118441951476 ], [ 78.806535721790198, 19.806118484939631 ], [ 78.806535721790198, 19.761117244962982 ], [ 78.813901153557779, 19.761118014618766 ], [ 78.814734728924634, 19.76153700612798 ], [ 78.816933989512052, 19.761838181886617 ], [ 78.818514130722633, 19.761569485143696 ], [ 78.819076755344483, 19.761118375217041 ], [ 78.836305754712185, 19.761118503769303 ], [ 78.836449079161753, 19.761169568320952 ], [ 78.840978220568516, 19.761895940845022 ], [ 78.842690378658119, 19.76249202858429 ], [ 78.84622827021856, 19.763294320076852 ], [ 78.848128720264299, 19.764041305062221 ], [ 78.84941552960305, 19.764918224096785 ], [ 78.850794552726484, 19.76589774768297 ], [ 78.851532483715133, 19.766686970755096 ] ] ] } },
{ "type": "Feature", "properties": { "REGION": 1.0, "STATE.NAME": "Maharashtra", "DISTRICT.NAME": "Yavatmal", "DISTRICT.AREA": 13583.851744, "GRID_G0": "187411", "woodland": 0.25660645115929021, "maskWdl": 0.0, "cropland": 0.29030782793624232, "maskCrp": 0.0, "one": 0.44081734039526504, "maskOne": 1.0, "GRID.AREA": 23.565596551986772, "REGION.AREA": 32202.066020262951 }, "geometry": { "type": "Polygon", "coordinates": [ [ [ 77.636534486368078, 19.716115954892249 ], [ 77.681531217347981, 19.716115961534079 ], [ 77.681531217347981, 19.761117183085933 ], [ 77.636534486368078, 19.761117184504091 ], [ 77.636534486368078, 19.716115954892249 ] ] ] } },
{ "type": "Feature", "properties": { "REGION": 1.0, "STATE.NAME": "Maharashtra", "DISTRICT.NAME": "Yavatmal", "DISTRICT.AREA": 13583.851744, "GRID_G0": "186763", "woodland": 0.28711230200763926, "maskWdl": 0.0, "cropland": 0.29417878309513801, "maskCrp": 0.0, "one": 0.41029993787553054, "maskOne": 1.0, "GRID.AREA": 23.574635619427951, "REGION.AREA": 32202.066020262951 }, "geometry": { "type": "Polygon", "coordinates": [ [ [ 77.726532454914178, 19.671114698059444 ], [ 77.771533724775892, 19.671114692895415 ], [ 77.771533724775892, 19.716115946363981 ], [ 77.726532454914178, 19.716116000185824 ], [ 77.726532454914178, 19.671114698059444 ] ] ] } },
{ "type": "Feature", "properties": { "REGION": 1.0, "STATE.NAME": "Maharashtra", "DISTRICT.NAME": "Yavatmal", "DISTRICT.AREA": 13583.851744, "GRID_G0": "186764", "woodland": 0.27723943501269305, "maskWdl": 0.0, "cropland": 0.31537264244049917, "maskCrp": 0.0, "one": 0.36581561420189584, "maskOne": 1.0, "GRID.AREA": 23.57463575119241, "REGION.AREA": 32202.066020262951 }, "geometry": { "type": "Polygon", "coordinates": [ [ [ 77.771533724775892, 19.671114692895415 ], [ 77.816535009901216, 19.671114713841053 ], [ 77.816535009901216, 19.716115985943503 ], [ 77.771533724775892, 19.716115946363981 ], [ 77.771533724775892, 19.671114692895415 ] ] ] } },
{ "type": "Feature", "properties": { "REGION": 1.0, "STATE.NAME": "Maharashtra", "DISTRICT.NAME": "Yavatmal", "DISTRICT.AREA": 13583.851744, "GRID_G0": "186115", "woodland": 0.13231691669470144, "maskWdl": 0.0, "cropland": 0.43206166434582177, "maskCrp": 0.0, "one": 0.40761228488436779, "maskOne": 1.0, "GRID.AREA": 23.576535953350984, "REGION.AREA": 32202.066020262951 }, "geometry": { "type": "Polygon", "coordinates": [ [ [ 77.816535009901216, 19.626117964240127 ], [ 77.861531757373555, 19.626117889610885 ], [ 77.861531757373555, 19.671114726865959 ], [ 77.816535009901216, 19.671114713841053 ], [ 77.816535009901216, 19.626117964240127 ] ] ] } },
{ "type": "Feature", "properties": { "REGION": 1.0, "STATE.NAME": "Maharashtra", "DISTRICT.NAME": "Yavatmal", "DISTRICT.AREA": 13583.851744, "GRID_G0": "186116", "woodland": 0.31591230526541364, "maskWdl": 0.0, "cropland": 0.29538006191556609, "maskCrp": 0.0, "one": 0.38870763281902032, "maskOne": 1.0, "GRID.AREA": 23.578920170369379, "REGION.AREA": 32202.066020262951 }, "geometry": { "type": "Polygon", "coordinates": [ [ [ 77.861531757373555, 19.626117889610885 ], [ 77.906533022918595, 19.62611791960941 ], [ 77.906533022918595, 19.671114733798611 ], [ 77.861531757373555, 19.671114726865959 ], [ 77.861531757373555, 19.626117889610885 ] ] ] } },
{ "type": "Feature", "properties": { "REGION": 1.0, "STATE.NAME": "Maharashtra", "DISTRICT.NAME": "Yavatmal", "DISTRICT.AREA": 13583.851744, "GRID_G0": "185468", "woodland": 0.58119131168580229, "maskWdl": 1.0, "cropland": 0.027379322538404686, "maskCrp": 0.0, "one": 0.39142936577579307, "maskOne": 1.0, "GRID.AREA": 23.585511551914728, "REGION.AREA": 32202.066020262951 }, "geometry": { "type": "Polygon", "coordinates": [ [ [ 77.951534251315636, 19.58111664935873 ], [ 77.996531068852022, 19.58111668658708 ], [ 77.996531068852022, 19.626117903074945 ], [ 77.951534251315636, 19.6261179300473 ], [ 77.951534251315636, 19.58111664935873 ] ] ] } },
{ "type": "Feature", "properties": { "REGION": 1.0, "STATE.NAME": "Telangana", "DISTRICT.NAME": "Adilabad", "DISTRICT.AREA": 3996.656205, "GRID_G0": "188079", "woodland": 0.020317999515542525, "maskWdl": 0.0, "cropland": 0.48439371854546232, "maskCrp": 0.0, "one": 0.48384568066416017, "maskOne": 1.0, "GRID.AREA": 22.451404954069577, "REGION.AREA": 32202.066020262951 }, "geometry": { "type": "Polygon", "coordinates": [ [ [ 78.481673637209624, 19.806119393565737 ], [ 78.446534648681762, 19.806118424451348 ], [ 78.446534648681762, 19.761117178475978 ], [ 78.491535879173696, 19.761117232278892 ], [ 78.491535879173696, 19.792548257706372 ], [ 78.491306149159527, 19.792550638601142 ], [ 78.491303945820505, 19.792550920988276 ], [ 78.490255946055129, 19.792685352547039 ], [ 78.488528540859534, 19.793287525099231 ], [ 78.48731987451265, 19.793980229703887 ], [ 78.485958088694872, 19.795194970071861 ], [ 78.485052845512499, 19.796052938592315 ], [ 78.48446169235325, 19.796959039727938 ], [ 78.483985661409179, 19.798267791625335 ], [ 78.483985378122782, 19.79827118296879 ], [ 78.483887581346835, 19.79943692467441 ], [ 78.483683214009204, 19.801207208645796 ], [ 78.48361779012896, 19.802074861066046 ], [ 78.483617761350672, 19.802075240579942 ], [ 78.483616906095392, 19.802086590923466 ], [ 78.483165153249274, 19.803810676721412 ], [ 78.482497079276868, 19.804774713981942 ], [ 78.481673637209624, 19.806119393565737 ] ] ] } },
{ "type": "Feature", "properties": { "REGION": 1.0, "STATE.NAME": "Telangana", "DISTRICT.NAME": "Adilabad", "DISTRICT.AREA": 3996.656205, "GRID_G0": "188087", "woodland": 0.025829167695250028, "maskWdl": 0.0, "cropland": 0.59911867590588552, "maskCrp": 1.0, "one": 0.34689318014863002, "maskOne": 1.0, "GRID.AREA": 0.049548013608057551, "REGION.AREA": 32202.066020262951 }, "geometry": { "type": "MultiPolygon", "coordinates": [ [ [ [ 78.836305754712185, 19.761118503769303 ], [ 78.840739018388348, 19.761118270186497 ], [ 78.840758923585497, 19.761253322183109 ], [ 78.840978220568516, 19.761895940845022 ], [ 78.836449079161753, 19.761169568320952 ], [ 78.836305754712185, 19.761118503769303 ] ] ], [ [ [ 78.813901153557779, 19.761118014618766 ], [ 78.819076755344483, 19.761118375217041 ], [ 78.818514130722633, 19.761569485143696 ], [ 78.816933989512052, 19.761838181886617 ], [ 78.814734728924634, 19.76153700612798 ], [ 78.813901153557779, 19.761118014618766 ] ] ] ] } },
{ "type": "Feature", "properties": { "REGION": 1.0, "STATE.NAME": "Telangana", "DISTRICT.NAME": "Adilabad", "DISTRICT.AREA": 3996.656205, "GRID_G0": "185488", "woodland": 0.2341536750529927, "maskWdl": 0.0, "cropland": 0.38125531763341491, "maskCrp": 0.0, "one": 0.38266070267347446, "maskOne": 1.0, "GRID.AREA": 23.587830253759485, "REGION.AREA": 32202.066020262951 }, "geometry": { "type": "Polygon", "coordinates": [ [ [ 78.851532483715133, 19.581116673156693 ], [ 78.896533706099333, 19.581116644908409 ], [ 78.896533706099333, 19.626117885277388 ], [ 78.851532483715133, 19.626117967581411 ], [ 78.851532483715133, 19.581116673156693 ] ] ] } },
{ "type": "Feature", "properties": { "REGION": 1.0, "STATE.NAME": "Telangana", "DISTRICT.NAME": "Adilabad", "DISTRICT.AREA": 3996.656205, "GRID_G0": "184835", "woodland": 0.38143343684472036, "maskWdl": 0.0, "cropland": 0.20591511949780009, "maskCrp": 0.0, "one": 0.40904137085756476, "maskOne": 1.0, "GRID.AREA": 23.594428768905782, "REGION.AREA": 32202.066020262951 }, "geometry": { "type": "Polygon", "coordinates": [ [ [ 78.716533203310703, 19.536115450690328 ], [ 78.761534456541753, 19.536115452443557 ], [ 78.761534456541753, 19.581116710354436 ], [ 78.716533203310703, 19.58111669463716 ], [ 78.716533203310703, 19.536115450690328 ] ] ] } },
{ "type": "Feature", "properties": { "REGION": 1.0, "STATE.NAME": "Telangana", "DISTRICT.NAME": "Adilabad", "DISTRICT.AREA": 3996.656205, "GRID_G0": "184839", "woodland": 0.4418318177302894, "maskWdl": 1.0, "cropland": 0.18748469467199302, "maskCrp": 0.0, "one": 0.37016234517325602, "maskOne": 1.0, "GRID.AREA": 22.845871999873825, "REGION.AREA": 32202.066020262951 }, "geometry": { "type": "Polygon", "coordinates": [ [ [ 78.941534957368745, 19.561772040832178 ], [ 78.941534957368745, 19.581116708800007 ], [ 78.896533706099333, 19.581116644908409 ], [ 78.896533706099333, 19.536115476434642 ], [ 78.941534957368745, 19.536115434455866 ], [ 78.941534957368745, 19.541023188453131 ], [ 78.941396476166517, 19.541176269069638 ], [ 78.94055156040622, 19.542041367415209 ], [ 78.938455529399235, 19.543353338885538 ], [ 78.936712735904109, 19.54514173430363 ], [ 78.936023213100839, 19.546211034511661 ], [ 78.935584986058302, 19.547408535775336 ], [ 78.935416933344868, 19.549953219665383 ], [ 78.938019127980454, 19.550834271084796 ], [ 78.940458150523284, 19.551876529578241 ], [ 78.940599211884205, 19.552699069306641 ], [ 78.940677150729982, 19.553074334812777 ], [ 78.940758275873804, 19.553634638527797 ], [ 78.94067607424148, 19.554383289057572 ], [ 78.940590866175569, 19.554924400340838 ], [ 78.940284462657871, 19.555716650003433 ], [ 78.940060928968762, 19.556274686527615 ], [ 78.939486400676913, 19.557259129405338 ], [ 78.939014798893936, 19.558460921334532 ], [ 78.938431821471454, 19.559896539693625 ], [ 78.937687271850166, 19.56188181739202 ], [ 78.939153949195443, 19.561878894595338 ], [ 78.941087967335875, 19.561798084214274 ], [ 78.941534957368745, 19.561772040832178 ] ] ] } },
{ "type": "Feature", "properties": { "REGION": 1.0, "STATE.NAME": "Telangana", "DISTRICT.NAME": "Adilabad", "DISTRICT.AREA": 3996.656205, "GRID_G0": "184840", "woodland": 0.27382510395770604, "maskWdl": 0.0, "cropland": 0.35254234369997045, "maskCrp": 0.0, "one": 0.3653867169276041, "maskOne": 1.0, "GRID.AREA": 4.4907515675606788, "REGION.AREA": 32202.066020262951 }, "geometry": { "type": "MultiPolygon", "coordinates": [ [ [ [ 78.971865513865623, 19.581117923470185 ], [ 78.941534957368745, 19.581116708800007 ], [ 78.941534957368745, 19.561772040832178 ], [ 78.945361291190693, 19.561549058342393 ], [ 78.946503633436009, 19.561615963406044 ], [ 78.946674464155251, 19.561680469078453 ], [ 78.948045008470444, 19.562981251183832 ], [ 78.948617670669023, 19.563423225701342 ], [ 78.949904826246794, 19.563834244654743 ], [ 78.951148555361613, 19.564321652921986 ], [ 78.952557592458959, 19.564986228531666 ], [ 78.954049740403264, 19.565967394279877 ], [ 78.955119221375014, 19.566805659553612 ], [ 78.959142507620697, 19.569881270804046 ], [ 78.961683893696772, 19.571871966917797 ], [ 78.962199918391605, 19.572254796621621 ], [ 78.963253483161793, 19.572709173689475 ], [ 78.965178644778689, 19.573752052715122 ], [ 78.966298593005718, 19.574247478438455 ], [ 78.966906458266479, 19.575064261606428 ], [ 78.967821235161921, 19.576212792086721 ], [ 78.968736029144509, 19.577361226339576 ], [ 78.969286568020777, 19.578200204775669 ], [ 78.969975116858222, 19.579053641612347 ], [ 78.971717636959454, 19.580925737832558 ], [ 78.971865513865623, 19.581117923470185 ] ] ], [ [ [ 78.941534957368745, 19.541023188453131 ], [ 78.941534957368745, 19.536115434455866 ], [ 78.94609643824073, 19.536115940600588 ], [ 78.944775893692622, 19.537156212289403 ], [ 78.943457354473367, 19.538898081281506 ], [ 78.941534957368745, 19.541023188453131 ] ] ] ] } },
{ "type": "Feature", "properties": { "REGION": 1.0, "STATE.NAME": "Telangana", "DISTRICT.NAME": "Adilabad", "DISTRICT.AREA": 3996.656205, "GRID_G0": "184185", "woodland": 0.27262870095520514, "maskWdl": 0.0, "cropland": 0.36535651042466671, "maskCrp": 0.0, "one": 0.35599029402920385, "maskOne": 1.0, "GRID.AREA": 23.601012269806425, "REGION.AREA": 32202.066020262951 }, "geometry": { "type": "Polygon", "coordinates": [ [ [ 78.716533203310703, 19.491114194591063 ], [ 78.761534456541753, 19.491114179718039 ], [ 78.761534456541753, 19.536115452443557 ], [ 78.716533203310703, 19.536115450690328 ], [ 78.716533203310703, 19.491114194591063 ] ] ] } },
{ "type": "Feature", "properties": { "REGION": 1.0, "STATE.NAME": "Telangana", "DISTRICT.NAME": "Adilabad", "DISTRICT.AREA": 3996.656205, "GRID_G0": "182232", "woodland": 0.098851537924628252, "maskWdl": 0.0, "cropland": 0.52637496388625038, "maskCrp": 0.0, "one": 0.37021097603712966, "maskOne": 1.0, "GRID.AREA": 23.620623894548213, "REGION.AREA": 32202.066020262951 }, "geometry": { "type": "Polygon", "coordinates": [ [ [ 78.58153389932626, 19.356114940238093 ], [ 78.626535152789216, 19.356114911836023 ], [ 78.626535152789216, 19.40111611994131 ], [ 78.58153389932626, 19.401116147523151 ], [ 78.58153389932626, 19.356114940238093 ] ] ] } },
{ "type": "Feature", "properties": { "REGION": 1.0, "STATE.NAME": "Telangana", "DISTRICT.NAME": "Adilabad", "DISTRICT.AREA": 3996.656205, "GRID_G0": "182233", "woodland": 0.30896763307505859, "maskWdl": 0.0, "cropland": 0.31275379792693431, "maskCrp": 0.0, "one": 0.3764644432754139, "maskOne": 1.0, "GRID.AREA": 23.618297664044224, "REGION.AREA": 32202.066020262951 }, "geometry": { "type": "Polygon", "coordinates": [ [ [ 78.626535152789216, 19.356114911836023 ], [ 78.671531984763533, 19.356114938867652 ], [ 78.671531984763533, 19.401116125406123 ], [ 78.626535152789216, 19.40111611994131 ], [ 78.626535152789216, 19.356114911836023 ] ] ] } },
{ "type": "Feature", "properties": { "REGION": 1.0, "STATE.NAME": "Telangana", "DISTRICT.NAME": "Adilabad", "DISTRICT.AREA": 3996.656205, "GRID_G0": "182234", "woodland": 0.37410024931939539, "maskWdl": 0.0, "cropland": 0.14834691742011499, "maskCrp": 0.0, "one": 0.4770925276325057, "maskOne": 1.0, "GRID.AREA": 23.620630154861086, "REGION.AREA": 32202.066020262951 }, "geometry": { "type": "Polygon", "coordinates": [ [ [ 78.671531984763533, 19.356114938867652 ], [ 78.716533203310703, 19.356114866398869 ], [ 78.716533203310703, 19.401116188936175 ], [ 78.671531984763533, 19.401116125406123 ], [ 78.671531984763533, 19.356114938867652 ] ] ] } },
{ "type": "Feature", "properties": { "REGION": 1.0, "STATE.NAME": "Telangana", "DISTRICT.NAME": "Adilabad", "DISTRICT.AREA": 3996.656205, "GRID_G0": "181585", "woodland": 0.40655856456753553, "maskWdl": 1.0, "cropland": 0.1947509260872608, "maskCrp": 0.0, "one": 0.39767821789517666, "maskOne": 1.0, "GRID.AREA": 22.72940862466665, "REGION.AREA": 32202.066020262951 }, "geometry": { "type": "Polygon", "coordinates": [ [ [ 78.721185947747571, 19.311118592883144 ], [ 78.761534456541753, 19.31111814587199 ], [ 78.761534456541753, 19.356114875527268 ], [ 78.716533203310703, 19.356114866398869 ], [ 78.716533203310703, 19.32480951486129 ], [ 78.716578572243364, 19.324821674480745 ], [ 78.722537619515606, 19.326410611960231 ], [ 78.722208969468397, 19.322827463816452 ], [ 78.721778600701896, 19.31788444091427 ], [ 78.721520255155738, 19.31441921187718 ], [ 78.721218698084499, 19.31150896166929 ], [ 78.721185947747571, 19.311118592883144 ] ] ] } },
{ "type": "Feature", "properties": { "REGION": 1.0, "STATE.NAME": "Telangana", "DISTRICT.NAME": "Adilabad", "DISTRICT.AREA": 3996.656205, "GRID_G0": "181586", "woodland": 0.19615306611563993, "maskWdl": 0.0, "cropland": 0.44567980973320337, "maskCrp": 0.0, "one": 0.35579237522308094, "maskOne": 1.0, "GRID.AREA": 23.624798124601195, "REGION.AREA": 32202.066020262951 }, "geometry": { "type": "Polygon", "coordinates": [ [ [ 78.761534456541753, 19.31111814587199 ], [ 78.806535721790198, 19.311118148292795 ], [ 78.806535721790198, 19.356114882991449 ], [ 78.761534456541753, 19.356114875527268 ], [ 78.761534456541753, 19.31111814587199 ] ] ] } },
{ "type": "Feature", "properties": { "REGION": 1.0, "STATE.NAME": "Telangana", "DISTRICT.NAME": "Adilabad", "DISTRICT.AREA": 3996.656205, "GRID_G0": "181588", "woodland": 0.46201374518105759, "maskWdl": 1.0, "cropland": 0.19075150348779199, "maskCrp": 0.0, "one": 0.34539147889435173, "maskOne": 1.0, "GRID.AREA": 2.7235581497493317, "REGION.AREA": 32202.066020262951 }, "geometry": { "type": "Polygon", "coordinates": [ [ [ 78.854829125380306, 19.356115263506133 ], [ 78.851532483715147, 19.356114886576876 ], [ 78.851532483715147, 19.311118079712916 ], [ 78.854277648457, 19.311118399454489 ], [ 78.8543246633526, 19.311741540739547 ], [ 78.855129348840421, 19.313314391146264 ], [ 78.855755945180761, 19.315138783727949 ], [ 78.856443454401983, 19.317636350337356 ], [ 78.856698937406065, 19.319480474044667 ], [ 78.857699821689494, 19.322034559447392 ], [ 78.858246859505016, 19.323713795155584 ], [ 78.858372392272145, 19.324057867676515 ], [ 78.857811258482855, 19.325728662347956 ], [ 78.857666668182276, 19.325962377261934 ], [ 78.85758406275437, 19.326164883902322 ], [ 78.857487082562841, 19.326385466016518 ], [ 78.857452187968136, 19.326574749924816 ], [ 78.857455230374626, 19.32677351088887 ], [ 78.857500973491213, 19.326990508305357 ], [ 78.857612808684223, 19.327262292420926 ], [ 78.857663251657812, 19.327483918648003 ], [ 78.857676373665754, 19.327623981761402 ], [ 78.857679880122419, 19.327768469539311 ], [ 78.857612168366927, 19.327903408315706 ], [ 78.857452542301019, 19.328787128922897 ], [ 78.857571006396881, 19.328837727479197 ], [ 78.858013458454423, 19.329942733470435 ], [ 78.858171271487038, 19.3304045164553 ], [ 78.858314559569351, 19.331457536236371 ], [ 78.857663674339165, 19.333619818499866 ], [ 78.857775855771195, 19.335539559902823 ], [ 78.857489248130378, 19.337379458595194 ], [ 78.857174227308803, 19.339192047575011 ], [ 78.857030339378696, 19.341028551326644 ], [ 78.856915404222605, 19.343926218220421 ], [ 78.856513958552398, 19.346406382048936 ], [ 78.855692359514819, 19.349623729151801 ], [ 78.855290558612467, 19.351575638405055 ], [ 78.855036462362932, 19.352932644326131 ], [ 78.854860542380209, 19.354606374384733 ], [ 78.854829125380306, 19.356115263506133 ] ] ] } }
]
}
