{
"type": "FeatureCollection",
"name": "Region 2 Selected Cropland",
"crs": { "type": "name", "properties": { "name": "urn:ogc:def:crs:OGC:1.3:CRS84" } },
"features": [
{ "type": "Feature", "properties": { "REGION": 2.0, "STATE.NAME": "Maharashtra", "DISTRICT.NAME": "Bid", "DISTRICT.AREA": 10603.290349, "GRID_G0": "176325", "woodland": 0.013777686094811524, "maskWdl": 0.0, "cropland": 0.51651775978410996, "maskCrp": 0.0, "one": 0.42320635809326068, "maskOne": 1.0, "GRID.AREA": 23.676456159503338, "REGION.AREA": 59928.662280600729 }, "geometry": { "type": "Polygon", "coordinates": [ [ [ 76.016529660900304, 18.951117064138916 ], [ 76.061530950579169, 18.951117070650714 ], [ 76.061530950579169, 18.996113842302229 ], [ 76.016529660900304, 18.996113875842909 ], [ 76.016529660900304, 18.951117064138916 ] ] ] } },
{ "type": "Feature", "properties": { "REGION": 2.0, "STATE.NAME": "Maharashtra", "DISTRICT.NAME": "Bid", "DISTRICT.AREA": 10603.290349, "GRID_G0": "175663", "woodland": 0.0204932764819231, "maskWdl": 0.0, "cropland": 0.36091083505157251, "maskCrp": 0.0, "one": 0.61344221729189008, "maskOne": 1.0, "GRID.AREA": 23.682792272970222, "REGION.AREA": 59928.662280600729 }, "geometry": { "type": "Polygon", "coordinates": [ [ [ 75.47653254909001, 18.906115829238143 ], [ 75.521529301354491, 18.906115783535963 ], [ 75.521529301354491, 18.951117047354337 ], [ 75.47653254909001, 18.951117034366217 ], [ 75.47653254909001, 18.906115829238143 ] ] ] } },
{ "type": "Feature", "properties": { "REGION": 2.0, "STATE.NAME": "Maharashtra", "DISTRICT.NAME": "Bid", "DISTRICT.AREA": 10603.290349, "GRID_G0": "175668", "woodland": 0.033730144259194274, "maskWdl": 0.0, "cropland": 0.43067127463927235, "maskCrp": 0.0, "one": 0.46905084014196963, "maskOne": 1.0, "GRID.AREA": 23.685192908532791, "REGION.AREA": 59928.662280600729 }, "geometry": { "type": "Polygon", "coordinates": [ [ [ 75.701529839824033, 18.906115788945943 ], [ 75.746531141771456, 18.906115841850085 ], [ 75.746531141771456, 18.951117060622447 ], [ 75.701529839824033, 18.951117062064437 ], [ 75.701529839824033, 18.906115788945943 ] ] ] } },
{ "type": "Feature", "properties": { "REGION": 2.0, "STATE.NAME": "Maharashtra", "DISTRICT.NAME": "Bid", "DISTRICT.AREA": 10603.290349, "GRID_G0": "175015", "woodland": 0.040038155483595649, "maskWdl": 0.0, "cropland": 0.2997365056255033, "maskCrp": 0.0, "one": 0.64975808164301274, "maskOne": 1.0, "GRID.AREA": 23.691531153817483, "REGION.AREA": 59928.662280600729 }, "geometry": { "type": "Polygon", "coordinates": [ [ [ 75.566530568072068, 18.86111454279434 ], [ 75.611531809473433, 18.861114559168609 ], [ 75.611531809473433, 18.906115809857024 ], [ 75.566530568072068, 18.90611577590667 ], [ 75.566530568072068, 18.86111454279434 ] ] ] } },
{ "type": "Feature", "properties": { "REGION": 2.0, "STATE.NAME": "Maharashtra", "DISTRICT.NAME": "Bid", "DISTRICT.AREA": 10603.290349, "GRID_G0": "175028", "woodland": 0.0040976394634289108, "maskWdl": 0.0, "cropland": 0.22988518093683832, "maskCrp": 0.0, "one": 0.76354461666351947, "maskOne": 1.0, "GRID.AREA": 23.689196253098864, "REGION.AREA": 59928.662280600729 }, "geometry": { "type": "Polygon", "coordinates": [ [ [ 76.151533451249307, 18.861114531005526 ], [ 76.196530222433793, 18.861114548791303 ], [ 76.196530222433793, 18.906115819836497 ], [ 76.151533451249307, 18.906115814080145 ], [ 76.151533451249307, 18.861114531005526 ] ] ] } },
{ "type": "Feature", "properties": { "REGION": 2.0, "STATE.NAME": "Maharashtra", "DISTRICT.NAME": "Bid", "DISTRICT.AREA": 10603.290349, "GRID_G0": "174377", "woodland": 0.013154995605775217, "maskWdl": 0.0, "cropland": 0.38898778155823677, "maskCrp": 0.0, "one": 0.54845570642740482, "maskOne": 1.0, "GRID.AREA": 23.695581940554266, "REGION.AREA": 59928.662280600729 }, "geometry": { "type": "Polygon", "coordinates": [ [ [ 76.106532128531541, 18.816117723105286 ], [ 76.151533451249307, 18.816117787652221 ], [ 76.151533451249307, 18.861114531005526 ], [ 76.106532128531541, 18.861114540964422 ], [ 76.106532128531541, 18.816117723105286 ] ] ] } },
{ "type": "Feature", "properties": { "REGION": 2.0, "STATE.NAME": "Maharashtra", "DISTRICT.NAME": "Hingoli", "DISTRICT.AREA": 4890.910828, "GRID_G0": "189993", "woodland": 0.005455050524774338, "maskWdl": 0.0, "cropland": 0.88695938446817146, "maskCrp": 1.0, "one": 0.101906143986565, "maskOne": 0.0, "GRID.AREA": 23.526382255413523, "REGION.AREA": 59928.662280600729 }, "geometry": { "type": "Polygon", "coordinates": [ [ [ 76.826534291071354, 19.939085424217616 ], [ 76.826534291071354, 19.896116512361697 ], [ 76.871531086720481, 19.896116485465985 ], [ 76.871531086720481, 19.941117776362574 ], [ 76.827600767808121, 19.941117912897013 ], [ 76.826534291071354, 19.939085424217616 ] ] ] } },
{ "type": "Feature", "properties": { "REGION": 2.0, "STATE.NAME": "Maharashtra", "DISTRICT.NAME": "Hingoli", "DISTRICT.AREA": 4890.910828, "GRID_G0": "186096", "woodland": 0.042580446398478605, "maskWdl": 0.0, "cropland": 0.37015839839168685, "maskCrp": 0.0, "one": 0.58404457354721739, "maskOne": 1.0, "GRID.AREA": 23.576534956424954, "REGION.AREA": 59928.662280600729 }, "geometry": { "type": "Polygon", "coordinates": [ [ [ 76.961533611786464, 19.626117937175561 ], [ 77.006530345884684, 19.626117896071353 ], [ 77.006530345884684, 19.671114731651542 ], [ 76.961533611786464, 19.671114711391731 ], [ 76.961533611786464, 19.626117937175561 ] ] ] } },
{ "type": "Feature", "properties": { "REGION": 2.0, "STATE.NAME": "Maharashtra", "DISTRICT.NAME": "Hingoli", "DISTRICT.AREA": 4890.910828, "GRID_G0": "184148", "woodland": 0.11307329755454769, "maskWdl": 0.0, "cropland": 0.33282200575376308, "maskCrp": 0.0, "one": 0.54544696950043192, "maskOne": 1.0, "GRID.AREA": 23.6010465984217, "REGION.AREA": 59928.662280600729 }, "geometry": { "type": "Polygon", "coordinates": [ [ [ 77.051531573248397, 19.491114156945425 ], [ 77.096532885086603, 19.49111418448264 ], [ 77.096532885086603, 19.536115424887392 ], [ 77.051531573248397, 19.536115459056099 ], [ 77.051531573248397, 19.491114156945425 ] ] ] } },
{ "type": "Feature", "properties": { "REGION": 2.0, "STATE.NAME": "Maharashtra", "DISTRICT.NAME": "Hingoli", "DISTRICT.AREA": 4890.910828, "GRID_G0": "182854", "woodland": 0.15466615936678585, "maskWdl": 0.0, "cropland": 0.5707322902736659, "maskCrp": 1.0, "one": 0.26499005596862446, "maskOne": 0.0, "GRID.AREA": 23.611778069198614, "REGION.AREA": 59928.662280600729 }, "geometry": { "type": "Polygon", "coordinates": [ [ [ 77.32153461772333, 19.401116127508153 ], [ 77.366531414075837, 19.401116163058536 ], [ 77.366531414075837, 19.446117414269629 ], [ 77.32153461772333, 19.446117389822557 ], [ 77.32153461772333, 19.401116127508153 ] ] ] } },
{ "type": "Feature", "properties": { "REGION": 2.0, "STATE.NAME": "Maharashtra", "DISTRICT.NAME": "Nanded", "DISTRICT.AREA": 10535.728211, "GRID_G0": "189367", "woodland": 0.086513071038266345, "maskWdl": 0.0, "cropland": 0.75933473745425595, "maskCrp": 1.0, "one": 0.097701959420152001, "maskOne": 0.0, "GRID.AREA": 20.327069540012698, "REGION.AREA": 59928.662280600729 }, "geometry": { "type": "Polygon", "coordinates": [ [ [ 77.906533022918595, 19.88154431906063 ], [ 77.906533022918595, 19.851115243629764 ], [ 77.951534251315636, 19.851115270378592 ], [ 77.951534251315636, 19.896116535135207 ], [ 77.940623879869662, 19.896117559832017 ], [ 77.939563228160523, 19.894367654743519 ], [ 77.937996406808793, 19.892678852047428 ], [ 77.93515471641706, 19.891040271991017 ], [ 77.933554991569679, 19.890683894945827 ], [ 77.932431765313765, 19.89077341705962 ], [ 77.932431652898515, 19.890773426952137 ], [ 77.931960210295529, 19.890810997929236 ], [ 77.929200571349327, 19.891145951324628 ], [ 77.927142549289272, 19.891146618621576 ], [ 77.925385220051908, 19.89068640135639 ], [ 77.923518004452376, 19.889896339744329 ], [ 77.921894224538903, 19.888586887275096 ], [ 77.919892920921598, 19.886387818243289 ], [ 77.918512653136474, 19.885055636308611 ], [ 77.917077476344502, 19.884354161515375 ], [ 77.917043830008822, 19.88433751596364 ], [ 77.916535682475796, 19.884084920682596 ], [ 77.913560878931492, 19.883263510502672 ], [ 77.910342598332306, 19.882550472226569 ], [ 77.907200786187389, 19.881832925649061 ], [ 77.906533022918595, 19.88154431906063 ] ] ] } },
{ "type": "Feature", "properties": { "REGION": 2.0, "STATE.NAME": "Maharashtra", "DISTRICT.NAME": "Nanded", "DISTRICT.AREA": 10535.728211, "GRID_G0": "188072", "woodland": 0.40517330103561366, "maskWdl": 1.0, "cropland": 0.47196299899348032, "maskCrp": 0.0, "one": 0.10578074339639525, "maskOne": 0.0, "GRID.AREA": 23.559046776077945, "REGION.AREA": 59928.662280600729 }, "geometry": { "type": "Polygon", "coordinates": [ [ [ 78.131534777466058, 19.761117178671284 ], [ 78.176531634831946, 19.761117181356298 ], [ 78.176531634831946, 19.806118432233745 ], [ 78.131534777466058, 19.806118503277503 ], [ 78.131534777466058, 19.761117178671284 ] ] ] } },
{ "type": "Feature", "properties": { "REGION": 2.0, "STATE.NAME": "Maharashtra", "DISTRICT.NAME": "Nanded", "DISTRICT.AREA": 10535.728211, "GRID_G0": "188073", "woodland": 0.45322694284180659, "maskWdl": 1.0, "cropland": 0.35633633092897415, "maskCrp": 0.0, "one": 0.18476685713442376, "maskOne": 0.0, "GRID.AREA": 23.561317022851686, "REGION.AREA": 59928.662280600729 }, "geometry": { "type": "Polygon", "coordinates": [ [ [ 78.176531634831946, 19.761117181356298 ], [ 78.221532867981381, 19.761117175094292 ], [ 78.221532867981381, 19.806118420285465 ], [ 78.176531634831946, 19.806118432233745 ], [ 78.176531634831946, 19.761117181356298 ] ] ] } },
{ "type": "Feature", "properties": { "REGION": 2.0, "STATE.NAME": "Maharashtra", "DISTRICT.NAME": "Nanded", "DISTRICT.AREA": 10535.728211, "GRID_G0": "180909", "woodland": 0.41952088916237701, "maskWdl": 1.0, "cropland": 0.34903082640003696, "maskCrp": 0.0, "one": 0.21844506581516909, "maskOne": 0.0, "GRID.AREA": 23.633621838484576, "REGION.AREA": 59928.662280600729 }, "geometry": { "type": "Polygon", "coordinates": [ [ [ 77.546531976600761, 19.2661168779597 ], [ 77.591533190519684, 19.26611690169802 ], [ 77.591533190519684, 19.311118093327131 ], [ 77.546531976600761, 19.311118092600495 ], [ 77.546531976600761, 19.2661168779597 ] ] ] } },
{ "type": "Feature", "properties": { "REGION": 2.0, "STATE.NAME": "Maharashtra", "DISTRICT.NAME": "Nanded", "DISTRICT.AREA": 10535.728211, "GRID_G0": "180258", "woodland": 0.18185002093811525, "maskWdl": 0.0, "cropland": 0.7551826317636986, "maskCrp": 1.0, "one": 0.047128091459918552, "maskOne": 0.0, "GRID.AREA": 23.640185328417946, "REGION.AREA": 59928.662280600729 }, "geometry": { "type": "Polygon", "coordinates": [ [ [ 77.501530685759349, 19.221115584982165 ], [ 77.546531976600761, 19.221115608848635 ], [ 77.546531976600761, 19.2661168779597 ], [ 77.501530685759349, 19.266116851874063 ], [ 77.501530685759349, 19.221115584982165 ] ] ] } },
{ "type": "Feature", "properties": { "REGION": 2.0, "STATE.NAME": "Maharashtra", "DISTRICT.NAME": "Nanded", "DISTRICT.AREA": 10535.728211, "GRID_G0": "179606", "woodland": 0.20312392419718014, "maskWdl": 0.0, "cropland": 0.76527831258016721, "maskCrp": 1.0, "one": 0.020732353964946999, "maskOne": 0.0, "GRID.AREA": 23.646624333038513, "REGION.AREA": 59928.662280600729 }, "geometry": { "type": "Polygon", "coordinates": [ [ [ 77.411532665061301, 19.176114381890333 ], [ 77.456533885822068, 19.176114325459714 ], [ 77.456533885822068, 19.221115620926568 ], [ 77.411532665061301, 19.221115627717385 ], [ 77.411532665061301, 19.176114381890333 ] ] ] } },
{ "type": "Feature", "properties": { "REGION": 2.0, "STATE.NAME": "Maharashtra", "DISTRICT.NAME": "Nanded", "DISTRICT.AREA": 10535.728211, "GRID_G0": "179607", "woodland": 0.25620450910667303, "maskWdl": 0.0, "cropland": 0.70512834610448283, "maskCrp": 1.0, "one": 0.022270190096442356, "maskOne": 0.0, "GRID.AREA": 23.644298032453204, "REGION.AREA": 59928.662280600729 }, "geometry": { "type": "Polygon", "coordinates": [ [ [ 77.456533885822068, 19.176114325459714 ], [ 77.501530685759349, 19.176114351752211 ], [ 77.501530685759349, 19.221115584982165 ], [ 77.456533885822068, 19.221115620926568 ], [ 77.456533885822068, 19.176114325459714 ] ] ] } },
{ "type": "Feature", "properties": { "REGION": 2.0, "STATE.NAME": "Maharashtra", "DISTRICT.NAME": "Parbhani", "DISTRICT.AREA": 6128.024671, "GRID_G0": "183491", "woodland": 0.0044557225272577276, "maskWdl": 0.0, "cropland": 0.96104975784924196, "maskCrp": 1.0, "one": 0.023588264025649949, "maskOne": 0.0, "GRID.AREA": 23.605211091016564, "REGION.AREA": 59928.662280600729 }, "geometry": { "type": "Polygon", "coordinates": [ [ [ 76.736531834411025, 19.446117420087223 ], [ 76.781533070030974, 19.446117356926393 ], [ 76.781533070030974, 19.491114183372368 ], [ 76.736531834411025, 19.491114149917227 ], [ 76.736531834411025, 19.446117420087223 ] ] ] } },
{ "type": "Feature", "properties": { "REGION": 2.0, "STATE.NAME": "Maharashtra", "DISTRICT.NAME": "Parbhani", "DISTRICT.AREA": 6128.024671, "GRID_G0": "178286", "woodland": 0.060902863611086995, "maskWdl": 0.0, "cropland": 0.85924553286737626, "maskCrp": 1.0, "one": 0.037447326140944301, "maskOne": 0.0, "GRID.AREA": 23.659559428000343, "REGION.AREA": 59928.662280600729 }, "geometry": { "type": "Polygon", "coordinates": [ [ [ 76.51152999825247, 19.086116332535628 ], [ 76.556531305189836, 19.086116335706286 ], [ 76.556531305189836, 19.131117562739558 ], [ 76.51152999825247, 19.131117590990804 ], [ 76.51152999825247, 19.086116332535628 ] ] ] } },
{ "type": "Feature", "properties": { "REGION": 2.0, "STATE.NAME": "Maharashtra", "DISTRICT.NAME": "Washim", "DISTRICT.AREA": 5139.74697, "GRID_G0": "196500", "woodland": 0.39843789453763317, "maskWdl": 1.0, "cropland": 0.22265280114320779, "maskCrp": 0.0, "one": 0.37371728622240863, "maskOne": 1.0, "GRID.AREA": 22.940666761606479, "REGION.AREA": 59928.662280600729 }, "geometry": { "type": "Polygon", "coordinates": [ [ [ 77.141534092209227, 20.379375425825828 ], [ 77.141534092209227, 20.346115600505151 ], [ 77.186530881566128, 20.346115593463452 ], [ 77.186530881566128, 20.39111686395076 ], [ 77.150390601460572, 20.391117768802495 ], [ 77.150174186689412, 20.390900817618672 ], [ 77.149431632663777, 20.3903206092088 ], [ 77.148036386669958, 20.389291290160941 ], [ 77.147723767937578, 20.389060651827663 ], [ 77.147481015736332, 20.388847158169881 ], [ 77.147043459588019, 20.388462306790078 ], [ 77.146712708724579, 20.388245680793602 ], [ 77.14653332815061, 20.388128113321841 ], [ 77.145908250765217, 20.38771493149892 ], [ 77.14585343888514, 20.387669556205083 ], [ 77.145512970846994, 20.387387527012834 ], [ 77.145375192011556, 20.387191394767115 ], [ 77.145287739237858, 20.387066866542682 ], [ 77.145112922723285, 20.386646747349573 ], [ 77.144765459758219, 20.385596872497729 ], [ 77.144144977009148, 20.383532758430135 ], [ 77.1441389992155, 20.383506798599914 ], [ 77.144077899275715, 20.383241425751237 ], [ 77.143986765576813, 20.38279890354659 ], [ 77.143967083913822, 20.382698014002191 ], [ 77.143967078517903, 20.382697975331325 ], [ 77.143926862634657, 20.382491706826841 ], [ 77.143934905271692, 20.382435018061702 ], [ 77.143950879929207, 20.382322403156426 ], [ 77.144021849928492, 20.382196757974043 ], [ 77.14408724952699, 20.382080757121287 ], [ 77.144221367222372, 20.381730645652851 ], [ 77.144245337752182, 20.381518393059427 ], [ 77.144168603997912, 20.381218045576418 ], [ 77.143948241318355, 20.380757423616274 ], [ 77.143948222432584, 20.38075739124065 ], [ 77.143555463314044, 20.380265171600456 ], [ 77.143440317716568, 20.380172850796498 ], [ 77.143306013861491, 20.380065169571992 ], [ 77.143155582464203, 20.379944480553377 ], [ 77.142546302569883, 20.379674130856529 ], [ 77.142458489168007, 20.379635205500392 ], [ 77.141869322611228, 20.37943650838821 ], [ 77.141534092209227, 20.379375425825828 ] ] ] } },
{ "type": "Feature", "properties": { "REGION": 2.0, "STATE.NAME": "Maharashtra", "DISTRICT.NAME": "Washim", "DISTRICT.AREA": 5139.74697, "GRID_G0": "195852", "woodland": 0.01861521661884135, "maskWdl": 0.0, "cropland": 0.92372230540419298, "maskCrp": 1.0, "one": 0.042480579606341419, "maskOne": 0.0, "GRID.AREA": 23.478082501561339, "REGION.AREA": 59928.662280600729 }, "geometry": { "type": "Polygon", "coordinates": [ [ [ 77.231532102881161, 20.301118778591828 ], [ 77.27653335308905, 20.301118834629957 ], [ 77.27653335308905, 20.346115617303148 ], [ 77.231532102881161, 20.346115586275836 ], [ 77.231532102881161, 20.301118778591828 ] ] ] } },
{ "type": "Feature", "properties": { "REGION": 2.0, "STATE.NAME": "Maharashtra", "DISTRICT.NAME": "Washim", "DISTRICT.AREA": 5139.74697, "GRID_G0": "192595", "woodland": 0.017350686650385277, "maskWdl": 0.0, "cropland": 0.95864187744353346, "maskCrp": 1.0, "one": 0.011079331077724141, "maskOne": 0.0, "GRID.AREA": 23.514376369845511, "REGION.AREA": 59928.662280600729 }, "geometry": { "type": "Polygon", "coordinates": [ [ [ 76.916532331261266, 20.076117060007867 ], [ 76.961533611786464, 20.07611701337326 ], [ 76.961533611786464, 20.121118258438894 ], [ 76.916532331261266, 20.121118250145244 ], [ 76.916532331261266, 20.076117060007867 ] ] ] } },
{ "type": "Feature", "properties": { "REGION": 2.0, "STATE.NAME": "Maharashtra", "DISTRICT.NAME": "Washim", "DISTRICT.AREA": 5139.74697, "GRID_G0": "191943", "woodland": 0.023938726176013069, "maskWdl": 0.0, "cropland": 0.93262211384944183, "maskCrp": 1.0, "one": 0.026055539003527497, "maskOne": 0.0, "GRID.AREA": 23.518779312990944, "REGION.AREA": 59928.662280600729 }, "geometry": { "type": "Polygon", "coordinates": [ [ [ 76.826534291071354, 20.031115791001216 ], [ 76.871531086720481, 20.031115818484626 ], [ 76.871531086720481, 20.076117035153729 ], [ 76.826534291071354, 20.076116995272869 ], [ 76.826534291071354, 20.031115791001216 ] ] ] } },
{ "type": "Feature", "properties": { "REGION": 2.0, "STATE.NAME": "Maharashtra", "DISTRICT.NAME": "Washim", "DISTRICT.AREA": 5139.74697, "GRID_G0": "191302", "woodland": 0.052048570750183876, "maskWdl": 0.0, "cropland": 0.66556888707709794, "maskCrp": 1.0, "one": 0.26834889627887459, "maskOne": 0.0, "GRID.AREA": 23.527855179271821, "REGION.AREA": 59928.662280600729 }, "geometry": { "type": "Polygon", "coordinates": [ [ [ 77.231532102881161, 19.986114554740979 ], [ 77.27653335308905, 19.986114525685636 ], [ 77.27653335308905, 20.031115799941794 ], [ 77.231532102881161, 20.031115744550426 ], [ 77.231532102881161, 19.986114554740979 ] ] ] } },
{ "type": "Feature", "properties": { "REGION": 2.0, "STATE.NAME": "Maharashtra", "DISTRICT.NAME": "Washim", "DISTRICT.AREA": 5139.74697, "GRID_G0": "189993", "woodland": 0.005455050524774338, "maskWdl": 0.0, "cropland": 0.88695938446817146, "maskCrp": 1.0, "one": 0.101906143986565, "maskOne": 0.0, "GRID.AREA": 0.012596237982520532, "REGION.AREA": 59928.662280600729 }, "geometry": { "type": "Polygon", "coordinates": [ [ [ 76.827600767808121, 19.941117912897013 ], [ 76.826534291071354, 19.941117781949991 ], [ 76.826534291071354, 19.939085424217616 ], [ 76.827600767808121, 19.941117912897013 ] ] ] } }
]
}
