{
"type": "FeatureCollection",
"name": "Region 2 Selected Woodland",
"crs": { "type": "name", "properties": { "name": "urn:ogc:def:crs:OGC:1.3:CRS84" } },
"features": [
{ "type": "Feature", "properties": { "REGION": 2.0, "STATE.NAME": "Maharashtra", "DISTRICT.NAME": "Hingoli", "DISTRICT.AREA": 4890.910828, "GRID_G0": "182854", "woodland": 0.15466615936678585, "maskWdl": 0.0, "cropland": 0.5707322902736659, "maskCrp": 1.0, "one": 0.26499005596862446, "maskOne": 0.0, "GRID.AREA": 23.611778069198614, "REGION.AREA": 59928.662280600729 }, "geometry": { "type": "Polygon", "coordinates": [ [ [ 77.32153461772333, 19.401116127508153 ], [ 77.366531414075837, 19.401116163058536 ], [ 77.366531414075837, 19.446117414269629 ], [ 77.32153461772333, 19.446117389822557 ], [ 77.32153461772333, 19.401116127508153 ] ] ] } },
{ "type": "Feature", "properties": { "REGION": 2.0, "STATE.NAME": "Maharashtra", "DISTRICT.NAME": "Nanded", "DISTRICT.AREA": 10535.728211, "GRID_G0": "188717", "woodland": 0.58560234613979278, "maskWdl": 1.0, "cropland": 0.17532081510375316, "maskCrp": 0.0, "one": 0.20398637157543742, "maskOne": 0.0, "GRID.AREA": 23.552322923485804, "REGION.AREA": 59928.662280600729 }, "geometry": { "type": "Polygon", "coordinates": [ [ [ 77.906533022918595, 19.806118460264202 ], [ 77.951534251315636, 19.806118453916344 ], [ 77.951534251315636, 19.851115270378592 ], [ 77.906533022918595, 19.851115243629764 ], [ 77.906533022918595, 19.806118460264202 ] ] ] } },
{ "type": "Feature", "properties": { "REGION": 2.0, "STATE.NAME": "Maharashtra", "DISTRICT.NAME": "Nanded", "DISTRICT.AREA": 10535.728211, "GRID_G0": "188072", "woodland": 0.40517330103561366, "maskWdl": 1.0, "cropland": 0.47196299899348032, "maskCrp": 0.0, "one": 0.10578074339639525, "maskOne": 0.0, "GRID.AREA": 23.559046776077945, "REGION.AREA": 59928.662280600729 }, "geometry": { "type": "Polygon", "coordinates": [ [ [ 78.131534777466058, 19.761117178671284 ], [ 78.176531634831946, 19.761117181356298 ], [ 78.176531634831946, 19.806118432233745 ], [ 78.131534777466058, 19.806118503277503 ], [ 78.131534777466058, 19.761117178671284 ] ] ] } },
{ "type": "Feature", "properties": { "REGION": 2.0, "STATE.NAME": "Maharashtra", "DISTRICT.NAME": "Nanded", "DISTRICT.AREA": 10535.728211, "GRID_G0": "188073", "woodland": 0.45322694284180659, "maskWdl": 1.0, "cropland": 0.35633633092897415, "maskCrp": 0.0, "one": 0.18476685713442376, "maskOne": 0.0, "GRID.AREA": 23.561317022851686, "REGION.AREA": 59928.662280600729 }, "geometry": { "type": "Polygon", "coordinates": [ [ [ 78.176531634831946, 19.761117181356298 ], [ 78.221532867981381, 19.761117175094292 ], [ 78.221532867981381, 19.806118420285465 ], [ 78.176531634831946, 19.806118432233745 ], [ 78.176531634831946, 19.761117181356298 ] ] ] } },
{ "type": "Feature", "properties": { "REGION": 2.0, "STATE.NAME": "Maharashtra", "DISTRICT.NAME": "Nanded", "DISTRICT.AREA": 10535.728211, "GRID_G0": "182221", "woodland": 0.60837455923293271, "maskWdl": 1.0, "cropland": 0.12837962999736094, "maskCrp": 0.0, "one": 0.25701074172527766, "maskOne": 0.0, "GRID.AREA": 23.620648530291344, "REGION.AREA": 59928.662280600729 }, "geometry": { "type": "Polygon", "coordinates": [ [ [ 78.086533529357553, 19.356114915860587 ], [ 78.131534777466058, 19.356114874798021 ], [ 78.131534777466058, 19.401116121772539 ], [ 78.086533529357553, 19.401116188853127 ], [ 78.086533529357553, 19.356114915860587 ] ] ] } },
{ "type": "Feature", "properties": { "REGION": 2.0, "STATE.NAME": "Maharashtra", "DISTRICT.NAME": "Nanded", "DISTRICT.AREA": 10535.728211, "GRID_G0": "181558", "woodland": 0.40241467277457382, "maskWdl": 1.0, "cropland": 0.39048122437026017, "maskCrp": 0.0, "one": 0.20002381860035334, "maskOne": 0.0, "GRID.AREA": 23.624822204261655, "REGION.AREA": 59928.662280600729 }, "geometry": { "type": "Polygon", "coordinates": [ [ [ 77.501530685759349, 19.31111815651975 ], [ 77.546531976600761, 19.311118092600495 ], [ 77.546531976600761, 19.356114887389996 ], [ 77.501530685759349, 19.35611486662274 ], [ 77.501530685759349, 19.31111815651975 ] ] ] } },
{ "type": "Feature", "properties": { "REGION": 2.0, "STATE.NAME": "Maharashtra", "DISTRICT.NAME": "Nanded", "DISTRICT.AREA": 10535.728211, "GRID_G0": "181570", "woodland": 0.50012415644540886, "maskWdl": 1.0, "cropland": 0.29067550031541151, "maskCrp": 0.0, "one": 0.20747514241333992, "maskOne": 0.0, "GRID.AREA": 23.624791882551239, "REGION.AREA": 59928.662280600729 }, "geometry": { "type": "Polygon", "coordinates": [ [ [ 78.041532344959762, 19.311118128346571 ], [ 78.086533529357553, 19.311118115566526 ], [ 78.086533529357553, 19.356114915860587 ], [ 78.041532344959762, 19.35611493031919 ], [ 78.041532344959762, 19.311118128346571 ] ] ] } },
{ "type": "Feature", "properties": { "REGION": 2.0, "STATE.NAME": "Maharashtra", "DISTRICT.NAME": "Nanded", "DISTRICT.AREA": 10535.728211, "GRID_G0": "180909", "woodland": 0.41952088916237701, "maskWdl": 1.0, "cropland": 0.34903082640003696, "maskCrp": 0.0, "one": 0.21844506581516909, "maskOne": 0.0, "GRID.AREA": 23.633621838484576, "REGION.AREA": 59928.662280600729 }, "geometry": { "type": "Polygon", "coordinates": [ [ [ 77.546531976600761, 19.2661168779597 ], [ 77.591533190519684, 19.26611690169802 ], [ 77.591533190519684, 19.311118093327131 ], [ 77.546531976600761, 19.311118092600495 ], [ 77.546531976600761, 19.2661168779597 ] ] ] } },
{ "type": "Feature", "properties": { "REGION": 2.0, "STATE.NAME": "Maharashtra", "DISTRICT.NAME": "Nanded", "DISTRICT.AREA": 10535.728211, "GRID_G0": "180914", "woodland": 0.44606835722976507, "maskWdl": 1.0, "cropland": 0.38538538115657139, "maskCrp": 0.0, "one": 0.16529007898124815, "maskOne": 0.0, "GRID.AREA": 23.633664056898457, "REGION.AREA": 59928.662280600729 }, "geometry": { "type": "Polygon", "coordinates": [ [ [ 77.771533724775892, 19.266116903753055 ], [ 77.816535009901216, 19.266116896369979 ], [ 77.816535009901216, 19.311118086493185 ], [ 77.771533724775892, 19.311118138272779 ], [ 77.771533724775892, 19.266116903753055 ] ] ] } },
{ "type": "Feature", "properties": { "REGION": 2.0, "STATE.NAME": "Maharashtra", "DISTRICT.NAME": "Nanded", "DISTRICT.AREA": 10535.728211, "GRID_G0": "180915", "woodland": 0.43856722668677445, "maskWdl": 1.0, "cropland": 0.34330497718857322, "maskCrp": 0.0, "one": 0.20480739927095587, "maskOne": 0.0, "GRID.AREA": 23.631275152304582, "REGION.AREA": 59928.662280600729 }, "geometry": { "type": "Polygon", "coordinates": [ [ [ 77.816535009901216, 19.266116896369979 ], [ 77.861531757373555, 19.266116906005351 ], [ 77.861531757373555, 19.311118118314543 ], [ 77.816535009901216, 19.311118086493185 ], [ 77.816535009901216, 19.266116896369979 ] ] ] } },
{ "type": "Feature", "properties": { "REGION": 2.0, "STATE.NAME": "Maharashtra", "DISTRICT.NAME": "Nanded", "DISTRICT.AREA": 10535.728211, "GRID_G0": "180258", "woodland": 0.18185002093811525, "maskWdl": 0.0, "cropland": 0.7551826317636986, "maskCrp": 1.0, "one": 0.047128091459918552, "maskOne": 0.0, "GRID.AREA": 23.640185328417946, "REGION.AREA": 59928.662280600729 }, "geometry": { "type": "Polygon", "coordinates": [ [ [ 77.501530685759349, 19.221115584982165 ], [ 77.546531976600761, 19.221115608848635 ], [ 77.546531976600761, 19.2661168779597 ], [ 77.501530685759349, 19.266116851874063 ], [ 77.501530685759349, 19.221115584982165 ] ] ] } },
{ "type": "Feature", "properties": { "REGION": 2.0, "STATE.NAME": "Maharashtra", "DISTRICT.NAME": "Nanded", "DISTRICT.AREA": 10535.728211, "GRID_G0": "180260", "woodland": 0.41592959176001354, "maskWdl": 1.0, "cropland": 0.29450682312517207, "maskCrp": 0.0, "one": 0.25679671817733996, "maskOne": 0.0, "GRID.AREA": 23.6401670003705, "REGION.AREA": 59928.662280600729 }, "geometry": { "type": "Polygon", "coordinates": [ [ [ 77.591533190519684, 19.221115652535183 ], [ 77.636534486368078, 19.221115646231979 ], [ 77.636534486368078, 19.266116853297707 ], [ 77.591533190519684, 19.26611690169802 ], [ 77.591533190519684, 19.221115652535183 ] ] ] } },
{ "type": "Feature", "properties": { "REGION": 2.0, "STATE.NAME": "Maharashtra", "DISTRICT.NAME": "Nanded", "DISTRICT.AREA": 10535.728211, "GRID_G0": "179606", "woodland": 0.20312392419718014, "maskWdl": 0.0, "cropland": 0.76527831258016721, "maskCrp": 1.0, "one": 0.020732353964946999, "maskOne": 0.0, "GRID.AREA": 23.646624333038513, "REGION.AREA": 59928.662280600729 }, "geometry": { "type": "Polygon", "coordinates": [ [ [ 77.411532665061301, 19.176114381890333 ], [ 77.456533885822068, 19.176114325459714 ], [ 77.456533885822068, 19.221115620926568 ], [ 77.411532665061301, 19.221115627717385 ], [ 77.411532665061301, 19.176114381890333 ] ] ] } },
{ "type": "Feature", "properties": { "REGION": 2.0, "STATE.NAME": "Maharashtra", "DISTRICT.NAME": "Nanded", "DISTRICT.AREA": 10535.728211, "GRID_G0": "179607", "woodland": 0.25620450910667303, "maskWdl": 0.0, "cropland": 0.70512834610448283, "maskCrp": 1.0, "one": 0.022270190096442356, "maskOne": 0.0, "GRID.AREA": 23.644298032453204, "REGION.AREA": 59928.662280600729 }, "geometry": { "type": "Polygon", "coordinates": [ [ [ 77.456533885822068, 19.176114325459714 ], [ 77.501530685759349, 19.176114351752211 ], [ 77.501530685759349, 19.221115584982165 ], [ 77.456533885822068, 19.221115620926568 ], [ 77.456533885822068, 19.176114325459714 ] ] ] } },
{ "type": "Feature", "properties": { "REGION": 2.0, "STATE.NAME": "Maharashtra", "DISTRICT.NAME": "Washim", "DISTRICT.AREA": 5139.74697, "GRID_G0": "196498", "woodland": 0.16459368571711194, "maskWdl": 0.0, "cropland": 0.54663296460175226, "maskCrp": 1.0, "one": 0.28018071006608597, "maskOne": 0.0, "GRID.AREA": 23.081143755556361, "REGION.AREA": 59928.662280600729 }, "geometry": { "type": "Polygon", "coordinates": [ [ [ 77.051531573248397, 20.389817522149688 ], [ 77.051531573248397, 20.34611562052989 ], [ 77.096532885086603, 20.346115565527576 ], [ 77.096532885086603, 20.391116870165874 ], [ 77.070166818178777, 20.391118267073132 ], [ 77.069073046683798, 20.391007923277069 ], [ 77.068120132238391, 20.390869361132161 ], [ 77.067765362281705, 20.390817732852156 ], [ 77.067304847340893, 20.39071731185453 ], [ 77.066946360486213, 20.390639106809374 ], [ 77.065550111748337, 20.390408267027965 ], [ 77.064479519214501, 20.39032201125184 ], [ 77.064266959052986, 20.390308381126943 ], [ 77.063842481745212, 20.390281101092 ], [ 77.063401797754807, 20.390335154843573 ], [ 77.063125748154789, 20.390234024280854 ], [ 77.062020057779478, 20.389828807753304 ], [ 77.057005339125169, 20.388806160775747 ], [ 77.056850482164066, 20.38695656199582 ], [ 77.056118501467722, 20.386605521527656 ], [ 77.055969258974187, 20.386533948083297 ], [ 77.052251599231965, 20.388007018709004 ], [ 77.052178826991337, 20.388060862019245 ], [ 77.052150888652648, 20.38808150775543 ], [ 77.052108112399537, 20.388159453795822 ], [ 77.052045522283095, 20.388273405093624 ], [ 77.051920902327822, 20.388768277733902 ], [ 77.051663860798612, 20.389788504635817 ], [ 77.051531573248397, 20.389817522149688 ] ] ] } },
{ "type": "Feature", "properties": { "REGION": 2.0, "STATE.NAME": "Maharashtra", "DISTRICT.NAME": "Washim", "DISTRICT.AREA": 5139.74697, "GRID_G0": "196500", "woodland": 0.39843789453763317, "maskWdl": 1.0, "cropland": 0.22265280114320779, "maskCrp": 0.0, "one": 0.37371728622240863, "maskOne": 1.0, "GRID.AREA": 22.940666761606479, "REGION.AREA": 59928.662280600729 }, "geometry": { "type": "Polygon", "coordinates": [ [ [ 77.141534092209227, 20.379375425825828 ], [ 77.141534092209227, 20.346115600505151 ], [ 77.186530881566128, 20.346115593463452 ], [ 77.186530881566128, 20.39111686395076 ], [ 77.150390601460572, 20.391117768802495 ], [ 77.150174186689412, 20.390900817618672 ], [ 77.149431632663777, 20.3903206092088 ], [ 77.148036386669958, 20.389291290160941 ], [ 77.147723767937578, 20.389060651827663 ], [ 77.147481015736332, 20.388847158169881 ], [ 77.147043459588019, 20.388462306790078 ], [ 77.146712708724579, 20.388245680793602 ], [ 77.14653332815061, 20.388128113321841 ], [ 77.145908250765217, 20.38771493149892 ], [ 77.14585343888514, 20.387669556205083 ], [ 77.145512970846994, 20.387387527012834 ], [ 77.145375192011556, 20.387191394767115 ], [ 77.145287739237858, 20.387066866542682 ], [ 77.145112922723285, 20.386646747349573 ], [ 77.144765459758219, 20.385596872497729 ], [ 77.144144977009148, 20.383532758430135 ], [ 77.1441389992155, 20.383506798599914 ], [ 77.144077899275715, 20.383241425751237 ], [ 77.143986765576813, 20.38279890354659 ], [ 77.143967083913822, 20.382698014002191 ], [ 77.143967078517903, 20.382697975331325 ], [ 77.143926862634657, 20.382491706826841 ], [ 77.143934905271692, 20.382435018061702 ], [ 77.143950879929207, 20.382322403156426 ], [ 77.144021849928492, 20.382196757974043 ], [ 77.14408724952699, 20.382080757121287 ], [ 77.144221367222372, 20.381730645652851 ], [ 77.144245337752182, 20.381518393059427 ], [ 77.144168603997912, 20.381218045576418 ], [ 77.143948241318355, 20.380757423616274 ], [ 77.143948222432584, 20.38075739124065 ], [ 77.143555463314044, 20.380265171600456 ], [ 77.143440317716568, 20.380172850796498 ], [ 77.143306013861491, 20.380065169571992 ], [ 77.143155582464203, 20.379944480553377 ], [ 77.142546302569883, 20.379674130856529 ], [ 77.142458489168007, 20.379635205500392 ], [ 77.141869322611228, 20.37943650838821 ], [ 77.141534092209227, 20.379375425825828 ] ] ] } }
]
}
