{
"type": "FeatureCollection",
"name": "Region 3 Cropland Mask",
"crs": { "type": "name", "properties": { "name": "urn:ogc:def:crs:OGC:1.3:CRS84" } },
"features": [
{ "type": "Feature", "properties": { "REGION": 3.0, "STATE.NAME": "Chhattisgarh", "DISTRICT.NAME": "Bijapur", "DISTRICT.AREA": 8802.2985049999988, "GRID_G0": "175770", "woodland": 0.33274122208041429, "maskWdl": 0.0, "cropland": 0.55010457188376249, "maskCrp": 1.0, "one": 0.074882734238504556, "maskOne": 0.0, "GRID.AREA": 22.756143425915202, "REGION.AREA": 19890.920730201575 }, "geometry": { "type": "Polygon", "coordinates": [ [ [ 80.302362505782497, 18.906116802714877 ], [ 80.336533542262686, 18.906115819591015 ], [ 80.336533542262686, 18.951117071951693 ], [ 80.291536732472025, 18.951117057147215 ], [ 80.291536732472025, 18.918377501759821 ], [ 80.291558258806674, 18.91836009584182 ], [ 80.293143992901037, 18.917077873045457 ], [ 80.294167693884049, 18.916250089370177 ], [ 80.294902196279395, 18.915656146513985 ], [ 80.295800142362737, 18.914847909603395 ], [ 80.297154916166505, 18.913628463982491 ], [ 80.298365137441181, 18.91249985078753 ], [ 80.298739731153717, 18.912147456839708 ], [ 80.299510891714377, 18.911421988134293 ], [ 80.299865181433006, 18.911088685894185 ], [ 80.299898486925713, 18.91103705761418 ], [ 80.300211347575669, 18.910552084711011 ], [ 80.300400963333857, 18.910258156588725 ], [ 80.301051237924355, 18.908968109690534 ], [ 80.301597313465322, 18.907533807039613 ], [ 80.302264676074003, 18.90625573461449 ], [ 80.302278389835863, 18.906229471712781 ], [ 80.302285038523792, 18.906220565726585 ], [ 80.302362505782497, 18.906116802714877 ] ] ] } },
{ "type": "Feature", "properties": { "REGION": 3.0, "STATE.NAME": "Chhattisgarh", "DISTRICT.NAME": "Bijapur", "DISTRICT.AREA": 8802.2985049999988, "GRID_G0": "173825", "woodland": 0.27823898923603341, "maskWdl": 0.0, "cropland": 0.54452849037275686, "maskCrp": 1.0, "one": 0.15436233973351743, "maskOne": 0.0, "GRID.AREA": 23.704247918552166, "REGION.AREA": 19890.920730201575 }, "geometry": { "type": "Polygon", "coordinates": [ [ [ 80.516534026046131, 18.771116558759989 ], [ 80.561535328445359, 18.771116491342983 ], [ 80.561535328445359, 18.816117746782979 ], [ 80.516534026046131, 18.816117728775929 ], [ 80.516534026046131, 18.771116558759989 ] ] ] } },
{ "type": "Feature", "properties": { "REGION": 3.0, "STATE.NAME": "Chhattisgarh", "DISTRICT.NAME": "Sukma", "DISTRICT.AREA": 5274.404012, "GRID_G0": "170602", "woodland": 0.16711134410094783, "maskWdl": 0.0, "cropland": 0.59882813432923421, "maskCrp": 1.0, "one": 0.2310946785168583, "maskOne": 0.0, "GRID.AREA": 23.735713913654664, "REGION.AREA": 19890.920730201575 }, "geometry": { "type": "Polygon", "coordinates": [ [ [ 81.731536541597222, 18.546114721312467 ], [ 81.776537740876222, 18.546114762688489 ], [ 81.776537740876222, 18.591116005938439 ], [ 81.731536541597222, 18.591115999740602 ], [ 81.731536541597222, 18.546114721312467 ] ] ] } },
{ "type": "Feature", "properties": { "REGION": 3.0, "STATE.NAME": "Chhattisgarh", "DISTRICT.NAME": "Sukma", "DISTRICT.AREA": 5274.404012, "GRID_G0": "170603", "woodland": 0.20202243977452408, "maskWdl": 0.0, "cropland": 0.60847554544787696, "maskCrp": 1.0, "one": 0.18769086855559949, "maskOne": 0.0, "GRID.AREA": 23.735755852765802, "REGION.AREA": 19890.920730201575 }, "geometry": { "type": "Polygon", "coordinates": [ [ [ 81.776537740876222, 18.546114762688489 ], [ 81.821539020621984, 18.546114726446334 ], [ 81.821539020621984, 18.591116002969059 ], [ 81.776537740876222, 18.591116005938439 ], [ 81.776537740876222, 18.546114762688489 ] ] ] } },
{ "type": "Feature", "properties": { "REGION": 3.0, "STATE.NAME": "Chhattisgarh", "DISTRICT.NAME": "Sukma", "DISTRICT.AREA": 5274.404012, "GRID_G0": "169951", "woodland": 0.1655577849436875, "maskWdl": 0.0, "cropland": 0.56245527896264569, "maskCrp": 1.0, "one": 0.26881740353096067, "maskOne": 0.0, "GRID.AREA": 23.741983788654888, "REGION.AREA": 19890.920730201575 }, "geometry": { "type": "Polygon", "coordinates": [ [ [ 81.686535300558091, 18.501113473902684 ], [ 81.731536541597222, 18.501113525145321 ], [ 81.731536541597222, 18.546114721312467 ], [ 81.686535300558091, 18.546114771488178 ], [ 81.686535300558091, 18.501113473902684 ] ] ] } },
{ "type": "Feature", "properties": { "REGION": 3.0, "STATE.NAME": "Chhattisgarh", "DISTRICT.NAME": "Sukma", "DISTRICT.AREA": 5274.404012, "GRID_G0": "169952", "woodland": 0.13581654930210924, "maskWdl": 0.0, "cropland": 0.6806510117159813, "maskCrp": 1.0, "one": 0.1702486548050765, "maskOne": 0.0, "GRID.AREA": 23.741950002400145, "REGION.AREA": 19890.920730201575 }, "geometry": { "type": "Polygon", "coordinates": [ [ [ 81.731536541597222, 18.501113525145321 ], [ 81.776537740876222, 18.501113509658072 ], [ 81.776537740876222, 18.546114762688489 ], [ 81.731536541597222, 18.546114721312467 ], [ 81.731536541597222, 18.501113525145321 ] ] ] } },
{ "type": "Feature", "properties": { "REGION": 3.0, "STATE.NAME": "Chhattisgarh", "DISTRICT.NAME": "Sukma", "DISTRICT.AREA": 5274.404012, "GRID_G0": "169303", "woodland": 0.18225469745241968, "maskWdl": 0.0, "cropland": 0.5580030656092998, "maskCrp": 1.0, "one": 0.22394774116564892, "maskOne": 0.0, "GRID.AREA": 23.472511896370857, "REGION.AREA": 19890.920730201575 }, "geometry": { "type": "Polygon", "coordinates": [ [ [ 81.821539020621984, 18.462265322777871 ], [ 81.821539020621984, 18.501113527882023 ], [ 81.776537740876222, 18.501113509658072 ], [ 81.776537740876222, 18.456116735937812 ], [ 81.813957018634227, 18.45611746364748 ], [ 81.821539020621984, 18.462265322777871 ] ] ] } },
{ "type": "Feature", "properties": { "REGION": 3.0, "STATE.NAME": "Chhattisgarh", "DISTRICT.NAME": "Sukma", "DISTRICT.AREA": 5274.404012, "GRID_G0": "159535", "woodland": 0.20562975358101795, "maskWdl": 0.0, "cropland": 0.66541305655487637, "maskCrp": 1.0, "one": 0.125690473912484, "maskOne": 0.0, "GRID.AREA": 2.1044718815512207, "REGION.AREA": 19890.920730201575 }, "geometry": { "type": "Polygon", "coordinates": [ [ [ 81.011534371491791, 17.795654897407502 ], [ 81.011534371491791, 17.82611258182947 ], [ 81.002936302087477, 17.826113374800997 ], [ 81.002896687632074, 17.825142685086917 ], [ 81.002897184057872, 17.825140881046877 ], [ 81.003208720905775, 17.82400889089763 ], [ 81.003473845541578, 17.8226267462274 ], [ 81.003473854534832, 17.822625826220929 ], [ 81.003483929639685, 17.821641889661521 ], [ 81.003457027319996, 17.819568322819922 ], [ 81.00345749406813, 17.819566269667689 ], [ 81.003535062393269, 17.81922502551458 ], [ 81.00361310106382, 17.818881721914011 ], [ 81.004152260818231, 17.816740719408699 ], [ 81.004152610654501, 17.816737967483277 ], [ 81.004474689355504, 17.814206485640852 ], [ 81.004474776589745, 17.814205986517091 ], [ 81.004787135418042, 17.812426757888602 ], [ 81.005392505959449, 17.809806957225362 ], [ 81.005847454096795, 17.807693018018426 ], [ 81.005960226383422, 17.807169005545237 ], [ 81.006446718241534, 17.806030933281022 ], [ 81.007188017712906, 17.804689639415358 ], [ 81.007948934096078, 17.802173797682652 ], [ 81.007949165221873, 17.802171791295169 ], [ 81.008205071806685, 17.799946730057567 ], [ 81.008243941404828, 17.798275284277 ], [ 81.008244249872291, 17.798274709610212 ], [ 81.008324218487928, 17.798126217151264 ], [ 81.009423471516072, 17.797300139489892 ], [ 81.011534371491791, 17.795654897407502 ] ] ] } },
{ "type": "Feature", "properties": { "REGION": 3.0, "STATE.NAME": "Odisha", "DISTRICT.NAME": "Malkangiri", "DISTRICT.AREA": 5752.066825, "GRID_G0": "169960", "woodland": 0.27856208632996327, "maskWdl": 0.0, "cropland": 0.56018661276070647, "maskCrp": 1.0, "one": 0.14461086067041376, "maskOne": 0.0, "GRID.AREA": 23.741986260769444, "REGION.AREA": 19890.920730201575 }, "geometry": { "type": "Polygon", "coordinates": [ [ [ 82.091537612050004, 18.501113463151817 ], [ 82.136538842015014, 18.501113478014304 ], [ 82.136538842015014, 18.546114773301259 ], [ 82.091537612050004, 18.546114693126135 ], [ 82.091537612050004, 18.501113463151817 ] ] ] } },
{ "type": "Feature", "properties": { "REGION": 3.0, "STATE.NAME": "Odisha", "DISTRICT.NAME": "Malkangiri", "DISTRICT.AREA": 5752.066825, "GRID_G0": "169962", "woodland": 0.25046694530150515, "maskWdl": 0.0, "cropland": 0.54948713902659896, "maskCrp": 1.0, "one": 0.1976205209766824, "maskOne": 0.0, "GRID.AREA": 23.742004606420302, "REGION.AREA": 19890.920730201575 }, "geometry": { "type": "Polygon", "coordinates": [ [ [ 82.181535632594361, 18.50111347061215 ], [ 82.226536899798603, 18.501113455642916 ], [ 82.226536899798603, 18.546114727071132 ], [ 82.181535632594361, 18.546114719507891 ], [ 82.181535632594361, 18.50111347061215 ] ] ] } },
{ "type": "Feature", "properties": { "REGION": 3.0, "STATE.NAME": "Odisha", "DISTRICT.NAME": "Malkangiri", "DISTRICT.AREA": 5752.066825, "GRID_G0": "169963", "woodland": 0.32299447943231135, "maskWdl": 0.0, "cropland": 0.54833034482096199, "maskCrp": 1.0, "one": 0.12765472142509293, "maskOne": 0.0, "GRID.AREA": 23.741957783166068, "REGION.AREA": 19890.920730201575 }, "geometry": { "type": "Polygon", "coordinates": [ [ [ 82.226536899798603, 18.501113455642916 ], [ 82.271538111394619, 18.50111351956247 ], [ 82.271538111394619, 18.5461147021785 ], [ 82.226536899798603, 18.546114727071132 ], [ 82.226536899798603, 18.501113455642916 ] ] ] } },
{ "type": "Feature", "properties": { "REGION": 3.0, "STATE.NAME": "Odisha", "DISTRICT.NAME": "Malkangiri", "DISTRICT.AREA": 5752.066825, "GRID_G0": "169303", "woodland": 0.18225469745241968, "maskWdl": 0.0, "cropland": 0.5580030656092998, "maskCrp": 1.0, "one": 0.22394774116564892, "maskOne": 0.0, "GRID.AREA": 0.27338179842808968, "REGION.AREA": 19890.920730201575 }, "geometry": { "type": "Polygon", "coordinates": [ [ [ 81.813957018634227, 18.45611746364748 ], [ 81.821539020621984, 18.456116716959297 ], [ 81.821539020621984, 18.462265322777871 ], [ 81.813957018634227, 18.45611746364748 ] ] ] } },
{ "type": "Feature", "properties": { "REGION": 3.0, "STATE.NAME": "Odisha", "DISTRICT.NAME": "Malkangiri", "DISTRICT.AREA": 5752.066825, "GRID_G0": "169308", "woodland": 0.16311411148372901, "maskWdl": 0.0, "cropland": 0.71245500631062153, "maskCrp": 1.0, "one": 0.12177146307472289, "maskOne": 0.0, "GRID.AREA": 23.745883428970728, "REGION.AREA": 19890.920730201575 }, "geometry": { "type": "Polygon", "coordinates": [ [ [ 82.001535135168822, 18.456116701876425 ], [ 82.04653638831924, 18.456116660383145 ], [ 82.04653638831924, 18.501113514747928 ], [ 82.001535135168822, 18.501113446412052 ], [ 82.001535135168822, 18.456116701876425 ] ] ] } },
{ "type": "Feature", "properties": { "REGION": 3.0, "STATE.NAME": "Odisha", "DISTRICT.NAME": "Malkangiri", "DISTRICT.AREA": 5752.066825, "GRID_G0": "169309", "woodland": 0.16114437579322297, "maskWdl": 0.0, "cropland": 0.69808066734466456, "maskCrp": 1.0, "one": 0.13530616078338106, "maskOne": 0.0, "GRID.AREA": 23.745872761888521, "REGION.AREA": 19890.920730201575 }, "geometry": { "type": "Polygon", "coordinates": [ [ [ 82.04653638831924, 18.456116660383145 ], [ 82.091537612050004, 18.456116700207456 ], [ 82.091537612050004, 18.501113463151817 ], [ 82.04653638831924, 18.501113514747928 ], [ 82.04653638831924, 18.456116660383145 ] ] ] } },
{ "type": "Feature", "properties": { "REGION": 3.0, "STATE.NAME": "Odisha", "DISTRICT.NAME": "Malkangiri", "DISTRICT.AREA": 5752.066825, "GRID_G0": "169311", "woodland": 0.19430150736944143, "maskWdl": 0.0, "cropland": 0.66702831628850234, "maskCrp": 1.0, "one": 0.13549345244121466, "maskOne": 0.0, "GRID.AREA": 23.743509239129324, "REGION.AREA": 19890.920730201575 }, "geometry": { "type": "Polygon", "coordinates": [ [ [ 82.136538842015014, 18.456116737983606 ], [ 82.181535632594361, 18.456116685333519 ], [ 82.181535632594361, 18.50111347061215 ], [ 82.136538842015014, 18.501113478014304 ], [ 82.136538842015014, 18.456116737983606 ] ] ] } },
{ "type": "Feature", "properties": { "REGION": 3.0, "STATE.NAME": "Odisha", "DISTRICT.NAME": "Malkangiri", "DISTRICT.AREA": 5752.066825, "GRID_G0": "169312", "woodland": 0.22533890478438898, "maskWdl": 0.0, "cropland": 0.59039252177283907, "maskCrp": 1.0, "one": 0.18279395715476868, "maskOne": 0.0, "GRID.AREA": 23.745866025044723, "REGION.AREA": 19890.920730201575 }, "geometry": { "type": "Polygon", "coordinates": [ [ [ 82.181535632594361, 18.456116685333519 ], [ 82.226536899798603, 18.456116736081249 ], [ 82.226536899798603, 18.501113455642916 ], [ 82.181535632594361, 18.50111347061215 ], [ 82.181535632594361, 18.456116685333519 ] ] ] } },
{ "type": "Feature", "properties": { "REGION": 3.0, "STATE.NAME": "Odisha", "DISTRICT.NAME": "Malkangiri", "DISTRICT.AREA": 5752.066825, "GRID_G0": "168658", "woodland": 0.12389604217233227, "maskWdl": 0.0, "cropland": 0.67240365426086834, "maskCrp": 1.0, "one": 0.19813896907714182, "maskOne": 0.0, "GRID.AREA": 23.754449806789072, "REGION.AREA": 19890.920730201575 }, "geometry": { "type": "Polygon", "coordinates": [ [ [ 82.001535135168822, 18.411115433079051 ], [ 82.04653638831924, 18.411115459093569 ], [ 82.04653638831924, 18.456116660383145 ], [ 82.001535135168822, 18.456116701876425 ], [ 82.001535135168822, 18.411115433079051 ] ] ] } },
{ "type": "Feature", "properties": { "REGION": 3.0, "STATE.NAME": "Odisha", "DISTRICT.NAME": "Malkangiri", "DISTRICT.AREA": 5752.066825, "GRID_G0": "168659", "woodland": 0.16253844754752667, "maskWdl": 0.0, "cropland": 0.71901782872234765, "maskCrp": 1.0, "one": 0.11359217826414555, "maskOne": 0.0, "GRID.AREA": 23.754416712125916, "REGION.AREA": 19890.920730201575 }, "geometry": { "type": "Polygon", "coordinates": [ [ [ 82.04653638831924, 18.411115459093569 ], [ 82.091537612050004, 18.411115497953855 ], [ 82.091537612050004, 18.456116700207456 ], [ 82.04653638831924, 18.456116660383145 ], [ 82.04653638831924, 18.411115459093569 ] ] ] } },
{ "type": "Feature", "properties": { "REGION": 3.0, "STATE.NAME": "Odisha", "DISTRICT.NAME": "Malkangiri", "DISTRICT.AREA": 5752.066825, "GRID_G0": "168660", "woodland": 0.17174792273513032, "maskWdl": 0.0, "cropland": 0.65295058573022091, "maskCrp": 1.0, "one": 0.17413005101543771, "maskOne": 0.0, "GRID.AREA": 23.754438585288622, "REGION.AREA": 19890.920730201575 }, "geometry": { "type": "Polygon", "coordinates": [ [ [ 82.091537612050004, 18.411115497953855 ], [ 82.136538842015014, 18.411115466276843 ], [ 82.136538842015014, 18.456116737983606 ], [ 82.091537612050004, 18.456116700207456 ], [ 82.091537612050004, 18.411115497953855 ] ] ] } },
{ "type": "Feature", "properties": { "REGION": 3.0, "STATE.NAME": "Odisha", "DISTRICT.NAME": "Malkangiri", "DISTRICT.AREA": 5752.066825, "GRID_G0": "168661", "woodland": 0.21354446270748351, "maskWdl": 0.0, "cropland": 0.60655489729272061, "maskCrp": 1.0, "one": 0.17907577475169564, "maskOne": 0.0, "GRID.AREA": 23.752102385845991, "REGION.AREA": 19890.920730201575 }, "geometry": { "type": "Polygon", "coordinates": [ [ [ 82.136538842015014, 18.411115466276843 ], [ 82.181535632594361, 18.411115455866771 ], [ 82.181535632594361, 18.456116685333519 ], [ 82.136538842015014, 18.456116737983606 ], [ 82.136538842015014, 18.411115466276843 ] ] ] } },
{ "type": "Feature", "properties": { "REGION": 3.0, "STATE.NAME": "Odisha", "DISTRICT.NAME": "Malkangiri", "DISTRICT.AREA": 5752.066825, "GRID_G0": "168662", "woodland": 0.12038851399878163, "maskWdl": 0.0, "cropland": 0.72294229837406221, "maskCrp": 1.0, "one": 0.15528658403956686, "maskOne": 0.0, "GRID.AREA": 23.754461311118746, "REGION.AREA": 19890.920730201575 }, "geometry": { "type": "Polygon", "coordinates": [ [ [ 82.181535632594361, 18.411115455866771 ], [ 82.226536899798603, 18.411115479966824 ], [ 82.226536899798603, 18.456116736081249 ], [ 82.181535632594361, 18.456116685333519 ], [ 82.181535632594361, 18.411115455866771 ] ] ] } },
{ "type": "Feature", "properties": { "REGION": 3.0, "STATE.NAME": "Odisha", "DISTRICT.NAME": "Malkangiri", "DISTRICT.AREA": 5752.066825, "GRID_G0": "168009", "woodland": 0.10999092934430135, "maskWdl": 0.0, "cropland": 0.73332333208119127, "maskCrp": 1.0, "one": 0.15474871483438482, "maskOne": 0.0, "GRID.AREA": 23.760670580572643, "REGION.AREA": 19890.920730201575 }, "geometry": { "type": "Polygon", "coordinates": [ [ [ 82.04653638831924, 18.366114223100126 ], [ 82.091537612050004, 18.366114168991153 ], [ 82.091537612050004, 18.411115497953855 ], [ 82.04653638831924, 18.411115459093569 ], [ 82.04653638831924, 18.366114223100126 ] ] ] } },
{ "type": "Feature", "properties": { "REGION": 3.0, "STATE.NAME": "Odisha", "DISTRICT.NAME": "Malkangiri", "DISTRICT.AREA": 5752.066825, "GRID_G0": "168010", "woodland": 0.24523746274961114, "maskWdl": 0.0, "cropland": 0.61317932315588686, "maskCrp": 1.0, "one": 0.14065881514606957, "maskOne": 0.0, "GRID.AREA": 23.760669835995834, "REGION.AREA": 19890.920730201575 }, "geometry": { "type": "Polygon", "coordinates": [ [ [ 82.091537612050004, 18.366114168991153 ], [ 82.136538842015014, 18.366114245568404 ], [ 82.136538842015014, 18.411115466276843 ], [ 82.091537612050004, 18.411115497953855 ], [ 82.091537612050004, 18.366114168991153 ] ] ] } },
{ "type": "Feature", "properties": { "REGION": 3.0, "STATE.NAME": "Odisha", "DISTRICT.NAME": "Malkangiri", "DISTRICT.AREA": 5752.066825, "GRID_G0": "168011", "woodland": 0.2398997031497849, "maskWdl": 0.0, "cropland": 0.56716201847434977, "maskCrp": 1.0, "one": 0.18762641190981508, "maskOne": 0.0, "GRID.AREA": 23.75831039803311, "REGION.AREA": 19890.920730201575 }, "geometry": { "type": "Polygon", "coordinates": [ [ [ 82.136538842015014, 18.366114245568404 ], [ 82.181535632594361, 18.366114185398633 ], [ 82.181535632594361, 18.411115455866771 ], [ 82.136538842015014, 18.411115466276843 ], [ 82.136538842015014, 18.366114245568404 ] ] ] } },
{ "type": "Feature", "properties": { "REGION": 3.0, "STATE.NAME": "Odisha", "DISTRICT.NAME": "Malkangiri", "DISTRICT.AREA": 5752.066825, "GRID_G0": "167354", "woodland": 0.12085266676998195, "maskWdl": 0.0, "cropland": 0.67780582821258517, "maskCrp": 1.0, "one": 0.19041210027570721, "maskOne": 0.0, "GRID.AREA": 23.764523075683169, "REGION.AREA": 19890.920730201575 }, "geometry": { "type": "Polygon", "coordinates": [ [ [ 81.821539020621984, 18.321112935639089 ], [ 81.866535835246324, 18.321112991239833 ], [ 81.866535835246324, 18.366114210583241 ], [ 81.821539020621984, 18.366114222561713 ], [ 81.821539020621984, 18.321112935639089 ] ] ] } },
{ "type": "Feature", "properties": { "REGION": 3.0, "STATE.NAME": "Odisha", "DISTRICT.NAME": "Malkangiri", "DISTRICT.AREA": 5752.066825, "GRID_G0": "166703", "woodland": 0.13686822260301065, "maskWdl": 0.0, "cropland": 0.61470518665596707, "maskCrp": 1.0, "one": 0.23963004581483999, "maskOne": 0.0, "GRID.AREA": 23.770689003784042, "REGION.AREA": 19890.920730201575 }, "geometry": { "type": "Polygon", "coordinates": [ [ [ 81.776537740876222, 18.276116209180152 ], [ 81.821539020621984, 18.276116198160437 ], [ 81.821539020621984, 18.321112935639089 ], [ 81.776537740876222, 18.321112990550183 ], [ 81.776537740876222, 18.276116209180152 ] ] ] } },
{ "type": "Feature", "properties": { "REGION": 3.0, "STATE.NAME": "Odisha", "DISTRICT.NAME": "Malkangiri", "DISTRICT.AREA": 5752.066825, "GRID_G0": "166704", "woodland": 0.18915957452617635, "maskWdl": 0.0, "cropland": 0.62571039817053931, "maskCrp": 1.0, "one": 0.16528640946444773, "maskOne": 0.0, "GRID.AREA": 23.768348920583669, "REGION.AREA": 19890.920730201575 }, "geometry": { "type": "Polygon", "coordinates": [ [ [ 81.821539020621984, 18.276116198160437 ], [ 81.866535835246324, 18.27611613985292 ], [ 81.866535835246324, 18.321112991239833 ], [ 81.821539020621984, 18.321112935639089 ], [ 81.821539020621984, 18.276116198160437 ] ] ] } },
{ "type": "Feature", "properties": { "REGION": 3.0, "STATE.NAME": "Odisha", "DISTRICT.NAME": "Malkangiri", "DISTRICT.AREA": 5752.066825, "GRID_G0": "166705", "woodland": 0.15742224702218599, "maskWdl": 0.0, "cropland": 0.70936956593693357, "maskCrp": 1.0, "one": 0.12032931397365902, "maskOne": 0.0, "GRID.AREA": 23.770685371681711, "REGION.AREA": 19890.920730201575 }, "geometry": { "type": "Polygon", "coordinates": [ [ [ 81.866535835246324, 18.27611613985292 ], [ 81.911537059577427, 18.276116148701593 ], [ 81.911537059577427, 18.321112913212659 ], [ 81.866535835246324, 18.321112991239833 ], [ 81.866535835246324, 18.27611613985292 ] ] ] } },
{ "type": "Feature", "properties": { "REGION": 3.0, "STATE.NAME": "Odisha", "DISTRICT.NAME": "Malkangiri", "DISTRICT.AREA": 5752.066825, "GRID_G0": "166706", "woodland": 0.26090353794330523, "maskWdl": 0.0, "cropland": 0.60836402128339084, "maskCrp": 1.0, "one": 0.12682101793075296, "maskOne": 0.0, "GRID.AREA": 23.770695717431931, "REGION.AREA": 19890.920730201575 }, "geometry": { "type": "Polygon", "coordinates": [ [ [ 81.911537059577427, 18.276116148701593 ], [ 81.956538311260033, 18.276116132071955 ], [ 81.956538311260033, 18.321112967925242 ], [ 81.911537059577427, 18.321112913212659 ], [ 81.911537059577427, 18.276116148701593 ] ] ] } },
{ "type": "Feature", "properties": { "REGION": 3.0, "STATE.NAME": "Odisha", "DISTRICT.NAME": "Malkangiri", "DISTRICT.AREA": 5752.066825, "GRID_G0": "166053", "woodland": 0.23980599403659433, "maskWdl": 0.0, "cropland": 0.55762043717292464, "maskCrp": 1.0, "one": 0.19370461113520071, "maskOne": 0.0, "GRID.AREA": 23.77924671221086, "REGION.AREA": 19890.920730201575 }, "geometry": { "type": "Polygon", "coordinates": [ [ [ 81.776537740876222, 18.231114903597661 ], [ 81.821539020621984, 18.231114933855597 ], [ 81.821539020621984, 18.276116198160437 ], [ 81.776537740876222, 18.276116209180152 ], [ 81.776537740876222, 18.231114903597661 ] ] ] } },
{ "type": "Feature", "properties": { "REGION": 3.0, "STATE.NAME": "Odisha", "DISTRICT.NAME": "Malkangiri", "DISTRICT.AREA": 5752.066825, "GRID_G0": "166054", "woodland": 0.14886393803308504, "maskWdl": 0.0, "cropland": 0.71285749568503098, "maskCrp": 1.0, "one": 0.1281985103285497, "maskOne": 0.0, "GRID.AREA": 23.77685969338615, "REGION.AREA": 19890.920730201575 }, "geometry": { "type": "Polygon", "coordinates": [ [ [ 81.821539020621984, 18.231114933855597 ], [ 81.866535835246324, 18.231114938718346 ], [ 81.866535835246324, 18.27611613985292 ], [ 81.821539020621984, 18.276116198160437 ], [ 81.821539020621984, 18.231114933855597 ] ] ] } },
{ "type": "Feature", "properties": { "REGION": 3.0, "STATE.NAME": "Odisha", "DISTRICT.NAME": "Malkangiri", "DISTRICT.AREA": 5752.066825, "GRID_G0": "166055", "woodland": 0.17201144556851383, "maskWdl": 0.0, "cropland": 0.72832429570325796, "maskCrp": 1.0, "one": 0.091124608249222028, "maskOne": 0.0, "GRID.AREA": 23.779174608405437, "REGION.AREA": 19890.920730201575 }, "geometry": { "type": "Polygon", "coordinates": [ [ [ 81.866535835246324, 18.231114938718346 ], [ 81.911537059577427, 18.231114942036676 ], [ 81.911537059577427, 18.276116148701593 ], [ 81.866535835246324, 18.27611613985292 ], [ 81.866535835246324, 18.231114938718346 ] ] ] } },
{ "type": "Feature", "properties": { "REGION": 3.0, "STATE.NAME": "Odisha", "DISTRICT.NAME": "Malkangiri", "DISTRICT.AREA": 5752.066825, "GRID_G0": "166057", "woodland": 0.26355237928953473, "maskWdl": 0.0, "cropland": 0.58750984130886463, "maskCrp": 1.0, "one": 0.14391503389216548, "maskOne": 0.0, "GRID.AREA": 23.776856149469378, "REGION.AREA": 19890.920730201575 }, "geometry": { "type": "Polygon", "coordinates": [ [ [ 81.956538311260033, 18.23111494136576 ], [ 82.001535135168822, 18.231114935427545 ], [ 82.001535135168822, 18.276116178172245 ], [ 81.956538311260033, 18.276116132071955 ], [ 81.956538311260033, 18.23111494136576 ] ] ] } },
{ "type": "Feature", "properties": { "REGION": 3.0, "STATE.NAME": "Odisha", "DISTRICT.NAME": "Malkangiri", "DISTRICT.AREA": 5752.066825, "GRID_G0": "166058", "woodland": 0.16353932628837295, "maskWdl": 0.0, "cropland": 0.68591894341778936, "maskCrp": 1.0, "one": 0.14542868587219784, "maskOne": 0.0, "GRID.AREA": 23.779218534145297, "REGION.AREA": 19890.920730201575 }, "geometry": { "type": "Polygon", "coordinates": [ [ [ 82.001535135168822, 18.231114935427545 ], [ 82.04653638831924, 18.231114940791464 ], [ 82.04653638831924, 18.276116214476119 ], [ 82.001535135168822, 18.276116178172245 ], [ 82.001535135168822, 18.231114935427545 ] ] ] } },
{ "type": "Feature", "properties": { "REGION": 3.0, "STATE.NAME": "Odisha", "DISTRICT.NAME": "Malkangiri", "DISTRICT.AREA": 5752.066825, "GRID_G0": "166059", "woodland": 0.17710303675258268, "maskWdl": 0.0, "cropland": 0.68535809185322882, "maskCrp": 1.0, "one": 0.1302879925240791, "maskOne": 0.0, "GRID.AREA": 23.779189922923248, "REGION.AREA": 19890.920730201575 }, "geometry": { "type": "Polygon", "coordinates": [ [ [ 82.04653638831924, 18.231114940791464 ], [ 82.091537612050004, 18.231114954938949 ], [ 82.091537612050004, 18.276116148230322 ], [ 82.04653638831924, 18.276116214476119 ], [ 82.04653638831924, 18.231114940791464 ] ] ] } },
{ "type": "Feature", "properties": { "REGION": 3.0, "STATE.NAME": "Odisha", "DISTRICT.NAME": "Malkangiri", "DISTRICT.AREA": 5752.066825, "GRID_G0": "165403", "woodland": 0.19970688273954071, "maskWdl": 0.0, "cropland": 0.63915844858789028, "maskCrp": 1.0, "one": 0.14318278443037066, "maskOne": 0.0, "GRID.AREA": 23.785395436196669, "REGION.AREA": 19890.920730201575 }, "geometry": { "type": "Polygon", "coordinates": [ [ [ 81.776537740876222, 18.186113651417717 ], [ 81.821539020621984, 18.186113630921209 ], [ 81.821539020621984, 18.231114933855597 ], [ 81.776537740876222, 18.231114903597661 ], [ 81.776537740876222, 18.186113651417717 ] ] ] } },
{ "type": "Feature", "properties": { "REGION": 3.0, "STATE.NAME": "Odisha", "DISTRICT.NAME": "Malkangiri", "DISTRICT.AREA": 5752.066825, "GRID_G0": "165404", "woodland": 0.24403675683731485, "maskWdl": 0.0, "cropland": 0.60529117227421425, "maskCrp": 1.0, "one": 0.13043102474397986, "maskOne": 0.0, "GRID.AREA": 23.783032706766107, "REGION.AREA": 19890.920730201575 }, "geometry": { "type": "Polygon", "coordinates": [ [ [ 81.821539020621984, 18.186113630921209 ], [ 81.866535835246339, 18.186113696716955 ], [ 81.866535835246324, 18.231114938718346 ], [ 81.821539020621984, 18.231114933855597 ], [ 81.821539020621984, 18.186113630921209 ] ] ] } },
{ "type": "Feature", "properties": { "REGION": 3.0, "STATE.NAME": "Odisha", "DISTRICT.NAME": "Malkangiri", "DISTRICT.AREA": 5752.066825, "GRID_G0": "165405", "woodland": 0.2241123869958635, "maskWdl": 0.0, "cropland": 0.63708063501702494, "maskCrp": 1.0, "one": 0.1307674214447678, "maskOne": 0.0, "GRID.AREA": 23.785349393111751, "REGION.AREA": 19890.920730201575 }, "geometry": { "type": "Polygon", "coordinates": [ [ [ 81.866535835246339, 18.186113696716955 ], [ 81.911537059577427, 18.186113692299468 ], [ 81.911537059577427, 18.231114942036676 ], [ 81.866535835246324, 18.231114938718346 ], [ 81.866535835246339, 18.186113696716955 ] ] ] } },
{ "type": "Feature", "properties": { "REGION": 3.0, "STATE.NAME": "Odisha", "DISTRICT.NAME": "Malkangiri", "DISTRICT.AREA": 5752.066825, "GRID_G0": "165407", "woodland": 0.2650792002721411, "maskWdl": 0.0, "cropland": 0.59948475918327193, "maskCrp": 1.0, "one": 0.12653125993316783, "maskOne": 0.0, "GRID.AREA": 23.783032651994333, "REGION.AREA": 19890.920730201575 }, "geometry": { "type": "Polygon", "coordinates": [ [ [ 81.956538311260033, 18.186113705387992 ], [ 82.001535135168822, 18.186113645243989 ], [ 82.001535135168822, 18.231114935427545 ], [ 81.956538311260033, 18.23111494136576 ], [ 81.956538311260033, 18.186113705387992 ] ] ] } },
{ "type": "Feature", "properties": { "REGION": 3.0, "STATE.NAME": "Odisha", "DISTRICT.NAME": "Malkangiri", "DISTRICT.AREA": 5752.066825, "GRID_G0": "165408", "woodland": 0.18027166838463257, "maskWdl": 0.0, "cropland": 0.69469441390799325, "maskCrp": 1.0, "one": 0.10485593989204507, "maskOne": 0.0, "GRID.AREA": 23.785373056265659, "REGION.AREA": 19890.920730201575 }, "geometry": { "type": "Polygon", "coordinates": [ [ [ 82.001535135168822, 18.186113645243989 ], [ 82.04653638831924, 18.186113707340315 ], [ 82.04653638831924, 18.231114940791464 ], [ 82.001535135168822, 18.231114935427545 ], [ 82.001535135168822, 18.186113645243989 ] ] ] } },
{ "type": "Feature", "properties": { "REGION": 3.0, "STATE.NAME": "Odisha", "DISTRICT.NAME": "Malkangiri", "DISTRICT.AREA": 5752.066825, "GRID_G0": "164753", "woodland": 0.26574004776270593, "maskWdl": 0.0, "cropland": 0.5632401711224424, "maskCrp": 1.0, "one": 0.15452415023355096, "maskOne": 0.0, "GRID.AREA": 23.789157743873208, "REGION.AREA": 19890.920730201575 }, "geometry": { "type": "Polygon", "coordinates": [ [ [ 81.776537740876222, 18.14111684818495 ], [ 81.821539020621984, 18.141116864870099 ], [ 81.821539020621984, 18.186113630921209 ], [ 81.776537740876222, 18.186113651417717 ], [ 81.776537740876222, 18.14111684818495 ] ] ] } },
{ "type": "Feature", "properties": { "REGION": 3.0, "STATE.NAME": "Odisha", "DISTRICT.NAME": "Malkangiri", "DISTRICT.AREA": 5752.066825, "GRID_G0": "164754", "woodland": 0.30008248775837826, "maskWdl": 0.0, "cropland": 0.55989622740023126, "maskCrp": 1.0, "one": 0.13628336609857439, "maskOne": 0.0, "GRID.AREA": 23.786795622012303, "REGION.AREA": 19890.920730201575 }, "geometry": { "type": "Polygon", "coordinates": [ [ [ 81.821539020621984, 18.141116864870099 ], [ 81.866535835246339, 18.141116899947015 ], [ 81.866535835246339, 18.186113696716955 ], [ 81.821539020621984, 18.186113630921209 ], [ 81.821539020621984, 18.141116864870099 ] ] ] } }
]
}
